{
    "insertion_time": 28.538299560546875,
    "index_creation": {
        "func": [
            "CREATE INDEX IF NOT EXISTS idx_pois_embedding ON PoIs USING hnsw (embedding vector_cosine_ops) WITH (m = 16, ef_construction = 64);"
        ],
        "time": 12.282881498336792
    },
    "query_results": {
        "0": {
            "execution_time": 0.18735027313232422,
            "results": [
                {
                    "id": 11404214153,
                    "tags": {
                        "name": "Acupuncture Herbal Medicine",
                        "healthcare": "alternative",
                        "addr:street": "High Street",
                        "addr:housenumber": "297"
                    },
                    "distance": 3634.64627457,
                    "sims": 0.8040401818776254
                },
                {
                    "id": 3836788560,
                    "tags": {
                        "name": "My Chemist",
                        "email": "broadway@stores.mychemist.com.au",
                        "phone": "+61 3 9460 5467",
                        "amenity": "pharmacy",
                        "healthcare": "pharmacy",
                        "wheelchair": "yes",
                        "addr:street": "Broadway",
                        "addr:housenumber": "270"
                    },
                    "distance": 9677.64689986,
                    "sims": 0.8019287586212158
                },
                {
                    "id": 11715787928,
                    "tags": {
                        "name": "Pista House",
                        "shop": "pastry",
                        "cuisine": "indian",
                        "website": "https://pista-house.com.au/",
                        "addr:street": "Sydney Road",
                        "addr:housenumber": "16"
                    },
                    "distance": 5199.5181701,
                    "sims": 0.7788575887680054
                },
                {
                    "id": 5925846521,
                    "tags": {
                        "name": "Kingsbury Pharmacy",
                        "phone": "+61 3 9469 3220",
                        "amenity": "pharmacy",
                        "healthcare": "pharmacy",
                        "wheelchair": "yes",
                        "addr:street": "Link Street",
                        "addr:housenumber": "9"
                    },
                    "distance": 10791.30582365,
                    "sims": 0.7755080461502075
                },
                {
                    "id": 1034789404,
                    "tags": {
                        "name": "The Peacock Hotel",
                        "amenity": "pub",
                        "website": "https://www.peacockinnhotel.com/",
                        "wheelchair": "limited",
                        "addr:street": "High Street",
                        "addr:housenumber": "210"
                    },
                    "distance": 3404.58406907,
                    "sims": 0.7630707621574402
                },
                {
                    "id": 7045454988,
                    "tags": {
                        "name": "The Warehouse Pizzeria",
                        "phone": "+61 3 9043 5769",
                        "amenity": "restaurant",
                        "cuisine": "italian",
                        "website": "https://www.thewarehousepizzeria.com.au/",
                        "addr:street": "Gilbert Road",
                        "addr:housenumber": "11"
                    },
                    "distance": 5591.02398505,
                    "sims": 0.7625780701637268
                },
                {
                    "id": 10270391131,
                    "tags": {
                        "name": "A Little Room For Ice Cream",
                        "amenity": "ice_cream",
                        "website": "https://www.roomforicecream.com.au/",
                        "addr:street": "Sydney Road",
                        "addr:housenumber": "420"
                    },
                    "distance": 3892.53413486,
                    "sims": 0.7554007768630981
                },
                {
                    "id": 12418866274,
                    "tags": {
                        "addr:street": "Lipton Drive",
                        "addr:housenumber": "46"
                    },
                    "distance": 12475.79172292,
                    "sims": 0.7551968097686768
                },
                {
                    "id": 3403667607,
                    "tags": {
                        "name": "Optometrist",
                        "shop": "optician"
                    },
                    "distance": 12434.38352869,
                    "sims": 0.7551243305206299
                },
                {
                    "id": 634963682,
                    "tags": {
                        "name": "Caltex Petrol",
                        "brand": "Caltex",
                        "amenity": "fuel",
                        "website": "https://www.woolworthspetrol.com.au/",
                        "full_name": "Woolworths Petrol Roxburgh Park",
                        "brand:wikidata": "Q277470"
                    },
                    "distance": 17981.68530694,
                    "sims": 0.7540372610092163
                }
            ]
        },
        "1": {
            "execution_time": 0.17445802688598633,
            "results": [
                {
                    "id": 6237887803,
                    "tags": {
                        "name": "Readings",
                        "shop": "books"
                    },
                    "distance": 4712.10607486,
                    "sims": 0.842679701490385
                },
                {
                    "id": 11953016864,
                    "tags": {
                        "amenity": "bench",
                        "backrest": "no"
                    },
                    "distance": 2701.70051367,
                    "sims": 0.7737052592861291
                },
                {
                    "id": 6907655469,
                    "tags": {
                        "name": "Ambiance Gifts and Furniture",
                        "shop": "furniture",
                        "phone": "+61 3 9326 3044",
                        "website": "https://ambiancegifts.com.au/",
                        "addr:street": "Elizabeth Street",
                        "addr:housenumber": "509-511"
                    },
                    "distance": 4416.81726561,
                    "sims": 0.7722788004597347
                },
                {
                    "id": 1034789404,
                    "tags": {
                        "name": "The Peacock Hotel",
                        "amenity": "pub",
                        "website": "https://www.peacockinnhotel.com/",
                        "wheelchair": "limited",
                        "addr:street": "High Street",
                        "addr:housenumber": "210"
                    },
                    "distance": 3363.94998232,
                    "sims": 0.7678961658168674
                },
                {
                    "id": 10541727119,
                    "tags": {
                        "amenity": "bench",
                        "backrest": "no"
                    },
                    "distance": 3764.42436251,
                    "sims": 0.7650753155575483
                },
                {
                    "id": 12418152208,
                    "tags": {
                        "addr:street": "Fenwick Street",
                        "addr:housenumber": "179"
                    },
                    "distance": 2378.81911821,
                    "sims": 0.764528576023288
                },
                {
                    "id": 12418928609,
                    "tags": {
                        "addr:street": "Alfred Street",
                        "addr:housenumber": "1A"
                    },
                    "distance": 1902.08965652,
                    "sims": 0.7639349591538528
                },
                {
                    "id": 7089882837,
                    "tags": {
                        "amenity": "bench",
                        "backrest": "yes"
                    },
                    "distance": 6824.86754944,
                    "sims": 0.7639320070622645
                },
                {
                    "id": 12414147807,
                    "tags": {
                        "addr:flats": "1-7;101-115;201-211;301-316;401-414;501-515;601-615;701-710;801-811;901-911;1001-1007;1101-1106;1201-1206",
                        "addr:street": "Wardens Walk",
                        "addr:housenumber": "20"
                    },
                    "distance": 3278.87893225,
                    "sims": 0.7635172496787797
                },
                {
                    "id": 12411661053,
                    "tags": {
                        "addr:street": "Coyne Street",
                        "addr:housenumber": "5"
                    },
                    "distance": 5725.40561528,
                    "sims": 0.763489533510699
                }
            ]
        },
        "2": {
            "execution_time": 0.17690277099609375,
            "results": [
                {
                    "id": 10720437206,
                    "tags": {
                        "name": "Tasteport",
                        "amenity": "restaurant"
                    },
                    "distance": 4387.98018879,
                    "sims": 0.9044512054688554
                },
                {
                    "id": 2421608381,
                    "tags": {
                        "name": "Fidels",
                        "amenity": "restaurant"
                    },
                    "distance": 5331.60751456,
                    "sims": 0.9026419921194581
                },
                {
                    "id": 2971088133,
                    "tags": {
                        "name": "Rue de Cr\u00eaperie",
                        "amenity": "restaurant",
                        "cuisine": "crepe"
                    },
                    "distance": 7907.58900981,
                    "sims": 0.8961544137738359
                },
                {
                    "id": 3928348521,
                    "tags": {
                        "name": "BBQ Brothers",
                        "amenity": "restaurant"
                    },
                    "distance": 7275.91828126,
                    "sims": 0.895533538582121
                },
                {
                    "id": 3885415464,
                    "tags": {
                        "name": "Galleria",
                        "amenity": "cafe"
                    },
                    "distance": 2178.91941296,
                    "sims": 0.8928811039358696
                },
                {
                    "id": 9858417571,
                    "tags": {
                        "name": "Lulu's Char Koay Tiao",
                        "amenity": "restaurant"
                    },
                    "distance": 6184.42365996,
                    "sims": 0.8927952136017926
                },
                {
                    "id": 3276141237,
                    "tags": {
                        "name": "Plates On bourke",
                        "amenity": "restaurant"
                    },
                    "distance": 6115.75405429,
                    "sims": 0.892777809037219
                },
                {
                    "id": 2262245569,
                    "tags": {
                        "name": "The Original Pie Company",
                        "phone": "+61 3 9682 3444",
                        "amenity": "fast_food",
                        "cuisine": "pie",
                        "takeaway": "yes",
                        "addr:street": "Clarendon Street",
                        "outdoor_seating": "yes",
                        "addr:housenumber": "246"
                    },
                    "distance": 4337.63810413,
                    "sims": 0.8923534833687287
                },
                {
                    "id": 3928348519,
                    "tags": {
                        "name": "Joe's Eatery",
                        "amenity": "cafe"
                    },
                    "distance": 7897.69616828,
                    "sims": 0.8919605161980252
                },
                {
                    "id": 302977766,
                    "tags": {
                        "name": "Dick Whittington Tavern",
                        "amenity": "pub"
                    },
                    "distance": 967.42103359,
                    "sims": 0.8895719120846387
                }
            ]
        },
        "3": {
            "execution_time": 0.1778557300567627,
            "results": [
                {
                    "id": 6741639490,
                    "tags": {
                        "tourism": "artwork"
                    },
                    "distance": 1869.1109788,
                    "sims": 0.8892450596702209
                },
                {
                    "id": 5776644658,
                    "tags": {
                        "tourism": "artwork"
                    },
                    "distance": 3632.53768369,
                    "sims": 0.8853943621172293
                },
                {
                    "id": 6245731017,
                    "tags": {
                        "tourism": "artwork",
                        "artwork_type": "statue"
                    },
                    "distance": 1243.42759269,
                    "sims": 0.8653928958433169
                },
                {
                    "id": 9141341453,
                    "tags": {
                        "tourism": "artwork",
                        "artwork_type": "sculpture"
                    },
                    "distance": 1673.14220766,
                    "sims": 0.8640774135451557
                },
                {
                    "id": 9162478302,
                    "tags": {
                        "name": "Anchor",
                        "tourism": "artwork"
                    },
                    "distance": 1455.30196129,
                    "sims": 0.8615940625685404
                },
                {
                    "id": 1299188310,
                    "tags": {
                        "tourism": "picnic_site"
                    },
                    "distance": 4788.85782185,
                    "sims": 0.8599784708074645
                },
                {
                    "id": 11012132472,
                    "tags": {
                        "tourism": "artwork",
                        "artwork_type": "graffiti"
                    },
                    "distance": 5090.91015214,
                    "sims": 0.8598133063761702
                },
                {
                    "id": 2640309311,
                    "tags": {
                        "tourism": "picnic_site"
                    },
                    "distance": 7827.9052371,
                    "sims": 0.8549962389478357
                },
                {
                    "id": 2720130561,
                    "tags": {
                        "tourism": "artwork",
                        "artwork_type": "stone"
                    },
                    "distance": 4962.85656511,
                    "sims": 0.8535053991964124
                },
                {
                    "id": 2653268010,
                    "tags": {
                        "tourism": "picnic_site"
                    },
                    "distance": 7718.23925695,
                    "sims": 0.8516250694915581
                }
            ]
        },
        "4": {
            "execution_time": 0.1811506748199463,
            "results": [
                {
                    "id": 2596278947,
                    "tags": {
                        "name": "Dandenong North",
                        "place": "suburb"
                    },
                    "distance": 3055.98993639,
                    "sims": 0.7843738840896362
                },
                {
                    "id": 12419862287,
                    "tags": {
                        "addr:street": "Mt Dandenong Tourist Road",
                        "addr:housenumber": "178"
                    },
                    "distance": 15334.25408504,
                    "sims": 0.7478946079235865
                },
                {
                    "id": 5243876844,
                    "tags": {
                        "name": "Dandy Travel",
                        "shop": "travel_agency"
                    },
                    "distance": 464.52688148,
                    "sims": 0.7457132945744501
                },
                {
                    "id": 3923354299,
                    "tags": {
                        "name": "Total Tools Dandenong",
                        "shop": "doityourself",
                        "addr:street": "Cheltenham Road",
                        "addr:housenumber": "187"
                    },
                    "distance": 2545.53841308,
                    "sims": 0.7430410111995949
                },
                {
                    "id": 5285526982,
                    "tags": {
                        "name": "Drakulic Lawyers",
                        "office": "lawyer"
                    },
                    "distance": 471.89906193,
                    "sims": 0.7384689477756358
                },
                {
                    "id": 12419905723,
                    "tags": {
                        "addr:street": "Mt Dandenong Tourist Road",
                        "addr:housenumber": "1548-1552"
                    },
                    "distance": 19628.47773815,
                    "sims": 0.7340213098475403
                },
                {
                    "id": 12419871102,
                    "tags": {
                        "addr:street": "Mt Dandenong Tourist Road",
                        "addr:housenumber": "1478"
                    },
                    "distance": 19945.14028098,
                    "sims": 0.7309406009493584
                },
                {
                    "id": 12420106993,
                    "tags": {
                        "addr:street": "Dandenong Hastings Road",
                        "addr:housenumber": "665"
                    },
                    "distance": 12422.47507975,
                    "sims": 0.7231873933822376
                },
                {
                    "id": 12419810196,
                    "tags": {
                        "addr:street": "Mt Dandenong Tourist Road",
                        "addr:housenumber": "1439-1441"
                    },
                    "distance": 19830.72479384,
                    "sims": 0.7180902651956382
                },
                {
                    "id": 12419870952,
                    "tags": {
                        "addr:street": "Mt Dandenong Tourist Road",
                        "addr:housenumber": "1448-1450"
                    },
                    "distance": 20197.1559901,
                    "sims": 0.7162370166213676
                }
            ]
        },
        "5": {
            "execution_time": 0.1796574592590332,
            "results": [
                {
                    "id": 9135519890,
                    "tags": {
                        "name": "Brew Tower Museum",
                        "tourism": "museum"
                    },
                    "distance": 2182.6886083,
                    "sims": 0.7692463443806422
                },
                {
                    "id": 5928461725,
                    "tags": {
                        "name": "New Tea",
                        "shop": "beverages"
                    },
                    "distance": 1122.98736681,
                    "sims": 0.7620754894501898
                },
                {
                    "id": 2321936548,
                    "tags": {
                        "name": "Fawkner Airport Motor Inn",
                        "tourism": "motel",
                        "operator": "Best Western"
                    },
                    "distance": 12267.97193526,
                    "sims": 0.7368380301884476
                },
                {
                    "id": 6923586315,
                    "tags": {
                        "amenity": "drinking_water"
                    },
                    "distance": 13822.84841543,
                    "sims": 0.7249086015062786
                },
                {
                    "id": 6017200045,
                    "tags": {
                        "name": "HA Espresso",
                        "amenity": "cafe"
                    },
                    "distance": 9253.01678714,
                    "sims": 0.7208444975296676
                },
                {
                    "id": 6471919806,
                    "tags": {
                        "name": "Espresso Bar",
                        "amenity": "cafe"
                    },
                    "distance": 5048.23820163,
                    "sims": 0.7198960685915939
                },
                {
                    "id": 6656704241,
                    "tags": {
                        "name": "Mr Wednesday",
                        "amenity": "cafe",
                        "cuisine": "coffee_shop"
                    },
                    "distance": 7030.02895797,
                    "sims": 0.7196666336457178
                },
                {
                    "id": 6876562374,
                    "tags": {
                        "name": "San Churro",
                        "amenity": "cafe",
                        "cuisine": "dessert;chocolate"
                    },
                    "distance": 2168.51713306,
                    "sims": 0.7191624547548788
                },
                {
                    "id": 2760877297,
                    "tags": {
                        "fuel": "electric",
                        "amenity": "bbq"
                    },
                    "distance": 10206.9321899,
                    "sims": 0.7172361184814224
                },
                {
                    "id": 714681793,
                    "tags": {
                        "name": "Parliament",
                        "railway": "subway_entrance"
                    },
                    "distance": 1434.36654317,
                    "sims": 0.7171207576178265
                }
            ]
        },
        "6": {
            "execution_time": 0.17840909957885742,
            "results": [
                {
                    "id": 6138135274,
                    "tags": {
                        "name": "Treasury Pharmacy",
                        "amenity": "pharmacy",
                        "healthcare": "pharmacy",
                        "wheelchair": "yes",
                        "opening_hours": "Mo-Fr 08:00-18:00"
                    },
                    "distance": 2406.7298085,
                    "sims": 0.8324816075663203
                },
                {
                    "id": 6989600887,
                    "tags": {
                        "name": "Roundabout Pizza",
                        "amenity": "fast_food",
                        "cuisine": "pizza",
                        "opening_hours": "Mo-Su 17:00-23:00"
                    },
                    "distance": 3844.55133278,
                    "sims": 0.831203122425837
                },
                {
                    "id": 649798969,
                    "tags": {
                        "name": "Masani",
                        "phone": "+61 3 9347 5610",
                        "amenity": "restaurant",
                        "cuisine": "italian",
                        "website": "https://www.masani.com.au/",
                        "addr:street": "Drummond Street",
                        "opening_hours": "Mo-Su 11:00-18:00+",
                        "outdoor_seating": "yes",
                        "addr:housenumber": "313",
                        "check_date:opening_hours": "2023-08-11"
                    },
                    "distance": 2783.7187725,
                    "sims": 0.8274716076940852
                },
                {
                    "id": 296846628,
                    "tags": {
                        "fee": "no",
                        "amenity": "toilets",
                        "check_date": "2022-11-11",
                        "wheelchair": "yes"
                    },
                    "distance": 5467.84740163,
                    "sims": 0.8243932655678231
                },
                {
                    "id": 1072618045,
                    "tags": {
                        "name": "Tempted",
                        "shop": "gift",
                        "phone": "+61 3 9376 5106",
                        "website": "https://tempted.com.au/",
                        "addr:street": "Macaulay Road",
                        "opening_hours": "Mo-Fr 10:00-18:00; Sa 09:00-17:00; Su 10:00-16:00",
                        "addr:housenumber": "500"
                    },
                    "distance": 2806.18319014,
                    "sims": 0.8243301933697477
                },
                {
                    "id": 4976357654,
                    "tags": {
                        "name": "Taste Hunan",
                        "cuisine": "korean",
                        "check_date": "2024-12-01",
                        "disused:amenity": "restaurant"
                    },
                    "distance": 1836.57154178,
                    "sims": 0.8231159973684723
                },
                {
                    "id": 240458738,
                    "tags": {
                        "amenity": "telephone",
                        "check_date": "2022-10-18"
                    },
                    "distance": 5036.14769464,
                    "sims": 0.8229579854222089
                },
                {
                    "id": 496447183,
                    "tags": {
                        "fee": "no",
                        "amenity": "toilets",
                        "check_date": "2022-04-20"
                    },
                    "distance": 4965.58743576,
                    "sims": 0.8208129330185393
                },
                {
                    "id": 6089154668,
                    "tags": {
                        "amenity": "telephone",
                        "check_date": "2022-12-13",
                        "wheelchair": "yes"
                    },
                    "distance": 1298.33805954,
                    "sims": 0.8204717666614003
                },
                {
                    "id": 12408340475,
                    "tags": {
                        "name": "Inner West Swedish Bakery",
                        "shop": "bakery",
                        "website": "https://innerwestswedishbaker.com.au/",
                        "check_date": "2024-12-10",
                        "addr:street": "Barkly Street",
                        "payment:cash": "yes",
                        "opening_hours": "Mo off; Tu-Su 07:00-14:00",
                        "addr:housenumber": "549A",
                        "payment:debit_cards": "yes",
                        "payment:credit_cards": "yes"
                    },
                    "distance": 6369.27971146,
                    "sims": 0.8198160451267038
                }
            ]
        },
        "7": {
            "execution_time": 0.18049836158752441,
            "results": [
                {
                    "id": 8872097276,
                    "tags": {
                        "name": "Mile End Bagels",
                        "phone": "+61 3 7014 8698",
                        "amenity": "cafe",
                        "cuisine": "bagel;coffee",
                        "website": "https://mile-end.com.au/",
                        "addr:state": "VIC",
                        "diet:vegan": "yes",
                        "addr:street": "Wilkinson Street",
                        "addr:suburb": "Brunswick",
                        "payment:cash": "no",
                        "payment:visa": "yes",
                        "addr:postcode": "3056",
                        "drive_through": "no",
                        "opening_hours": "Mo-Su 09:00-14:30",
                        "diet:vegetarian": "yes",
                        "addr:housenumber": "1",
                        "payment:apple_pay": "yes",
                        "payment:google_pay": "yes",
                        "payment:mastercard": "yes",
                        "payment:visa_contactless": "yes",
                        "payment:mastercard_contactless": "yes"
                    },
                    "distance": 4516.06684724,
                    "sims": 0.850955577564956
                },
                {
                    "id": 9748242993,
                    "tags": {
                        "name": "Woodfrog Bakery",
                        "shop": "bakery"
                    },
                    "distance": 2361.43064881,
                    "sims": 0.841952744228683
                },
                {
                    "id": 7248467257,
                    "tags": {
                        "name": "Terror Twilight",
                        "email": "hello@terrortwilight.com.au",
                        "phone": "+61 3 9417 0129",
                        "amenity": "cafe",
                        "website": "https://terrortwilight.com.au",
                        "takeaway": "yes",
                        "check_date": "2025-02-13",
                        "diet:vegan": "yes",
                        "addr:street": "Johnston Street",
                        "opening_hours": "Mo-Fr 07:00-16:00; Sa,Su 08:00-16:00",
                        "indoor_seating": "yes",
                        "diet:vegetarian": "yes",
                        "outdoor_seating": "yes",
                        "addr:housenumber": "11\u201313",
                        "diet:gluten_free": "yes"
                    },
                    "distance": 546.63677961,
                    "sims": 0.840747418670977
                },
                {
                    "id": 11104136304,
                    "tags": {
                        "name": "#1000 Bread",
                        "shop": "bakery",
                        "level": "0",
                        "wheelchair": "limited"
                    },
                    "distance": 2068.2395592,
                    "sims": 0.8326347467785701
                },
                {
                    "id": 10310019910,
                    "tags": {
                        "name": "Canning's",
                        "shop": "butcher"
                    },
                    "distance": 1910.83457153,
                    "sims": 0.8303271521308305
                },
                {
                    "id": 6138840893,
                    "tags": {
                        "name": "Vacation",
                        "amenity": "cafe",
                        "cuisine": "coffee_shop",
                        "takeaway": "yes",
                        "check_date": "2025-02-12",
                        "diet:vegan": "yes",
                        "wheelchair": "yes",
                        "opening_hours": "Mo-Fr 06:30-14:00; Sa,Su 07:00-14:00",
                        "indoor_seating": "yes",
                        "diet:vegetarian": "yes",
                        "payment:debit_cards": "yes",
                        "payment:credit_cards": "yes"
                    },
                    "distance": 1800.34474743,
                    "sims": 0.8299974787226774
                },
                {
                    "id": 9858427589,
                    "tags": {
                        "name": "Basic Buns",
                        "amenity": "restaurant"
                    },
                    "distance": 2798.04041811,
                    "sims": 0.8298862215436213
                },
                {
                    "id": 2664381194,
                    "tags": {
                        "name": "Lord of the Fries",
                        "brand": "Lord of the Fries",
                        "phone": "+61 3 9600 3990",
                        "amenity": "fast_food",
                        "cuisine": "burger",
                        "website": "http://www.burgeredge.com/",
                        "takeaway": "yes",
                        "diet:vegan": "only",
                        "addr:street": "King Street",
                        "brand:wikidata": "Q104088629",
                        "addr:housenumber": "182"
                    },
                    "distance": 2973.634499,
                    "sims": 0.8297069059754805
                },
                {
                    "id": 6846240869,
                    "tags": {
                        "name": "Double Dutch Bakery",
                        "amenity": "cafe",
                        "check_date": "2023-09-12"
                    },
                    "distance": 4635.09319549,
                    "sims": 0.8263137911488792
                },
                {
                    "id": 12074853374,
                    "tags": {
                        "name": "Little Mylk Bar - Tasty Vegan Streetfood",
                        "phone": "+61 0431107105",
                        "mobile": "+61 0431 107 105",
                        "source": "Real Estate Team University of Melbourne;Jon Peacock;local knowledge",
                        "amenity": "cafe",
                        "cuisine": "coffee_shop;burger;sandwich",
                        "smoking": "no",
                        "website": "https://littlemylkbar.com.au/",
                        "capacity": "50",
                        "delivery": "no",
                        "takeaway": "yes",
                        "check_date": "2024-08-06",
                        "diet:local": "yes",
                        "diet:vegan": "yes",
                        "wheelchair": "yes",
                        "addr:street": "University Plaza",
                        "description": "Amazing pop-up cafe in a caravan selling awesome vegan food with gluten-free options",
                        "diet:healthy": "yes",
                        "website:menu": "https://littlemylkbar.com.au/menu/",
                        "opening_hours": "Mo-Th 09:00-15:00",
                        "diet:vegetarian": "yes",
                        "internet_access": "wlan",
                        "outdoor_seating": "yes",
                        "air_conditioning": "no",
                        "diet:gluten_free": "yes",
                        "diet:lactose_free": "yes",
                        "internet_access:fee": "no",
                        "payment:debit_cards": "yes",
                        "internet_access:ssid": "Uniwireless, Eduroam",
                        "payment:credit_cards": "yes"
                    },
                    "distance": 2273.57110357,
                    "sims": 0.8232520291961043
                }
            ]
        },
        "8": {
            "execution_time": 0.1833038330078125,
            "results": [
                {
                    "id": 1064817320,
                    "tags": {
                        "name": "Carlton Fish & Chips",
                        "phone": "+61 3 9347 2622",
                        "cuisine": "fish_and_chips",
                        "check_date": "2022-10-02",
                        "addr:street": "Rathdowne Street",
                        "opening_hours": "Mo-Fr 12:00-21:00; Sa-Su 17:00-21:00",
                        "disused:amenity": "fast_food",
                        "addr:housenumber": "178"
                    },
                    "distance": 2076.93805036,
                    "sims": 0.8624944828481027
                },
                {
                    "id": 8972382968,
                    "tags": {
                        "name": "Riverslide Skate Shop and Caf\u00e9",
                        "amenity": "cafe"
                    },
                    "distance": 1175.06455689,
                    "sims": 0.8608043518048057
                },
                {
                    "id": 582845533,
                    "tags": {
                        "name": "Le Gourmet Cakes",
                        "level": "0",
                        "phone": "+61 3 9419 9753",
                        "amenity": "cafe",
                        "cuisine": "regional",
                        "check_date": "2022-07-20",
                        "wheelchair": "no",
                        "addr:street": "Brunswick Street",
                        "opening_hours": "Mo-Fr 06:30-18:00; Sa 07:30-18:00; Su 07:00-18:00",
                        "outdoor_seating": "yes",
                        "addr:housenumber": "271"
                    },
                    "distance": 1967.1401142,
                    "sims": 0.8600837915762314
                },
                {
                    "id": 3928348519,
                    "tags": {
                        "name": "Joe's Eatery",
                        "amenity": "cafe"
                    },
                    "distance": 1707.69345902,
                    "sims": 0.8596165337236197
                },
                {
                    "id": 633158552,
                    "tags": {
                        "name": "Unico",
                        "shop": "hairdresser",
                        "phone": "+61 3 9415 7169",
                        "website": "https://www.unicohair.com.au/",
                        "wheelchair": "no",
                        "addr:street": "Brunswick Street",
                        "opening_hours": "Tu 11:00-17:30; We 10:00-19:00; Th 10:00-21:00; Fr 10:00-19:30; Sa 9:00-18:00; Su 11:00-18:00",
                        "addr:housenumber": "191"
                    },
                    "distance": 1731.10872097,
                    "sims": 0.8578546640288486
                },
                {
                    "id": 711750998,
                    "tags": {
                        "amenity": "cafe"
                    },
                    "distance": 418.18408116,
                    "sims": 0.8569301538246791
                },
                {
                    "id": 1282403463,
                    "tags": {
                        "name": "Legals",
                        "amenity": "cafe"
                    },
                    "distance": 463.26195514,
                    "sims": 0.8541154961036241
                },
                {
                    "id": 6989600887,
                    "tags": {
                        "name": "Roundabout Pizza",
                        "amenity": "fast_food",
                        "cuisine": "pizza",
                        "opening_hours": "Mo-Su 17:00-23:00"
                    },
                    "distance": 4705.42487195,
                    "sims": 0.8535225152124747
                },
                {
                    "id": 5826018158,
                    "tags": {
                        "name": "RocoMamas",
                        "phone": "+61 3 9533 8899",
                        "amenity": "restaurant",
                        "cuisine": "burger;steak_house",
                        "website": "https://www.rocomamas.com.au/",
                        "addr:street": "Chapel Street",
                        "opening_hours": "Mo-We, Su 11:00-22:00; Th 11:00-23:00; Fr, Sa 11:00-00:00",
                        "addr:housenumber": "156"
                    },
                    "distance": 5102.8872175,
                    "sims": 0.8528387906379048
                },
                {
                    "id": 649798969,
                    "tags": {
                        "name": "Masani",
                        "phone": "+61 3 9347 5610",
                        "amenity": "restaurant",
                        "cuisine": "italian",
                        "website": "https://www.masani.com.au/",
                        "addr:street": "Drummond Street",
                        "opening_hours": "Mo-Su 11:00-18:00+",
                        "outdoor_seating": "yes",
                        "addr:housenumber": "313",
                        "check_date:opening_hours": "2023-08-11"
                    },
                    "distance": 1671.80378061,
                    "sims": 0.8513738029605865
                }
            ]
        },
        "9": {
            "execution_time": 0.1776883602142334,
            "results": [
                {
                    "id": 12410659977,
                    "tags": {
                        "addr:street": "Gibsons Circuit",
                        "addr:housenumber": "27"
                    },
                    "distance": 21426.54732542,
                    "sims": 0.7441635270411241
                },
                {
                    "id": 12410660025,
                    "tags": {
                        "addr:street": "Gibsons Circuit",
                        "addr:housenumber": "19"
                    },
                    "distance": 21469.1184855,
                    "sims": 0.741863800620532
                },
                {
                    "id": 12412209616,
                    "tags": {
                        "addr:street": "Ringtail Circuit",
                        "addr:housenumber": "19"
                    },
                    "distance": 2231.41000873,
                    "sims": 0.74120148911496
                },
                {
                    "id": 12413527440,
                    "tags": {
                        "addr:street": "Concord Circuit",
                        "addr:housenumber": "30"
                    },
                    "distance": 13089.98910835,
                    "sims": 0.740765302272496
                },
                {
                    "id": 12413527409,
                    "tags": {
                        "addr:street": "Concord Circuit",
                        "addr:housenumber": "29"
                    },
                    "distance": 13000.10582107,
                    "sims": 0.7387379536756312
                },
                {
                    "id": 12412210959,
                    "tags": {
                        "addr:street": "Ringtail Circuit",
                        "addr:housenumber": "30"
                    },
                    "distance": 2415.96008488,
                    "sims": 0.737855804775215
                },
                {
                    "id": 12413527438,
                    "tags": {
                        "addr:street": "Concord Circuit",
                        "addr:housenumber": "26"
                    },
                    "distance": 13080.85684412,
                    "sims": 0.7370706922538444
                },
                {
                    "id": 12410659966,
                    "tags": {
                        "addr:street": "Gibsons Circuit",
                        "addr:housenumber": "88"
                    },
                    "distance": 21502.35987869,
                    "sims": 0.7363589091729027
                },
                {
                    "id": 12413527402,
                    "tags": {
                        "addr:street": "Concord Circuit",
                        "addr:housenumber": "15"
                    },
                    "distance": 12878.53098855,
                    "sims": 0.7343765022235932
                },
                {
                    "id": 12412209619,
                    "tags": {
                        "addr:street": "Ringtail Circuit",
                        "addr:housenumber": "25"
                    },
                    "distance": 2255.87800116,
                    "sims": 0.7322377083726717
                }
            ]
        },
        "10": {
            "execution_time": 0.17905473709106445,
            "results": [
                {
                    "id": 5776644658,
                    "tags": {
                        "tourism": "artwork"
                    },
                    "distance": 3686.28395937,
                    "sims": 0.8939117446156412
                },
                {
                    "id": 6741639490,
                    "tags": {
                        "tourism": "artwork"
                    },
                    "distance": 2140.60727065,
                    "sims": 0.884862092766288
                },
                {
                    "id": 9141341453,
                    "tags": {
                        "tourism": "artwork",
                        "artwork_type": "sculpture"
                    },
                    "distance": 1522.50822664,
                    "sims": 0.8798226929028378
                },
                {
                    "id": 6245731017,
                    "tags": {
                        "tourism": "artwork",
                        "artwork_type": "statue"
                    },
                    "distance": 1321.53119265,
                    "sims": 0.8797384787229601
                },
                {
                    "id": 9135519890,
                    "tags": {
                        "name": "Brew Tower Museum",
                        "tourism": "museum"
                    },
                    "distance": 1851.83455608,
                    "sims": 0.8745091521274146
                },
                {
                    "id": 10694344553,
                    "tags": {
                        "name": "New Order",
                        "tourism": "artwork",
                        "start_date": "2009",
                        "artist_name": "Louise Lavarack",
                        "artwork_type": "sculpture"
                    },
                    "distance": 6038.12718184,
                    "sims": 0.8617159540307796
                },
                {
                    "id": 9162478302,
                    "tags": {
                        "name": "Anchor",
                        "tourism": "artwork"
                    },
                    "distance": 1387.34427842,
                    "sims": 0.8595607103226589
                },
                {
                    "id": 3105262652,
                    "tags": {
                        "name": "Street Art",
                        "tourism": "viewpoint"
                    },
                    "distance": 1014.96806867,
                    "sims": 0.8542166103800515
                },
                {
                    "id": 4120677338,
                    "tags": {
                        "name": "Sir Redmond Barry",
                        "tourism": "artwork",
                        "artwork_type": "statue"
                    },
                    "distance": 1238.0966159,
                    "sims": 0.8532470218546581
                },
                {
                    "id": 11012132472,
                    "tags": {
                        "tourism": "artwork",
                        "artwork_type": "graffiti"
                    },
                    "distance": 6019.9914801,
                    "sims": 0.8502774595553021
                }
            ]
        },
        "11": {
            "execution_time": 0.17467999458312988,
            "results": [
                {
                    "id": 3841977822,
                    "tags": {
                        "name": "Crown Asian Supermarket",
                        "shop": "supermarket"
                    },
                    "distance": 3862.68246527,
                    "sims": 0.8747778759865624
                },
                {
                    "id": 1942538693,
                    "tags": {
                        "name": "Lawson Grove Shop",
                        "amenity": "cafe"
                    },
                    "distance": 183.84265558,
                    "sims": 0.8573063440518112
                },
                {
                    "id": 3840226142,
                    "tags": {
                        "name": "Fitzroy IGA",
                        "shop": "supermarket",
                        "brand": "IGA",
                        "brand:wikidata": "Q5970945",
                        "brand:wikipedia": "en:IGA (supermarkets)"
                    },
                    "distance": 4650.94503675,
                    "sims": 0.8419037996028672
                },
                {
                    "id": 1361163827,
                    "tags": {
                        "name": "Victoria Fruit Place",
                        "shop": "convenience"
                    },
                    "distance": 4640.98892769,
                    "sims": 0.8415266311262148
                },
                {
                    "id": 945554121,
                    "tags": {
                        "name": "Launder It",
                        "amenity": "cafe"
                    },
                    "distance": 6570.76735547,
                    "sims": 0.8401038002227547
                },
                {
                    "id": 1012065077,
                    "tags": {
                        "name": "Subway",
                        "brand": "Subway",
                        "amenity": "fast_food",
                        "cuisine": "sandwich",
                        "takeaway": "yes",
                        "addr:street": "Swanston Street",
                        "addr:suburb": "Carlton",
                        "addr:country": "AU",
                        "addr:postcode": "3053",
                        "brand:wikidata": "Q244457",
                        "brand:wikipedia": "en:Subway (restaurant)",
                        "addr:housenumber": "672"
                    },
                    "distance": 4483.65026292,
                    "sims": 0.8396218970144295
                },
                {
                    "id": 11529320514,
                    "tags": {
                        "name": "Nutrition Warehouse",
                        "shop": "health_food"
                    },
                    "distance": 12319.97767038,
                    "sims": 0.839446897902538
                },
                {
                    "id": 5982185657,
                    "tags": {
                        "name": "Joomak",
                        "amenity": "restaurant",
                        "cuisine": "korean"
                    },
                    "distance": 3789.45538619,
                    "sims": 0.8355337267597445
                },
                {
                    "id": 3840434935,
                    "tags": {
                        "name": "Cafe Alfretti",
                        "amenity": "cafe"
                    },
                    "distance": 1353.89195825,
                    "sims": 0.8348961559744467
                },
                {
                    "id": 614493844,
                    "tags": {
                        "name": "Jeremy's Caf\u00e9",
                        "amenity": "cafe",
                        "addr:street": "Hardware Lane",
                        "addr:suburb": "Melbourne",
                        "addr:postcode": "3000",
                        "addr:housenumber": "13"
                    },
                    "distance": 3463.74956518,
                    "sims": 0.8347710262252638
                }
            ]
        },
        "12": {
            "execution_time": 0.17519927024841309,
            "results": [
                {
                    "id": 9409682884,
                    "tags": {
                        "tourism": "viewpoint",
                        "direction": "W"
                    },
                    "distance": 7883.37723321,
                    "sims": 0.574459603493265
                },
                {
                    "id": 615072483,
                    "tags": {
                        "name": "Saturn",
                        "tourism": "artwork"
                    },
                    "distance": 5782.60009987,
                    "sims": 0.5741985351802705
                },
                {
                    "id": 6741639490,
                    "tags": {
                        "tourism": "artwork"
                    },
                    "distance": 5909.67642204,
                    "sims": 0.5645026487704974
                },
                {
                    "id": 9162478302,
                    "tags": {
                        "name": "Anchor",
                        "tourism": "artwork"
                    },
                    "distance": 6230.62394773,
                    "sims": 0.5643522922362769
                },
                {
                    "id": 2707962813,
                    "tags": {
                        "tourism": "picnic_site"
                    },
                    "distance": 8974.86612556,
                    "sims": 0.5590429498476486
                },
                {
                    "id": 2653268010,
                    "tags": {
                        "tourism": "picnic_site"
                    },
                    "distance": 11675.27023248,
                    "sims": 0.5558490951331098
                },
                {
                    "id": 617905377,
                    "tags": {
                        "tourism": "picnic_site"
                    },
                    "distance": 3623.11684488,
                    "sims": 0.5549948315327081
                },
                {
                    "id": 617905595,
                    "tags": {
                        "tourism": "picnic_site"
                    },
                    "distance": 3863.95868825,
                    "sims": 0.5540035302634838
                },
                {
                    "id": 2646549667,
                    "tags": {
                        "tourism": "picnic_site"
                    },
                    "distance": 14137.89358312,
                    "sims": 0.5520664987484853
                },
                {
                    "id": 2640309311,
                    "tags": {
                        "tourism": "picnic_site"
                    },
                    "distance": 12929.72091095,
                    "sims": 0.5520492134035611
                }
            ]
        },
        "13": {
            "execution_time": 0.17746233940124512,
            "results": [
                {
                    "id": 3775913359,
                    "tags": {
                        "name": "Fixspot Repair Centre",
                        "shop": "mobile_phone"
                    },
                    "distance": 3639.2957267,
                    "sims": 0.7848893358974018
                },
                {
                    "id": 5840737145,
                    "tags": {
                        "name": "Ray White",
                        "brand": "Ray White",
                        "office": "estate_agent",
                        "check_date": "2024-12-03",
                        "addr:street": "Sydney Road",
                        "addr:postcode": "3056",
                        "brand:wikidata": "Q81077729",
                        "addr:housenumber": "392"
                    },
                    "distance": 6807.63167868,
                    "sims": 0.7844922963949533
                },
                {
                    "id": 6744747158,
                    "tags": {
                        "name": "Barbers of Northcote",
                        "shop": "hairdresser",
                        "website": "https://barbersofnorthcote.com.au/",
                        "addr:street": "High Street",
                        "addr:housenumber": "356"
                    },
                    "distance": 5483.21567347,
                    "sims": 0.7827996197580326
                },
                {
                    "id": 576878930,
                    "tags": {
                        "name": "City Hatters",
                        "shop": "fashion_accessories",
                        "phone": "+61 3 9614 3294",
                        "clothes": "hats",
                        "website": "https://www.cityhatters.com.au/",
                        "addr:state": "VIC",
                        "addr:street": "Flinders Street",
                        "addr:suburb": "Melbourne",
                        "addr:postcode": "3000",
                        "addr:housenumber": "211"
                    },
                    "distance": 3518.66812847,
                    "sims": 0.7739286941077738
                },
                {
                    "id": 8928430926,
                    "tags": {
                        "name": "Ellie & Frank Beauty Studio",
                        "shop": "hairdresser",
                        "phone": "+61 430 967 812",
                        "website": "https://www.ellieandfrank.com.au/",
                        "addr:state": "VIC",
                        "addr:street": "Smith Street",
                        "addr:suburb": "Collingwood",
                        "addr:postcode": "3066",
                        "addr:housenumber": "344"
                    },
                    "distance": 2966.37394757,
                    "sims": 0.7738217172198116
                },
                {
                    "id": 1021893836,
                    "tags": {
                        "name": "Gilligan Grant Gallery",
                        "shop": "art",
                        "website": "http://www.gilligangrantgallery.com.au/",
                        "addr:street": "Stanley Street",
                        "addr:suburb": "Collingwood",
                        "addr:postcode": "3066",
                        "addr:housenumber": "1B"
                    },
                    "distance": 2719.06108042,
                    "sims": 0.7737865043497468
                },
                {
                    "id": 6573488928,
                    "tags": {
                        "fee": "no",
                        "brand": "Fixation Public Work Stand",
                        "amenity": "bicycle_repair_station",
                        "operator": "Darebin City Council",
                        "opening_hours": "24/7",
                        "service:bicycle:pump": "yes",
                        "service:bicycle:stand": "yes",
                        "service:bicycle:tools": "yes"
                    },
                    "distance": 8683.37606969,
                    "sims": 0.7696810411646956
                },
                {
                    "id": 7217535997,
                    "tags": {
                        "name": "Chez Dr\u00e9",
                        "shop": "bakery",
                        "website": "https://www.chezdre.com.au/",
                        "addr:street": "Coventry Street",
                        "description": "location is approximate",
                        "addr:postcode": "3205",
                        "addr:housenumber": "285-287"
                    },
                    "distance": 4570.96980613,
                    "sims": 0.7690983322556159
                },
                {
                    "id": 2310667483,
                    "tags": {
                        "name": "Boll\u00e9 Factory Outlet",
                        "shop": "optician",
                        "addr:street": "Wellington Street",
                        "addr:suburb": "Collingwood",
                        "addr:postcode": "3066",
                        "opening_hours": "Mo-Fr 10:00-17:00; Sa 9:00-17:00",
                        "addr:housenumber": "172"
                    },
                    "distance": 2460.10145965,
                    "sims": 0.7613250724845146
                },
                {
                    "id": 11142834341,
                    "tags": {
                        "amenity": "bicycle_repair_station"
                    },
                    "distance": 7600.46127046,
                    "sims": 0.7593099949688041
                }
            ]
        },
        "14": {
            "execution_time": 0.1789720058441162,
            "results": [
                {
                    "id": 7057441898,
                    "tags": {
                        "fee": "no",
                        "layer": "-3",
                        "access": "private",
                        "amenity": "parking",
                        "parking": "underground",
                        "surface": "concrete",
                        "capacity": "50",
                        "operator": "ARK"
                    },
                    "distance": 3565.83480256,
                    "sims": 0.8632439186442279
                },
                {
                    "id": 92140668,
                    "tags": {
                        "name": "Entry A & B",
                        "layer": "-1",
                        "access": "customers",
                        "amenity": "parking",
                        "parking": "underground",
                        "surface": "asphalt",
                        "capacity": "2500",
                        "operator": "Marvel Stadium",
                        "operator:type": "private"
                    },
                    "distance": 5266.78337521,
                    "sims": 0.8609525296801502
                },
                {
                    "id": 2672755753,
                    "tags": {
                        "access": "private",
                        "amenity": "parking_space",
                        "parking": "surface",
                        "capacity": "1",
                        "survey:date": "2014-02-15"
                    },
                    "distance": 3964.0713054,
                    "sims": 0.8605225079161967
                },
                {
                    "id": 11044120695,
                    "tags": {
                        "amenity": "bench",
                        "backrest": "no",
                        "material": "concrete"
                    },
                    "distance": 200.91699377,
                    "sims": 0.8596555329190658
                },
                {
                    "id": 12035093817,
                    "tags": {
                        "name": "Grant Street Theatre",
                        "amenity": "theatre",
                        "operator": "University of Melbourne",
                        "addr:state": "VIC",
                        "check_date": "2024-07-05",
                        "wheelchair": "yes",
                        "addr:street": "Grant Street",
                        "addr:suburb": "Southbank",
                        "addr:postcode": "3006",
                        "addr:housenumber": "19-23",
                        "air_conditioning": "yes",
                        "contact:facebook": "https://finearts-music.unimelb.edu.au/campus-experience/lionels-grant-street"
                    },
                    "distance": 3414.41762088,
                    "sims": 0.8579327206772284
                },
                {
                    "id": 12419106128,
                    "tags": {
                        "addr:street": "Balston Street",
                        "addr:housenumber": "52-52A"
                    },
                    "distance": 2158.83737444,
                    "sims": 0.8578517179842912
                },
                {
                    "id": 6765362405,
                    "tags": {
                        "name": "Australian Red Cross Op Shop",
                        "shop": "charity",
                        "phone": "+61 3 9521 7613",
                        "website": "https://www.redcross.org.au/",
                        "addr:street": "Commercial Road",
                        "opening_hours": "Mo-Sa 09:30-17:30; Su 12:00-16:30",
                        "addr:housenumber": "188"
                    },
                    "distance": 306.4404739,
                    "sims": 0.857212705250782
                },
                {
                    "id": 12419105451,
                    "tags": {
                        "addr:flats": "101E-107E;201E-207E;301E-307E;401E-404E;501E-504E",
                        "addr:street": "Greeves Street",
                        "addr:housenumber": "5"
                    },
                    "distance": 1903.10842518,
                    "sims": 0.8528517151740486
                },
                {
                    "id": 11301973655,
                    "tags": {
                        "layer": "1",
                        "amenity": "bench",
                        "backrest": "no"
                    },
                    "distance": 970.46830953,
                    "sims": 0.8528164976080904
                },
                {
                    "id": 12419141885,
                    "tags": {
                        "addr:unit": "2",
                        "addr:street": "St Kilda Street",
                        "addr:housenumber": "443"
                    },
                    "distance": 4478.88716009,
                    "sims": 0.851682936744014
                }
            ]
        },
        "15": {
            "execution_time": 0.1788172721862793,
            "results": [
                {
                    "id": 9494123575,
                    "tags": {
                        "amenity": "parking_entrance"
                    },
                    "distance": 1113.09219489,
                    "sims": 0.8850630405283483
                },
                {
                    "id": 12410860298,
                    "tags": {
                        "addr:street": "Park Parade",
                        "addr:housenumber": "2"
                    },
                    "distance": 2482.16657617,
                    "sims": 0.883289445458413
                },
                {
                    "id": 12410859150,
                    "tags": {
                        "addr:street": "Park Drive",
                        "addr:housenumber": "27"
                    },
                    "distance": 3682.58899706,
                    "sims": 0.8824424112118717
                },
                {
                    "id": 6696274750,
                    "tags": {
                        "amenity": "parking_entrance"
                    },
                    "distance": 1128.02129334,
                    "sims": 0.8817928663823248
                },
                {
                    "id": 12411727163,
                    "tags": {
                        "addr:street": "Park Place",
                        "addr:housenumber": "5"
                    },
                    "distance": 3869.05547961,
                    "sims": 0.8806907173884818
                },
                {
                    "id": 12583279911,
                    "tags": {
                        "amenity": "parking_entrance"
                    },
                    "distance": 2734.19348431,
                    "sims": 0.8796711541791227
                },
                {
                    "id": 12410859151,
                    "tags": {
                        "addr:street": "Park Drive",
                        "addr:housenumber": "33"
                    },
                    "distance": 3693.75502548,
                    "sims": 0.8793366530721457
                },
                {
                    "id": 12418141457,
                    "tags": {
                        "addr:street": "Kingfisher Gardens",
                        "addr:housenumber": "12"
                    },
                    "distance": 4254.85259727,
                    "sims": 0.8778637633974294
                },
                {
                    "id": 12410859148,
                    "tags": {
                        "addr:street": "Park Drive",
                        "addr:housenumber": "23"
                    },
                    "distance": 3669.18684589,
                    "sims": 0.8768330281081216
                },
                {
                    "id": 12418142086,
                    "tags": {
                        "addr:street": "Kingfisher Gardens",
                        "addr:housenumber": "45"
                    },
                    "distance": 4250.6320356,
                    "sims": 0.876690148501425
                }
            ]
        },
        "16": {
            "execution_time": 0.17415690422058105,
            "results": [
                {
                    "id": 6180386412,
                    "tags": {
                        "name": "Domenico\u2019s Pizza",
                        "amenity": "restaurant",
                        "cuisine": "pizza"
                    },
                    "distance": 6416.15411129,
                    "sims": 0.8051233183104851
                },
                {
                    "id": 6648580139,
                    "tags": {
                        "name": "La Porchetta",
                        "amenity": "restaurant",
                        "cuisine": "pizza;italian"
                    },
                    "distance": 9875.9425479,
                    "sims": 0.7973012799355166
                },
                {
                    "id": 12411988544,
                    "tags": {
                        "addr:street": "Blessington Way",
                        "addr:housenumber": "11"
                    },
                    "distance": 5123.69406794,
                    "sims": 0.7770089837323628
                },
                {
                    "id": 12419342300,
                    "tags": {
                        "addr:street": "Belvedere Close",
                        "addr:housenumber": "7"
                    },
                    "distance": 6980.75903549,
                    "sims": 0.7742234064740197
                },
                {
                    "id": 12419341421,
                    "tags": {
                        "addr:street": "Belvedere Close",
                        "addr:housenumber": "17"
                    },
                    "distance": 7038.54101947,
                    "sims": 0.7731219720462634
                },
                {
                    "id": 12419030122,
                    "tags": {
                        "addr:street": "Avoca Crescent",
                        "addr:housenumber": "6"
                    },
                    "distance": 8301.75519668,
                    "sims": 0.7719570450680419
                },
                {
                    "id": 12418145946,
                    "tags": {
                        "addr:street": "Macrobertsons Close",
                        "addr:housenumber": "18"
                    },
                    "distance": 1500.64676184,
                    "sims": 0.7687064729579277
                },
                {
                    "id": 9766383352,
                    "tags": {
                        "addr:street": "McLennan Drive",
                        "addr:housenumber": "42"
                    },
                    "distance": 3162.21104939,
                    "sims": 0.7685975018616147
                },
                {
                    "id": 12411998116,
                    "tags": {
                        "addr:street": "Myrnong Crescent",
                        "addr:housenumber": "20"
                    },
                    "distance": 4004.96222554,
                    "sims": 0.7668483297463304
                },
                {
                    "id": 12419342297,
                    "tags": {
                        "addr:street": "Belvedere Close",
                        "addr:housenumber": "2"
                    },
                    "distance": 7055.48275547,
                    "sims": 0.7665039479441672
                }
            ]
        },
        "17": {
            "execution_time": 0.17604660987854004,
            "results": [
                {
                    "id": 6033469818,
                    "tags": {
                        "name": "D&K",
                        "shop": "seafood"
                    },
                    "distance": 7957.26695708,
                    "sims": 0.8803232811533026
                },
                {
                    "id": 12193901445,
                    "tags": {
                        "name": "Off the Pier Fish & Chippery",
                        "phone": "+61 3 9397 4688",
                        "amenity": "fast_food",
                        "cuisine": "fish_and_chips",
                        "website": "https://offthepierfishandchips.com.au/",
                        "addr:state": "VIC",
                        "addr:street": "Syme Street",
                        "addr:suburb": "Williamstown",
                        "addr:postcode": "3016"
                    },
                    "distance": 2726.41614147,
                    "sims": 0.8647943622609826
                },
                {
                    "id": 6678532310,
                    "tags": {
                        "name": "Shinsei Fish + Sushi",
                        "amenity": "fast_food"
                    },
                    "distance": 4977.70155611,
                    "sims": 0.8603602467894568
                },
                {
                    "id": 6403296362,
                    "tags": {
                        "amenity": "restaurant"
                    },
                    "distance": 9683.82275355,
                    "sims": 0.8587576656016664
                },
                {
                    "id": 2251431732,
                    "tags": {
                        "name": "Coast Caf\u00e9",
                        "amenity": "restaurant",
                        "cuisine": "thai"
                    },
                    "distance": 14846.80450452,
                    "sims": 0.8572328090292797
                },
                {
                    "id": 2262245569,
                    "tags": {
                        "name": "The Original Pie Company",
                        "phone": "+61 3 9682 3444",
                        "amenity": "fast_food",
                        "cuisine": "pie",
                        "takeaway": "yes",
                        "addr:street": "Clarendon Street",
                        "outdoor_seating": "yes",
                        "addr:housenumber": "246"
                    },
                    "distance": 4196.90130563,
                    "sims": 0.8561969317686158
                },
                {
                    "id": 6989600887,
                    "tags": {
                        "name": "Roundabout Pizza",
                        "amenity": "fast_food",
                        "cuisine": "pizza",
                        "opening_hours": "Mo-Su 17:00-23:00"
                    },
                    "distance": 8721.7786527,
                    "sims": 0.8561672145772814
                },
                {
                    "id": 11971064021,
                    "tags": {
                        "name": "The Fish and Chip Shop",
                        "shop": "kiosk",
                        "operator": "The Baths Middle Brighton"
                    },
                    "distance": 6626.1467562,
                    "sims": 0.8515491674232871
                },
                {
                    "id": 10720437206,
                    "tags": {
                        "name": "Tasteport",
                        "amenity": "restaurant"
                    },
                    "distance": 4005.74344506,
                    "sims": 0.8509187039428168
                },
                {
                    "id": 4741562941,
                    "tags": {
                        "name": "Myrtle Cafe",
                        "amenity": "cafe",
                        "name:en": "Myrtle Cafe",
                        "takeaway": "yes",
                        "outdoor_seating": "yes"
                    },
                    "distance": 7320.00466438,
                    "sims": 0.8448135215711461
                }
            ]
        },
        "18": {
            "execution_time": 0.17383646965026855,
            "results": [
                {
                    "id": 2310667483,
                    "tags": {
                        "name": "Boll\u00e9 Factory Outlet",
                        "shop": "optician",
                        "addr:street": "Wellington Street",
                        "addr:suburb": "Collingwood",
                        "addr:postcode": "3066",
                        "opening_hours": "Mo-Fr 10:00-17:00; Sa 9:00-17:00",
                        "addr:housenumber": "172"
                    },
                    "distance": 2058.63550349,
                    "sims": 0.8399517655229108
                },
                {
                    "id": 3945798993,
                    "tags": {
                        "bin": "no",
                        "lit": "no",
                        "ref": "9",
                        "name": "Stop 9: Bourke Street",
                        "tram": "yes",
                        "bench": "no",
                        "network": "PTV - Metropolitan Trams",
                        "shelter": "no",
                        "operator": "Yarra Trams",
                        "route_ref": "35",
                        "wheelchair": "no",
                        "tactile_paving": "no",
                        "public_transport": "platform"
                    },
                    "distance": 1176.37784203,
                    "sims": 0.8376354091273216
                },
                {
                    "id": 3945798986,
                    "tags": {
                        "bin": "no",
                        "lit": "no",
                        "ref": "8",
                        "name": "Stop 8: Peel Street",
                        "tram": "yes",
                        "bench": "no",
                        "network": "PTV - Metropolitan Trams",
                        "shelter": "no",
                        "operator": "Yarra Trams",
                        "route_ref": "57",
                        "wheelchair": "no",
                        "tactile_paving": "no",
                        "public_transport": "platform"
                    },
                    "distance": 700.6339328,
                    "sims": 0.8338768334654721
                },
                {
                    "id": 11466742444,
                    "tags": {
                        "name": "Flinders Lane Barbers",
                        "shop": "hairdresser",
                        "level": "0",
                        "addr:unit": "C1",
                        "addr:state": "VIC",
                        "wheelchair": "yes",
                        "addr:street": "Flinders Lane",
                        "addr:suburb": "Melbourne",
                        "addr:postcode": "3000",
                        "opening_hours": "Mo-Fr 09:00-19:00; Sa 09:00-18:00; PH closed; Su 10:00-17:00",
                        "addr:housenumber": "289"
                    },
                    "distance": 1411.54984827,
                    "sims": 0.833768303286422
                },
                {
                    "id": 2205927402,
                    "tags": {
                        "ref": "115",
                        "name": "Stop 115: Melbourne Cemetery East, Newry Street",
                        "tram": "yes",
                        "bench": "no",
                        "network": "PTV - Metropolitan Trams",
                        "railway": "tram_stop",
                        "shelter": "no",
                        "operator": "Keolis Downer",
                        "wheelchair": "no",
                        "network:wikidata": "Q7257648",
                        "public_transport": "stop_position",
                        "operator:wikidata": "Q6328065"
                    },
                    "distance": 1723.36325829,
                    "sims": 0.829881890682519
                },
                {
                    "id": 10223109203,
                    "tags": {
                        "name": "Ryrie Salon",
                        "shop": "hairdresser",
                        "phone": "+61 3 9481 0855",
                        "website": "https://ryriesalon.com.au/",
                        "addr:street": "St Georges Road",
                        "addr:housenumber": "215A"
                    },
                    "distance": 2843.22144875,
                    "sims": 0.8298270791253919
                },
                {
                    "id": 4520380582,
                    "tags": {
                        "bin": "no",
                        "lit": "no",
                        "ref": "30",
                        "name": "Stop 30: Union Square Shopping Centre",
                        "tram": "yes",
                        "bench": "yes",
                        "network": "PTV - Metropolitan Trams",
                        "shelter": "no",
                        "operator": "Yarra Trams",
                        "route_ref": "58",
                        "wheelchair": "no",
                        "tactile_paving": "no",
                        "public_transport": "platform"
                    },
                    "distance": 3757.53959765,
                    "sims": 0.8292598811566712
                },
                {
                    "id": 6744765524,
                    "tags": {
                        "name": "Northcote Halal Meat Factory",
                        "shop": "butcher",
                        "addr:state": "VIC",
                        "addr:street": "High Street",
                        "addr:suburb": "Northcote",
                        "addr:postcode": "3070",
                        "addr:housenumber": "351-353"
                    },
                    "distance": 4910.65560653,
                    "sims": 0.8286595182995994
                },
                {
                    "id": 6699795804,
                    "tags": {
                        "building": "retail"
                    },
                    "distance": 2478.20357828,
                    "sims": 0.8272265030455448
                },
                {
                    "id": 6678532312,
                    "tags": {
                        "building": "retail"
                    },
                    "distance": 2524.2825852,
                    "sims": 0.827136321193811
                }
            ]
        },
        "19": {
            "execution_time": 0.1746501922607422,
            "results": [
                {
                    "id": 4326397422,
                    "tags": {
                        "bus": "yes",
                        "name": "Princes Park/Royal Parade",
                        "network": "PTV - Metropolitan Buses",
                        "operator": "Dysons",
                        "public_transport": "stop_position"
                    },
                    "distance": 3216.47813396,
                    "sims": 0.9037499622255984
                },
                {
                    "id": 4142403689,
                    "tags": {
                        "bus": "yes",
                        "name": "Moonee Ponds Interchange (Bay A)",
                        "network": "PTV - Metropolitan Buses",
                        "old_name": "Moonee Ponds Junction (Bay 1)",
                        "operator": "Sita",
                        "public_transport": "stop_position"
                    },
                    "distance": 6090.55117803,
                    "sims": 0.9032017569310175
                },
                {
                    "id": 4454744666,
                    "tags": {
                        "bus": "yes",
                        "name": "Clyde Street",
                        "network": "PTV - Metropolitan Buses",
                        "operator": "Ryan Bros",
                        "public_transport": "stop_position"
                    },
                    "distance": 7260.9974339,
                    "sims": 0.9002464861780082
                },
                {
                    "id": 706906468,
                    "tags": {
                        "name": "Caf\u00e9 Excello",
                        "amenity": "cafe",
                        "wheelchair": "yes",
                        "outdoor_seating": "yes"
                    },
                    "distance": 1263.39719551,
                    "sims": 0.8985576206388658
                },
                {
                    "id": 4457663148,
                    "tags": {
                        "bus": "yes",
                        "name": "Wordsworth Street",
                        "network": "PTV - Metropolitan Buses",
                        "operator": "Dysons",
                        "public_transport": "stop_position"
                    },
                    "distance": 5638.9319748,
                    "sims": 0.8984455431373115
                },
                {
                    "id": 4148845956,
                    "tags": {
                        "bus": "yes",
                        "foot": "yes",
                        "name": "Bridge Road",
                        "bicycle": "yes",
                        "network": "PTV - Metropolitan Buses",
                        "operator": "Transdev",
                        "public_transport": "stop_position"
                    },
                    "distance": 2750.74920986,
                    "sims": 0.8980342587982267
                },
                {
                    "id": 3954625850,
                    "tags": {
                        "bus": "yes",
                        "name": "Lonsdale Street/Queen Street",
                        "network": "PTV - Metropolitan Buses",
                        "operator": "Transdev",
                        "public_transport": "stop_position"
                    },
                    "distance": 120.33642258,
                    "sims": 0.8940726672714728
                },
                {
                    "id": 4457663091,
                    "tags": {
                        "bus": "yes",
                        "name": "Epsom Road",
                        "network": "PTV - Metropolitan Buses",
                        "operator": "Sita",
                        "public_transport": "stop_position"
                    },
                    "distance": 4486.11413059,
                    "sims": 0.8934595736395106
                },
                {
                    "id": 11104138610,
                    "tags": {
                        "name": "Bowtiful",
                        "level": "1",
                        "amenity": "restaurant",
                        "takeaway": "yes",
                        "wheelchair": "yes"
                    },
                    "distance": 579.5045105,
                    "sims": 0.8869743207296253
                },
                {
                    "id": 6775928319,
                    "tags": {
                        "bus": "yes",
                        "name": "Queensberry Street/Lygon Street",
                        "network": "PTV - Metropolitan Buses",
                        "operator": "Transdev Melbourne",
                        "public_transport": "stop_position"
                    },
                    "distance": 1240.88057421,
                    "sims": 0.8859472062948255
                }
            ]
        }
    }
}