{
    "insertion_time": 48.0489866733551,
    "index_creation": {
        "func": [
            "CREATE INDEX IF NOT EXISTS idx_pois_embedding ON PoIs USING hnsw (embedding vector_cosine_ops) WITH (m = 16, ef_construction = 64);"
        ],
        "time": 12.905000925064087
    },
    "query_results": {
        "0": {
            "execution_time": 0.1855478286743164,
            "results": [
                {
                    "id": 12410860814,
                    "tags": {
                        "addr:street": "Curtain Place",
                        "addr:housenumber": "5"
                    },
                    "distance": 917.84814349,
                    "sims": 0.9942178150828617
                },
                {
                    "id": 4574487201,
                    "tags": {
                        "name": "Vintage Infusion",
                        "amenity": "bar",
                        "name:en": "Vintage Infusion"
                    },
                    "distance": 463.07816022,
                    "sims": 0.9941411628386869
                },
                {
                    "id": 12410862571,
                    "tags": {
                        "addr:street": "Westgarth Street",
                        "addr:housenumber": "10-8"
                    },
                    "distance": 694.50598233,
                    "sims": 0.9940296429307491
                },
                {
                    "id": 12414148355,
                    "tags": {
                        "addr:street": "Westgarth Street",
                        "addr:housenumber": "18"
                    },
                    "distance": 685.3113225,
                    "sims": 0.9940220731431186
                },
                {
                    "id": 12418145796,
                    "tags": {
                        "addr:street": "Westgarth Street",
                        "addr:housenumber": "3"
                    },
                    "distance": 732.96661483,
                    "sims": 0.9940051447144334
                },
                {
                    "id": 12410862389,
                    "tags": {
                        "addr:street": "Westgarth Street",
                        "addr:housenumber": "22"
                    },
                    "distance": 677.81266304,
                    "sims": 0.9939991546275353
                },
                {
                    "id": 12418145593,
                    "tags": {
                        "addr:street": "Brunswick Street",
                        "addr:housenumber": "357"
                    },
                    "distance": 452.44337589,
                    "sims": 0.9938871279032208
                },
                {
                    "id": 12418145717,
                    "tags": {
                        "addr:street": "Cecil Street",
                        "addr:housenumber": "59"
                    },
                    "distance": 745.70431559,
                    "sims": 0.9938663555066798
                },
                {
                    "id": 623879037,
                    "tags": {
                        "name": "Next",
                        "shop": "clothes",
                        "brand": "Next",
                        "branch": "Precinct",
                        "addr:street": "Nicholson Street",
                        "brand:wikidata": "Q246655",
                        "addr:housenumber": "278"
                    },
                    "distance": 531.17390966,
                    "sims": 0.9938606038426195
                },
                {
                    "id": 12410862274,
                    "tags": {
                        "addr:street": "Brunswick Street",
                        "addr:housenumber": "379"
                    },
                    "distance": 523.76335538,
                    "sims": 0.9938590541222249
                }
            ]
        },
        "1": {
            "execution_time": 0.1807863712310791,
            "results": [
                {
                    "id": 12418146843,
                    "tags": {
                        "addr:street": "Ovens Street",
                        "addr:housenumber": "2"
                    },
                    "distance": 157.03510466,
                    "sims": 0.9949242769159166
                },
                {
                    "id": 12410864186,
                    "tags": {
                        "addr:street": "Annie Borat Close",
                        "addr:housenumber": "3"
                    },
                    "distance": 401.01384982,
                    "sims": 0.9947958591702086
                },
                {
                    "id": 12410864795,
                    "tags": {
                        "addr:street": "Annie Borat Close",
                        "addr:housenumber": "5"
                    },
                    "distance": 393.82779738,
                    "sims": 0.9947898983955383
                },
                {
                    "id": 12410863822,
                    "tags": {
                        "addr:street": "Blyth Street",
                        "addr:housenumber": "19"
                    },
                    "distance": 344.29409697,
                    "sims": 0.9947822690010071
                },
                {
                    "id": 12410864686,
                    "tags": {
                        "addr:street": "Eveline Street",
                        "addr:housenumber": "20"
                    },
                    "distance": 437.7087808,
                    "sims": 0.9947448965755061
                },
                {
                    "id": 12418147765,
                    "tags": {
                        "addr:street": "McIver Street",
                        "addr:housenumber": "6-8"
                    },
                    "distance": 294.07039327,
                    "sims": 0.994721531867981
                },
                {
                    "id": 12410863308,
                    "tags": {
                        "addr:street": "Blyth Street",
                        "addr:housenumber": "25"
                    },
                    "distance": 375.56358286,
                    "sims": 0.9947173295830889
                },
                {
                    "id": 12418150506,
                    "tags": {
                        "addr:street": "McIver Street",
                        "addr:housenumber": "9"
                    },
                    "distance": 304.20613642,
                    "sims": 0.9946802854537964
                },
                {
                    "id": 12418148128,
                    "tags": {
                        "addr:street": "Hope Street",
                        "addr:housenumber": "17-19"
                    },
                    "distance": 342.09080745,
                    "sims": 0.9946724772453308
                },
                {
                    "id": 12373429505,
                    "tags": {
                        "addr:street": "Albion Street",
                        "addr:housenumber": "207"
                    },
                    "distance": 743.82859886,
                    "sims": 0.9946640733084653
                }
            ]
        },
        "2": {
            "execution_time": 0.18262028694152832,
            "results": [
                {
                    "id": 12419105081,
                    "tags": {
                        "addr:street": "Barkly Street",
                        "addr:housenumber": "179B"
                    },
                    "distance": 48.80971995,
                    "sims": 0.9965228434232287
                },
                {
                    "id": 2535975648,
                    "tags": {
                        "name": "Kyma",
                        "phone": "+61 3 8598 9083",
                        "amenity": "restaurant",
                        "cuisine": "greek",
                        "source:cuisine": "survey"
                    },
                    "distance": 903.48718693,
                    "sims": 0.9963469500955284
                },
                {
                    "id": 12419103526,
                    "tags": {
                        "addr:street": "Baker Street",
                        "addr:housenumber": "21"
                    },
                    "distance": 736.98636037,
                    "sims": 0.9963054656982493
                },
                {
                    "id": 12419103348,
                    "tags": {
                        "addr:street": "Robe Street",
                        "addr:housenumber": "49"
                    },
                    "distance": 409.91344899,
                    "sims": 0.9962604045867991
                },
                {
                    "id": 3885415465,
                    "tags": {
                        "name": "Miss Fitey's",
                        "amenity": "restaurant"
                    },
                    "distance": 875.76234035,
                    "sims": 0.9962516424805923
                },
                {
                    "id": 12419104659,
                    "tags": {
                        "addr:street": "Foster Avenue",
                        "addr:housenumber": "8"
                    },
                    "distance": 141.23040752,
                    "sims": 0.9962481854109893
                },
                {
                    "id": 12419103653,
                    "tags": {
                        "addr:street": "Baker Street",
                        "addr:housenumber": "16"
                    },
                    "distance": 730.23309753,
                    "sims": 0.9962234494819331
                },
                {
                    "id": 12419103079,
                    "tags": {
                        "addr:street": "Clyde Street",
                        "addr:housenumber": "31"
                    },
                    "distance": 301.28704209,
                    "sims": 0.9962230322493948
                },
                {
                    "id": 12419103141,
                    "tags": {
                        "addr:street": "Clyde Street",
                        "addr:housenumber": "10"
                    },
                    "distance": 330.66252909,
                    "sims": 0.9962176680564951
                },
                {
                    "id": 12419103992,
                    "tags": {
                        "addr:street": "Clyde Street",
                        "addr:housenumber": "17"
                    },
                    "distance": 294.57906472,
                    "sims": 0.9962058661106763
                }
            ]
        },
        "3": {
            "execution_time": 0.18768644332885742,
            "results": [
                {
                    "id": 6089154671,
                    "tags": {
                        "name": "Fo Guang Yuan Art Gallery",
                        "tourism": "gallery"
                    },
                    "distance": 289.53444808,
                    "sims": 0.9960373046375945
                },
                {
                    "id": 12175758069,
                    "tags": {
                        "level": "-1",
                        "amenity": "vending_machine",
                        "vending": "public_transport_tickets",
                        "operator": "myki"
                    },
                    "distance": 383.02909115,
                    "sims": 0.995723306877812
                },
                {
                    "id": 3105262652,
                    "tags": {
                        "name": "Street Art",
                        "tourism": "viewpoint"
                    },
                    "distance": 201.17028491,
                    "sims": 0.9956292210706841
                },
                {
                    "id": 12437695845,
                    "tags": {
                        "name": "Pazzi",
                        "level": "2",
                        "amenity": "fast_food",
                        "cuisine": "italian;pasta;pizza",
                        "takeaway": "yes",
                        "wheelchair": "yes",
                        "indoor_seating": "yes"
                    },
                    "distance": 356.5452299,
                    "sims": 0.9955110549926758
                },
                {
                    "id": 11135210945,
                    "tags": {
                        "name": "Sushi Jiro",
                        "level": "0",
                        "amenity": "restaurant",
                        "cuisine": "sushi",
                        "takeaway": "yes",
                        "wheelchair": "yes",
                        "outdoor_seating": "no"
                    },
                    "distance": 360.97178252,
                    "sims": 0.9954732057734272
                },
                {
                    "id": 5928461736,
                    "tags": {
                        "name": "Golden Orchids",
                        "amenity": "restaurant"
                    },
                    "distance": 557.19564821,
                    "sims": 0.9954419136047363
                },
                {
                    "id": 4556753138,
                    "tags": {
                        "ref": "MCE",
                        "name": "Melbourne Central 4",
                        "side": "right",
                        "layer": "-2",
                        "level": "-3",
                        "train": "yes",
                        "network": "PTV \u2013 Metropolitan Trains",
                        "railway": "stop",
                        "ref:ptv": "19842",
                        "website": "https://ptv.vic.gov.au/stop/1120",
                        "operator": "Metro Trains Melbourne",
                        "wikidata": "Q12859055",
                        "local_ref": "4",
                        "wikipedia": "en:Melbourne Central railway station",
                        "public_transport": "stop_position",
                        "exit:carriages:forward": "lift|escalator|escalator|no|escalator|stairs",
                        "destination:carriages:forward": "none|Concourse|Platforms 1&2|none|Concourse|none"
                    },
                    "distance": 412.99898029,
                    "sims": 0.99542236328125
                },
                {
                    "id": 9858417571,
                    "tags": {
                        "name": "Lulu's Char Koay Tiao",
                        "amenity": "restaurant"
                    },
                    "distance": 162.81099922,
                    "sims": 0.9953354597091675
                },
                {
                    "id": 11104138610,
                    "tags": {
                        "name": "Bowtiful",
                        "level": "1",
                        "amenity": "restaurant",
                        "takeaway": "yes",
                        "wheelchair": "yes"
                    },
                    "distance": 326.23775206,
                    "sims": 0.9953158500602353
                },
                {
                    "id": 5982185657,
                    "tags": {
                        "name": "Joomak",
                        "amenity": "restaurant",
                        "cuisine": "korean"
                    },
                    "distance": 513.80210655,
                    "sims": 0.9952990110485901
                }
            ]
        },
        "4": {
            "execution_time": 0.18622922897338867,
            "results": [
                {
                    "id": 5243876844,
                    "tags": {
                        "name": "Dandy Travel",
                        "shop": "travel_agency"
                    },
                    "distance": 464.52688148,
                    "sims": 0.9936886448596427
                },
                {
                    "id": 5285526982,
                    "tags": {
                        "name": "Drakulic Lawyers",
                        "office": "lawyer"
                    },
                    "distance": 471.89906193,
                    "sims": 0.9934787173633071
                },
                {
                    "id": 12419821289,
                    "tags": {
                        "addr:street": "Princes Highway",
                        "addr:housenumber": "52"
                    },
                    "distance": 454.31958326,
                    "sims": 0.9928191334167917
                },
                {
                    "id": 12419819246,
                    "tags": {
                        "addr:street": "Princes Highway",
                        "addr:housenumber": "66"
                    },
                    "distance": 590.35786467,
                    "sims": 0.992748083845396
                },
                {
                    "id": 12412473902,
                    "tags": {
                        "addr:street": "Kendrick Place",
                        "addr:housenumber": "5"
                    },
                    "distance": 865.59562959,
                    "sims": 0.9926075056716788
                },
                {
                    "id": 12419820704,
                    "tags": {
                        "addr:street": "Eric Wilson Way",
                        "addr:housenumber": "7"
                    },
                    "distance": 840.51358536,
                    "sims": 0.9924634116975914
                },
                {
                    "id": 5285524985,
                    "tags": {
                        "name": "James Dowsley",
                        "office": "lawyer"
                    },
                    "distance": 682.03609692,
                    "sims": 0.9924319104248025
                },
                {
                    "id": 12419824327,
                    "tags": {
                        "addr:street": "McFarlane Crescent",
                        "addr:housenumber": "3"
                    },
                    "distance": 346.71284803,
                    "sims": 0.9923611306068353
                },
                {
                    "id": 12412473332,
                    "tags": {
                        "addr:street": "De Villiers Drive",
                        "addr:housenumber": "13"
                    },
                    "distance": 1445.86698054,
                    "sims": 0.9923436068464938
                },
                {
                    "id": 7455259396,
                    "tags": {
                        "building": "yes",
                        "addr:street": "Frankston-Dandenong Road",
                        "addr:housenumber": "18 - 20"
                    },
                    "distance": 1819.60148901,
                    "sims": 0.9922959832086905
                }
            ]
        },
        "5": {
            "execution_time": 0.18582916259765625,
            "results": [
                {
                    "id": 5928461725,
                    "tags": {
                        "name": "New Tea",
                        "shop": "beverages"
                    },
                    "distance": 1122.98736681,
                    "sims": 0.9945343140045235
                },
                {
                    "id": 12418153698,
                    "tags": {
                        "addr:street": "Corrs Lane",
                        "addr:housenumber": "7-9"
                    },
                    "distance": 1108.87253879,
                    "sims": 0.9934425357912477
                },
                {
                    "id": 12418154585,
                    "tags": {
                        "addr:street": "Oliver Lane",
                        "addr:housenumber": "6"
                    },
                    "distance": 720.56473769,
                    "sims": 0.9933326840400696
                },
                {
                    "id": 12418108451,
                    "tags": {
                        "addr:street": "Hardware Lane",
                        "addr:housenumber": "17-19"
                    },
                    "distance": 807.44532131,
                    "sims": 0.9933212403463596
                },
                {
                    "id": 2274624950,
                    "tags": {
                        "name": "Baron's Wine & Spirits",
                        "shop": "alcohol"
                    },
                    "distance": 1791.94986579,
                    "sims": 0.9932783842086792
                },
                {
                    "id": 5928461736,
                    "tags": {
                        "name": "Golden Orchids",
                        "amenity": "restaurant"
                    },
                    "distance": 1127.35750922,
                    "sims": 0.9932621717453003
                },
                {
                    "id": 9748242993,
                    "tags": {
                        "name": "Woodfrog Bakery",
                        "shop": "bakery"
                    },
                    "distance": 493.45278394,
                    "sims": 0.9932384186898288
                },
                {
                    "id": 12418154337,
                    "tags": {
                        "addr:street": "Corrs Lane",
                        "addr:housenumber": "22-26"
                    },
                    "distance": 1157.15066011,
                    "sims": 0.9931905565616659
                },
                {
                    "id": 12418154958,
                    "tags": {
                        "addr:street": "Centreway Arcade",
                        "addr:housenumber": "17"
                    },
                    "distance": 518.62674539,
                    "sims": 0.993166386673833
                },
                {
                    "id": 12418155012,
                    "tags": {
                        "addr:street": "Oliver Lane",
                        "addr:housenumber": "10-20"
                    },
                    "distance": 734.58794465,
                    "sims": 0.9931520219535859
                }
            ]
        },
        "6": {
            "execution_time": 0.18346571922302246,
            "results": [
                {
                    "id": 3375923622,
                    "tags": {
                        "amenity": "waste_basket",
                        "check_date": "2023-07-30"
                    },
                    "distance": 273.32711543,
                    "sims": 0.9949170344969093
                },
                {
                    "id": 11576193213,
                    "tags": {
                        "name": "The Sebel",
                        "brand": "The Sebel",
                        "tourism": "hotel",
                        "brand:wikidata": "Q110888248"
                    },
                    "distance": 375.23444824,
                    "sims": 0.9947793177931489
                },
                {
                    "id": 12419106717,
                    "tags": {
                        "addr:street": "Harbour Esplanade",
                        "addr:housenumber": "177-181"
                    },
                    "distance": 148.68743274,
                    "sims": 0.9946937851151508
                },
                {
                    "id": 12419106819,
                    "tags": {
                        "addr:street": "Caravel Lane",
                        "addr:housenumber": "18-26"
                    },
                    "distance": 490.38126127,
                    "sims": 0.9945761854567733
                },
                {
                    "id": 6699795798,
                    "tags": {
                        "name": "815 Bourke Street",
                        "entrance": "yes"
                    },
                    "distance": 451.49384838,
                    "sims": 0.9945617308428998
                },
                {
                    "id": 6760877918,
                    "tags": {
                        "amenity": "vending_machine",
                        "vending": "parking_tickets"
                    },
                    "distance": 444.85639083,
                    "sims": 0.994526355969286
                },
                {
                    "id": 6699781932,
                    "tags": {
                        "leisure": "picnic_table"
                    },
                    "distance": 519.74523656,
                    "sims": 0.9944433273541152
                },
                {
                    "id": 6741632383,
                    "tags": {
                        "name": "Mediattion",
                        "shop": "massage"
                    },
                    "distance": 557.74638291,
                    "sims": 0.9944270546222119
                },
                {
                    "id": 12419133273,
                    "tags": {
                        "addr:street": "Rosslyn Street",
                        "addr:housenumber": "288-296"
                    },
                    "distance": 568.13850672,
                    "sims": 0.9943182761357713
                },
                {
                    "id": 12419106765,
                    "tags": {
                        "addr:street": "Doepel Way",
                        "addr:housenumber": "3"
                    },
                    "distance": 571.85355525,
                    "sims": 0.9943095142522059
                }
            ]
        },
        "7": {
            "execution_time": 0.18819522857666016,
            "results": [
                {
                    "id": 7248467257,
                    "tags": {
                        "name": "Terror Twilight",
                        "email": "hello@terrortwilight.com.au",
                        "phone": "+61 3 9417 0129",
                        "amenity": "cafe",
                        "website": "https://terrortwilight.com.au",
                        "takeaway": "yes",
                        "check_date": "2025-02-13",
                        "diet:vegan": "yes",
                        "addr:street": "Johnston Street",
                        "opening_hours": "Mo-Fr 07:00-16:00; Sa,Su 08:00-16:00",
                        "indoor_seating": "yes",
                        "diet:vegetarian": "yes",
                        "outdoor_seating": "yes",
                        "addr:housenumber": "11\u201313",
                        "diet:gluten_free": "yes"
                    },
                    "distance": 546.63677961,
                    "sims": 0.9959955818661166
                },
                {
                    "id": 3800096857,
                    "tags": {
                        "name": "Soul Pattinson Chemist",
                        "brand": "Soul Pattinson Chemist",
                        "amenity": "pharmacy",
                        "dispensing": "yes",
                        "healthcare": "pharmacy",
                        "wheelchair": "yes",
                        "opening_hours": "Mo-Fr 8:00-19:00; Sa-Su 9:00-17:00",
                        "brand:wikidata": "Q117225301"
                    },
                    "distance": 222.64474771,
                    "sims": 0.9950053110702917
                },
                {
                    "id": 9898578112,
                    "tags": {
                        "name": "Aysel",
                        "amenity": "restaurant",
                        "cuisine": "turkish",
                        "website": "https://www.ayselrestaurant.com.au",
                        "check_date": "2022-07-20"
                    },
                    "distance": 649.18053304,
                    "sims": 0.9946567425745749
                },
                {
                    "id": 4110938490,
                    "tags": {
                        "name": "CAT-16",
                        "amenity": "vending_machine",
                        "vending": "parking_tickets"
                    },
                    "distance": 98.9247683,
                    "sims": 0.9945068069537488
                },
                {
                    "id": 493897038,
                    "tags": {
                        "food": "yes",
                        "name": "The Gem",
                        "phone": "+61 3 9419 5160",
                        "amenity": "pub",
                        "addr:street": "Wellington Street",
                        "outdoor_seating": "yes",
                        "addr:housenumber": "289"
                    },
                    "distance": 856.89771273,
                    "sims": 0.994317413731245
                },
                {
                    "id": 2183015743,
                    "tags": {
                        "name": "JMH Furniture Solutions",
                        "shop": "furniture",
                        "phone": "+61 3 9416 4412",
                        "website": "https://jmh.furniture/",
                        "addr:street": "Victoria Parade",
                        "addr:suburb": "Collingwood",
                        "addr:postcode": "3066",
                        "addr:housenumber": "51"
                    },
                    "distance": 546.70518926,
                    "sims": 0.994281293665979
                },
                {
                    "id": 2108155854,
                    "tags": {
                        "name": "Everyday Coffee",
                        "phone": "+61 3 9973 4159",
                        "amenity": "cafe",
                        "website": "https://everyday-coffee.com/",
                        "addr:street": "Sackville Street",
                        "internet_access": "wlan",
                        "addr:housenumber": "36-38"
                    },
                    "distance": 638.71825185,
                    "sims": 0.9942317622209321
                },
                {
                    "id": 582845533,
                    "tags": {
                        "name": "Le Gourmet Cakes",
                        "level": "0",
                        "phone": "+61 3 9419 9753",
                        "amenity": "cafe",
                        "cuisine": "regional",
                        "check_date": "2022-07-20",
                        "wheelchair": "no",
                        "addr:street": "Brunswick Street",
                        "opening_hours": "Mo-Fr 06:30-18:00; Sa 07:30-18:00; Su 07:00-18:00",
                        "outdoor_seating": "yes",
                        "addr:housenumber": "271"
                    },
                    "distance": 867.45194917,
                    "sims": 0.9941793094552956
                },
                {
                    "id": 2158531876,
                    "tags": {
                        "amenity": "bench"
                    },
                    "distance": 550.51150029,
                    "sims": 0.994091005013755
                },
                {
                    "id": 12418144446,
                    "tags": {
                        "addr:unit": "1",
                        "addr:street": "Cambridge Street",
                        "addr:housenumber": "135"
                    },
                    "distance": 65.54246398,
                    "sims": 0.9940748821363222
                }
            ]
        },
        "8": {
            "execution_time": 0.18207907676696777,
            "results": [
                {
                    "id": 11176223430,
                    "tags": {
                        "name": "Vona Co",
                        "amenity": "cafe",
                        "cuisine": "coffee_shop",
                        "diet:vegan": "yes",
                        "wheelchair": "no",
                        "diet:vegetarian": "yes",
                        "payment:debit_cards": "yes",
                        "opening_hours:signed": "no",
                        "payment:credit_cards": "yes",
                        "check_date:opening_hours": "2024-09-25"
                    },
                    "distance": 326.55126315,
                    "sims": 0.9962907418035737
                },
                {
                    "id": 5982185651,
                    "tags": {
                        "name": "Frankies",
                        "level": "0",
                        "amenity": "cafe",
                        "cuisine": "sandwich",
                        "takeaway": "only"
                    },
                    "distance": 429.00182786,
                    "sims": 0.996167002052392
                },
                {
                    "id": 2296822554,
                    "tags": {
                        "food": "yes",
                        "name": "Bluestone",
                        "amenity": "bar"
                    },
                    "distance": 539.02494407,
                    "sims": 0.996123013569834
                },
                {
                    "id": 711750998,
                    "tags": {
                        "amenity": "cafe"
                    },
                    "distance": 418.18408116,
                    "sims": 0.9960832275624756
                },
                {
                    "id": 9858417571,
                    "tags": {
                        "name": "Lulu's Char Koay Tiao",
                        "amenity": "restaurant"
                    },
                    "distance": 262.12859975,
                    "sims": 0.9960613825651913
                },
                {
                    "id": 4671705489,
                    "tags": {
                        "name": "Xpressomondo",
                        "amenity": "cafe"
                    },
                    "distance": 469.28964284,
                    "sims": 0.9960613229605145
                },
                {
                    "id": 5982185657,
                    "tags": {
                        "name": "Joomak",
                        "amenity": "restaurant",
                        "cuisine": "korean"
                    },
                    "distance": 451.23450805,
                    "sims": 0.9959020290954694
                },
                {
                    "id": 614493844,
                    "tags": {
                        "name": "Jeremy's Caf\u00e9",
                        "amenity": "cafe",
                        "addr:street": "Hardware Lane",
                        "addr:suburb": "Melbourne",
                        "addr:postcode": "3000",
                        "addr:housenumber": "13"
                    },
                    "distance": 269.2294942,
                    "sims": 0.9958537198713948
                },
                {
                    "id": 6775864588,
                    "tags": {
                        "name": "Ludlow Bar and Dining Room",
                        "amenity": "restaurant",
                        "outdoor_seating": "yes"
                    },
                    "distance": 852.31736758,
                    "sims": 0.9957755185354991
                },
                {
                    "id": 2400990992,
                    "tags": {
                        "name": "Gong Cha",
                        "brand": "Gong Cha",
                        "drink": "tea",
                        "amenity": "cafe",
                        "cuisine": "bubble_tea",
                        "name:zh": "\u8ca2\u8336",
                        "brand:zh": "\u8ca2\u8336",
                        "int_name": "Gong Cha",
                        "takeaway": "yes",
                        "wheelchair": "no",
                        "brand:wikidata": "Q5581670",
                        "brand:wikipedia": "en:Gong Cha"
                    },
                    "distance": 102.11537868,
                    "sims": 0.9957498289198198
                }
            ]
        },
        "9": {
            "execution_time": 0.18731069564819336,
            "results": [
                {
                    "id": 12419334235,
                    "tags": {
                        "addr:street": "Cirque Drive",
                        "addr:housenumber": "18"
                    },
                    "distance": 265.30973252,
                    "sims": 0.9945768127602519
                },
                {
                    "id": 12419334223,
                    "tags": {
                        "addr:street": "Cirque Drive",
                        "addr:housenumber": "30"
                    },
                    "distance": 265.30973252,
                    "sims": 0.9944588851567806
                },
                {
                    "id": 6180386412,
                    "tags": {
                        "name": "Domenico\u2019s Pizza",
                        "amenity": "restaurant",
                        "cuisine": "pizza"
                    },
                    "distance": 488.32639133,
                    "sims": 0.9933791776361691
                },
                {
                    "id": 12419334426,
                    "tags": {
                        "addr:street": "Falcon Court",
                        "addr:housenumber": "19"
                    },
                    "distance": 408.79016609,
                    "sims": 0.9931865350755652
                },
                {
                    "id": 12419334409,
                    "tags": {
                        "addr:street": "Falcon Court",
                        "addr:housenumber": "4"
                    },
                    "distance": 451.841938,
                    "sims": 0.9928838627615585
                },
                {
                    "id": 12412076148,
                    "tags": {
                        "addr:street": "Jetty Lane",
                        "addr:housenumber": "8"
                    },
                    "distance": 1447.56608292,
                    "sims": 0.9926552794411104
                },
                {
                    "id": 12419363926,
                    "tags": {
                        "addr:street": "Station Road",
                        "addr:housenumber": "18"
                    },
                    "distance": 1237.76902919,
                    "sims": 0.9926507490514205
                },
                {
                    "id": 12419333565,
                    "tags": {
                        "addr:street": "Lovett Walk",
                        "addr:housenumber": "13"
                    },
                    "distance": 1274.9688522,
                    "sims": 0.9926340597548624
                },
                {
                    "id": 12419335933,
                    "tags": {
                        "addr:street": "Gallant Street",
                        "addr:housenumber": "20"
                    },
                    "distance": 286.49284858,
                    "sims": 0.9925103205418104
                },
                {
                    "id": 12419333832,
                    "tags": {
                        "addr:street": "Levien Lane",
                        "addr:housenumber": "3"
                    },
                    "distance": 860.742905,
                    "sims": 0.9924991148712643
                }
            ]
        },
        "10": {
            "execution_time": 0.3066132068634033,
            "results": [
                {
                    "id": 12418154958,
                    "tags": {
                        "addr:street": "Centreway Arcade",
                        "addr:housenumber": "17"
                    },
                    "distance": 555.36816646,
                    "sims": 0.9961354727906553
                },
                {
                    "id": 5928461736,
                    "tags": {
                        "name": "Golden Orchids",
                        "amenity": "restaurant"
                    },
                    "distance": 1020.9603759,
                    "sims": 0.9960935709532261
                },
                {
                    "id": 4283279431,
                    "tags": {
                        "addr:street": "Exhibition Street",
                        "addr:housenumber": "136"
                    },
                    "distance": 923.40969828,
                    "sims": 0.9960146541612928
                },
                {
                    "id": 8972382968,
                    "tags": {
                        "name": "Riverslide Skate Shop and Caf\u00e9",
                        "amenity": "cafe"
                    },
                    "distance": 349.02434867,
                    "sims": 0.9959278101835024
                },
                {
                    "id": 6634610685,
                    "tags": {
                        "name": "Laurent Boulangerie Patisserie",
                        "shop": "bakery",
                        "wheelchair": "yes",
                        "addr:street": "Collins Street",
                        "opening_hours": "Mo-Fr 07:00-18:00; Sa-Su 09:00-16:00",
                        "addr:housenumber": "45",
                        "toilets:wheelchair": "yes"
                    },
                    "distance": 751.38664116,
                    "sims": 0.9958333370586256
                },
                {
                    "id": 4302808991,
                    "tags": {
                        "name": "Chocolate Buddha",
                        "level": "1",
                        "amenity": "restaurant",
                        "addr:street": "Federation Square"
                    },
                    "distance": 309.94759698,
                    "sims": 0.9958178398500603
                },
                {
                    "id": 3105262652,
                    "tags": {
                        "name": "Street Art",
                        "tourism": "viewpoint"
                    },
                    "distance": 1014.96806867,
                    "sims": 0.9955933984154526
                },
                {
                    "id": 12418155012,
                    "tags": {
                        "addr:street": "Oliver Lane",
                        "addr:housenumber": "10-20"
                    },
                    "distance": 509.04680349,
                    "sims": 0.995575904318798
                },
                {
                    "id": 4120677338,
                    "tags": {
                        "name": "Sir Redmond Barry",
                        "tourism": "artwork",
                        "artwork_type": "statue"
                    },
                    "distance": 1238.0966159,
                    "sims": 0.9955306053161692
                },
                {
                    "id": 12418154751,
                    "tags": {
                        "addr:street": "Meyers Place",
                        "addr:housenumber": "30"
                    },
                    "distance": 1014.32835371,
                    "sims": 0.9955258364112182
                }
            ]
        },
        "11": {
            "execution_time": 0.20338678359985352,
            "results": [
                {
                    "id": 1942538693,
                    "tags": {
                        "name": "Lawson Grove Shop",
                        "amenity": "cafe"
                    },
                    "distance": 183.84265558,
                    "sims": 0.9961671214900879
                },
                {
                    "id": 538134820,
                    "tags": {
                        "name": "Lyall Hotel",
                        "tourism": "hotel"
                    },
                    "distance": 310.43098252,
                    "sims": 0.9955865128946391
                },
                {
                    "id": 1055793075,
                    "tags": {
                        "name": "Ecco da Nicolini",
                        "amenity": "restaurant",
                        "cuisine": "italian"
                    },
                    "distance": 412.01361162,
                    "sims": 0.9955483955779951
                },
                {
                    "id": 12418349597,
                    "tags": {
                        "addr:street": "Avoca Street",
                        "addr:housenumber": "35"
                    },
                    "distance": 252.5476143,
                    "sims": 0.995391426822521
                },
                {
                    "id": 12418350764,
                    "tags": {
                        "addr:street": "Darling Street",
                        "addr:housenumber": "69"
                    },
                    "distance": 150.28941521,
                    "sims": 0.9952968339370835
                },
                {
                    "id": 12418349775,
                    "tags": {
                        "addr:unit": "2",
                        "addr:street": "Avoca Street",
                        "addr:housenumber": "62"
                    },
                    "distance": 119.60979499,
                    "sims": 0.9952636940230866
                },
                {
                    "id": 12418349455,
                    "tags": {
                        "addr:flats": "1-12",
                        "addr:street": "Darling Street",
                        "addr:housenumber": "46"
                    },
                    "distance": 132.5059881,
                    "sims": 0.995237110625923
                },
                {
                    "id": 12418349459,
                    "tags": {
                        "addr:flats": "1-12",
                        "addr:street": "Darling Street",
                        "addr:housenumber": "56"
                    },
                    "distance": 110.34713618,
                    "sims": 0.995195089052415
                },
                {
                    "id": 12418349104,
                    "tags": {
                        "addr:street": "Avoca Street",
                        "addr:housenumber": "28A"
                    },
                    "distance": 271.71085496,
                    "sims": 0.9951648694867066
                },
                {
                    "id": 12411526413,
                    "tags": {
                        "addr:flats": "1-5",
                        "addr:street": "Darling Street",
                        "addr:housenumber": "11A"
                    },
                    "distance": 282.3821478,
                    "sims": 0.9951544383813029
                }
            ]
        },
        "12": {
            "execution_time": 0.18764042854309082,
            "results": [
                {
                    "id": 4921480425,
                    "tags": {
                        "name": "Williamstown Boat Ramp",
                        "leisure": "slipway"
                    },
                    "distance": 2008.88202444,
                    "sims": 0.9895524370137063
                },
                {
                    "id": 4925987258,
                    "tags": {
                        "name": "Cannon South",
                        "historic": "cannon",
                        "description": "9-inch armstrong gun"
                    },
                    "distance": 626.70618015,
                    "sims": 0.9892671979925262
                },
                {
                    "id": 616544369,
                    "tags": {
                        "name": "Sandy Point Nature Reserve, Williamstown"
                    },
                    "distance": 1981.69322394,
                    "sims": 0.9892380513151505
                },
                {
                    "id": 12412239178,
                    "tags": {
                        "addr:street": "Cropper Place",
                        "addr:housenumber": "4"
                    },
                    "distance": 56.02230564,
                    "sims": 0.9890817980316674
                },
                {
                    "id": 12412239523,
                    "tags": {
                        "addr:street": "Cropper Place",
                        "addr:housenumber": "3"
                    },
                    "distance": 51.77512978,
                    "sims": 0.9890754799381914
                },
                {
                    "id": 12412239099,
                    "tags": {
                        "addr:street": "Railway Crescent",
                        "addr:housenumber": "26"
                    },
                    "distance": 423.11074684,
                    "sims": 0.9890180210503535
                },
                {
                    "id": 12414146326,
                    "tags": {
                        "addr:street": "Norval Close",
                        "addr:housenumber": "11"
                    },
                    "distance": 366.74356565,
                    "sims": 0.9888439767864176
                },
                {
                    "id": 12412239615,
                    "tags": {
                        "addr:street": "Heriot Place",
                        "addr:housenumber": "10"
                    },
                    "distance": 275.53458826,
                    "sims": 0.9887329915880704
                },
                {
                    "id": 12414146332,
                    "tags": {
                        "addr:street": "Norval Close",
                        "addr:housenumber": "3"
                    },
                    "distance": 366.74356565,
                    "sims": 0.9886857545614436
                },
                {
                    "id": 12209981203,
                    "tags": {
                        "amenity": "parking_entrance"
                    },
                    "distance": 887.3140582,
                    "sims": 0.9886801818633563
                }
            ]
        },
        "13": {
            "execution_time": 0.1847231388092041,
            "results": [
                {
                    "id": 2235581456,
                    "tags": {
                        "name": "Kmart",
                        "shop": "department_store",
                        "brand": "Kmart",
                        "phone": "+61 3 9421 0100",
                        "branch": "Victoria Gardens",
                        "website": "https://www.kmart.com.au/",
                        "opening_hours": "Mo-We 8:00-22:00; Th 7:00-22:00; Fr 8:00-22:00; Sa 8:00-20:00",
                        "brand:wikidata": "Q6421682",
                        "brand:wikipedia": "en:Kmart Australia"
                    },
                    "distance": 811.06932575,
                    "sims": 0.9944741403196423
                },
                {
                    "id": 2672755411,
                    "tags": {
                        "addr:street": "Somerset Street",
                        "survey:date": "2014-02-15",
                        "addr:housenumber": "59b"
                    },
                    "distance": 471.5582205,
                    "sims": 0.9941584743280014
                },
                {
                    "id": 9945284476,
                    "tags": {
                        "name": "Upgrade Commercial Interiors",
                        "office": "yes",
                        "addr:state": "VIC",
                        "addr:street": "North Street",
                        "addr:suburb": "Richmond",
                        "addr:postcode": "3121",
                        "addr:housenumber": "55"
                    },
                    "distance": 479.89621024,
                    "sims": 0.9940308307538558
                },
                {
                    "id": 2235595110,
                    "tags": {
                        "name": "Fitness First",
                        "brand": "Fitness First",
                        "leisure": "fitness_centre",
                        "website": "https://www.fitnessfirst.com.au/",
                        "brand:wikidata": "Q127120",
                        "brand:wikipedia": "en:Fitness First"
                    },
                    "distance": 693.69573529,
                    "sims": 0.9939630306220621
                },
                {
                    "id": 9945194115,
                    "tags": {
                        "name": "Tycorp",
                        "office": "yes"
                    },
                    "distance": 500.90189055,
                    "sims": 0.9938270131379507
                },
                {
                    "id": 7713877690,
                    "tags": {
                        "name": "Modena",
                        "amenity": "cafe",
                        "opening_hours:signed": "no",
                        "check_date:opening_hours": "2023-06-03"
                    },
                    "distance": 312.24467069,
                    "sims": 0.9937286047156894
                },
                {
                    "id": 12418348244,
                    "tags": {
                        "addr:unit": "1",
                        "addr:street": "Somerset Street",
                        "addr:housenumber": "128"
                    },
                    "distance": 265.80778155,
                    "sims": 0.9936765705882883
                },
                {
                    "id": 10066689782,
                    "tags": {
                        "fee": "no",
                        "name": "Mayfield gallery",
                        "tourism": "gallery"
                    },
                    "distance": 1031.7793248,
                    "sims": 0.9936669142545911
                },
                {
                    "id": 2243314039,
                    "tags": {
                        "ref": "21",
                        "name": "Stop 21: Burnley Street",
                        "tram": "yes",
                        "network": "PTV - Metropolitan Trams",
                        "railway": "tram_stop",
                        "operator": "Keolis Downer",
                        "network:wikidata": "Q7257648",
                        "public_transport": "stop_position",
                        "operator:wikidata": "Q6328065"
                    },
                    "distance": 197.12029973,
                    "sims": 0.993662802287762
                },
                {
                    "id": 2672755360,
                    "tags": {
                        "addr:street": "Johnson Street",
                        "survey:date": "2014-02-15",
                        "addr:housenumber": "44"
                    },
                    "distance": 606.40043559,
                    "sims": 0.9936611337350155
                }
            ]
        },
        "14": {
            "execution_time": 0.18803691864013672,
            "results": [
                {
                    "id": 11028998930,
                    "tags": {
                        "amenity": "bench",
                        "backrest": "yes"
                    },
                    "distance": 127.31955218,
                    "sims": 0.9957848213874139
                },
                {
                    "id": 11038684809,
                    "tags": {
                        "amenity": "bench",
                        "backrest": "yes"
                    },
                    "distance": 210.42898316,
                    "sims": 0.9957848213874139
                },
                {
                    "id": 11044120695,
                    "tags": {
                        "amenity": "bench",
                        "backrest": "no",
                        "material": "concrete"
                    },
                    "distance": 200.91699377,
                    "sims": 0.9957645558190615
                },
                {
                    "id": 11206955084,
                    "tags": {
                        "amenity": "bicycle_parking"
                    },
                    "distance": 751.68878339,
                    "sims": 0.995734395630761
                },
                {
                    "id": 11038684806,
                    "tags": {
                        "amenity": "bench",
                        "backrest": "yes"
                    },
                    "distance": 205.66152414,
                    "sims": 0.9957196139410096
                },
                {
                    "id": 11028998947,
                    "tags": {
                        "amenity": "bench",
                        "backrest": "no"
                    },
                    "distance": 161.67048742,
                    "sims": 0.9955622275641821
                },
                {
                    "id": 12651159163,
                    "tags": {
                        "amenity": "bench",
                        "backrest": "yes",
                        "material": "wood"
                    },
                    "distance": 135.75910236,
                    "sims": 0.9953778408157332
                },
                {
                    "id": 6765362405,
                    "tags": {
                        "name": "Australian Red Cross Op Shop",
                        "shop": "charity",
                        "phone": "+61 3 9521 7613",
                        "website": "https://www.redcross.org.au/",
                        "addr:street": "Commercial Road",
                        "opening_hours": "Mo-Sa 09:30-17:30; Su 12:00-16:30",
                        "addr:housenumber": "188"
                    },
                    "distance": 306.4404739,
                    "sims": 0.9952382468042328
                },
                {
                    "id": 10813862467,
                    "tags": {
                        "amenity": "post_office",
                        "operator": "Australia Post",
                        "operator:wikidata": "Q1142936"
                    },
                    "distance": 259.25357386,
                    "sims": 0.9952154182361693
                },
                {
                    "id": 11301973655,
                    "tags": {
                        "layer": "1",
                        "amenity": "bench",
                        "backrest": "no"
                    },
                    "distance": 970.46830953,
                    "sims": 0.9951500915766457
                }
            ]
        },
        "15": {
            "execution_time": 0.18506860733032227,
            "results": [
                {
                    "id": 12418153065,
                    "tags": {
                        "addr:street": "Hyam Place",
                        "addr:housenumber": "9"
                    },
                    "distance": 92.85735401,
                    "sims": 0.996166229705075
                },
                {
                    "id": 11140838632,
                    "tags": {
                        "entrance": "yes",
                        "addr:street": "Cardigan Street",
                        "addr:housenumber": "270"
                    },
                    "distance": 232.39023237,
                    "sims": 0.9961619381711627
                },
                {
                    "id": 12418153082,
                    "tags": {
                        "addr:street": "Elgin Place",
                        "addr:housenumber": "3"
                    },
                    "distance": 488.05924574,
                    "sims": 0.9961337454079863
                },
                {
                    "id": 12418153031,
                    "tags": {
                        "addr:street": "Union Place",
                        "addr:housenumber": "2"
                    },
                    "distance": 476.90871423,
                    "sims": 0.9960308678094999
                },
                {
                    "id": 10765061031,
                    "tags": {
                        "covered": "no",
                        "leisure": "picnic_table"
                    },
                    "distance": 487.45142274,
                    "sims": 0.9960106616007564
                },
                {
                    "id": 9339755984,
                    "tags": {
                        "addr:street": "Macarthur Place South",
                        "addr:housenumber": "29"
                    },
                    "distance": 559.2748263,
                    "sims": 0.9959982640746378
                },
                {
                    "id": 11169226287,
                    "tags": {
                        "entrance": "yes",
                        "addr:street": "Keppel Street",
                        "addr:housenumber": "21"
                    },
                    "distance": 487.62442536,
                    "sims": 0.9959503421901841
                },
                {
                    "id": 11169279694,
                    "tags": {
                        "entrance": "yes",
                        "addr:street": "Keppel Street",
                        "addr:housenumber": "19"
                    },
                    "distance": 483.89772912,
                    "sims": 0.9959293015129641
                },
                {
                    "id": 7192045343,
                    "tags": {
                        "covered": "no",
                        "leisure": "picnic_table"
                    },
                    "distance": 490.9828947,
                    "sims": 0.9959232220832772
                },
                {
                    "id": 6876562374,
                    "tags": {
                        "name": "San Churro",
                        "amenity": "cafe",
                        "cuisine": "dessert;chocolate"
                    },
                    "distance": 95.96108051,
                    "sims": 0.995923102145026
                }
            ]
        },
        "16": {
            "execution_time": 0.1924147605895996,
            "results": [
                {
                    "id": 6876562374,
                    "tags": {
                        "name": "San Churro",
                        "amenity": "cafe",
                        "cuisine": "dessert;chocolate"
                    },
                    "distance": 160.65724301,
                    "sims": 0.9947558644559623
                },
                {
                    "id": 12418153082,
                    "tags": {
                        "addr:street": "Elgin Place",
                        "addr:housenumber": "3"
                    },
                    "distance": 432.42874247,
                    "sims": 0.994386972000546
                },
                {
                    "id": 2274624950,
                    "tags": {
                        "name": "Baron's Wine & Spirits",
                        "shop": "alcohol"
                    },
                    "distance": 613.52059192,
                    "sims": 0.9943716532741077
                },
                {
                    "id": 12418153031,
                    "tags": {
                        "addr:street": "Union Place",
                        "addr:housenumber": "2"
                    },
                    "distance": 413.28362785,
                    "sims": 0.9943354139920346
                },
                {
                    "id": 9339755984,
                    "tags": {
                        "addr:street": "Macarthur Place South",
                        "addr:housenumber": "29"
                    },
                    "distance": 455.96142966,
                    "sims": 0.9943099032086324
                },
                {
                    "id": 12418153065,
                    "tags": {
                        "addr:street": "Hyam Place",
                        "addr:housenumber": "9"
                    },
                    "distance": 186.19737416,
                    "sims": 0.9942356354909448
                },
                {
                    "id": 11140838632,
                    "tags": {
                        "entrance": "yes",
                        "addr:street": "Cardigan Street",
                        "addr:housenumber": "270"
                    },
                    "distance": 175.74622599,
                    "sims": 0.9940826899906837
                },
                {
                    "id": 11169226287,
                    "tags": {
                        "entrance": "yes",
                        "addr:street": "Keppel Street",
                        "addr:housenumber": "21"
                    },
                    "distance": 403.70562638,
                    "sims": 0.9938455834756891
                },
                {
                    "id": 11169242788,
                    "tags": {
                        "entrance": "yes",
                        "addr:street": "Keppel Street",
                        "addr:housenumber": "11"
                    },
                    "distance": 377.57345911,
                    "sims": 0.993822932979718
                },
                {
                    "id": 11169279694,
                    "tags": {
                        "entrance": "yes",
                        "addr:street": "Keppel Street",
                        "addr:housenumber": "19"
                    },
                    "distance": 399.47536066,
                    "sims": 0.9938062440503417
                }
            ]
        },
        "17": {
            "execution_time": 0.18841075897216797,
            "results": [
                {
                    "id": 12419337066,
                    "tags": {
                        "addr:street": "Beach Street",
                        "addr:housenumber": "38"
                    },
                    "distance": 2363.69075984,
                    "sims": 0.9919126653931982
                },
                {
                    "id": 12419337009,
                    "tags": {
                        "addr:street": "Bay Street",
                        "addr:housenumber": "59"
                    },
                    "distance": 2639.5747369,
                    "sims": 0.989734712322186
                },
                {
                    "id": 1684401160,
                    "tags": {
                        "amenity": "drinking_water"
                    },
                    "distance": 2278.58332879,
                    "sims": 0.9889574083813247
                },
                {
                    "id": 12419337071,
                    "tags": {
                        "addr:street": "Capistrano Place",
                        "addr:housenumber": "1-9"
                    },
                    "distance": 2680.93622094,
                    "sims": 0.9886415641397885
                },
                {
                    "id": 12419336640,
                    "tags": {
                        "addr:unit": "RC61",
                        "addr:street": "Bay Street",
                        "addr:housenumber": "55"
                    },
                    "distance": 2612.04549046,
                    "sims": 0.9884589938023737
                },
                {
                    "id": 3701327734,
                    "tags": {
                        "addr:state": "VIC",
                        "addr:street": "Beach Street",
                        "addr:suburb": "Port Melbourne",
                        "description": "cafe site. currently permanently closed",
                        "addr:postcode": "3207",
                        "addr:housenumber": "101"
                    },
                    "distance": 2691.35751185,
                    "sims": 0.9884218012029964
                },
                {
                    "id": 10869996022,
                    "tags": {
                        "amenity": "bench",
                        "backrest": "yes"
                    },
                    "distance": 2172.63448638,
                    "sims": 0.9881365025951555
                },
                {
                    "id": 4063309992,
                    "tags": {
                        "name": "Bicycle Loops",
                        "amenity": "bicycle_parking",
                        "covered": "no",
                        "capacity": "10",
                        "bicycle_parking": "stands"
                    },
                    "distance": 2687.6236134,
                    "sims": 0.9880485570286484
                },
                {
                    "id": 563791742,
                    "tags": {
                        "name": "Port Melbourne Rear Light",
                        "source": "US NGA Pub. 111. 2024-04-19.",
                        "man_made": "lighthouse",
                        "seamark:type": "light_major",
                        "seamark:light:1:range": "15",
                        "seamark:light:2:range": "15",
                        "seamark:light:3:range": "15",
                        "seamark:light:4:range": "8",
                        "seamark:light:1:colour": "green",
                        "seamark:light:1:height": "70",
                        "seamark:light:1:period": "3",
                        "seamark:light:2:colour": "white",
                        "seamark:light:2:height": "70",
                        "seamark:light:2:period": "3",
                        "seamark:light:3:colour": "red",
                        "seamark:light:3:height": "70",
                        "seamark:light:3:period": "3",
                        "seamark:light:4:colour": "blue",
                        "seamark:light:4:height": "18",
                        "seamark:light:reference": "K 2338.10",
                        "seamark:light:1:category": "directional",
                        "seamark:light:2:category": "directional",
                        "seamark:light:3:category": "directional",
                        "seamark:light:1:character": "Iso",
                        "seamark:light:2:character": "Iso",
                        "seamark:light:3:character": "Iso",
                        "seamark:light:4:character": "F",
                        "seamark:light:1:sector_end": "1.4",
                        "seamark:light:2:sector_end": "1.6",
                        "seamark:light:3:sector_end": "1.9",
                        "seamark:light:1:sector_start": "1.1",
                        "seamark:light:2:sector_start": "1.4",
                        "seamark:light:3:sector_start": "1.6"
                    },
                    "distance": 3130.19440893,
                    "sims": 0.987568560967322
                },
                {
                    "id": 4192561691,
                    "tags": {
                        "amenity": "waste_basket",
                        "check_date": "2021-01-25"
                    },
                    "distance": 3101.0156291,
                    "sims": 0.987432483603854
                }
            ]
        },
        "18": {
            "execution_time": 0.1907050609588623,
            "results": [
                {
                    "id": 11722044886,
                    "tags": {
                        "name": "Rivett Theatre",
                        "level": "2",
                        "source": "local knowledge",
                        "amenity": "events_venue",
                        "smoking": "no",
                        "operator": "University of Melbourne",
                        "check_date": "2024-03-12",
                        "wheelchair": "no",
                        "addr:street": "Spencer Road",
                        "description": "University lecture theatre during semesters, events venue outside semesters",
                        "internet_access": "wlan",
                        "air_conditioning": "yes",
                        "internet_access:fee": "no",
                        "internet_access:ssid": "UniWireless, Eduroam"
                    },
                    "distance": 887.60120054,
                    "sims": 0.9963483196966656
                },
                {
                    "id": 4408019790,
                    "tags": {
                        "name": "Old Geology Theatre 1",
                        "level": "0",
                        "amenity": "events_venue",
                        "name:en": "Old Geology Theatre 1",
                        "smoking": "no",
                        "operator": "University of Melbourne",
                        "check_date": "2024-03-13",
                        "wheelchair": "limited",
                        "addr:street": "Masson Road",
                        "description": "University Lecture Theatre during semesters, events venue outside semesters",
                        "internet_access": "wlan",
                        "air_conditioning": "yes",
                        "internet_access:fee": "no",
                        "internet_access:ssid": "UniWireless, Eduroam"
                    },
                    "distance": 729.19872529,
                    "sims": 0.9962004108133764
                },
                {
                    "id": 2024031723,
                    "tags": {
                        "bin": "no",
                        "bus": "yes",
                        "lit": "no",
                        "ref": "ID.40798",
                        "name": "Melbourne Central/Lonsdale Street",
                        "bench": "no",
                        "highway": "bus_stop",
                        "network": "PTV - Metropolitan Buses",
                        "shelter": "no",
                        "operator": "Kinetic",
                        "route_ref": "200;207;250;251;350",
                        "not_served_by": "302;303;304;305;309;318;905;906;907;908",
                        "tactile_paving": "yes",
                        "network:wikidata": "Q7257648",
                        "public_transport": "platform",
                        "network:wikipedia": "en:Public Transport Victoria",
                        "passenger_information_display": "no"
                    },
                    "distance": 791.2491722,
                    "sims": 0.9959849100041828
                },
                {
                    "id": 6163160891,
                    "tags": {
                        "amenity": "bicycle_parking",
                        "covered": "no",
                        "capacity": "2",
                        "bicycle_parking": "stands"
                    },
                    "distance": 638.08413553,
                    "sims": 0.9958161394967268
                },
                {
                    "id": 11803544081,
                    "tags": {
                        "name": "Melbourne Disability Institute",
                        "level": "0",
                        "office": "educational_institution",
                        "smoking": "no",
                        "website": "https://disability.unimelb.edu.au/",
                        "operator": "University of Melbourne",
                        "check_date": "2024-04-09",
                        "start_date": "2023-06-01",
                        "wheelchair": "limited",
                        "addr:street": "Monash Road",
                        "description": "The Melbourne Disability Institute facilitates collaborative, interdisciplinary research at the University of Melbourne",
                        "internet_access": "yes",
                        "addr:housenumber": "33",
                        "air_conditioning": "yes",
                        "internet_access:ssid": "Uniwireless, Eduroam"
                    },
                    "distance": 686.74362255,
                    "sims": 0.9957595741580041
                },
                {
                    "id": 2025676692,
                    "tags": {
                        "bin": "yes",
                        "bus": "yes",
                        "ref": "ID.19529",
                        "name": "Trades Hall/Lygon Street",
                        "bench": "yes",
                        "source": "survey",
                        "highway": "bus_stop",
                        "network": "PTV - Metropolitan Buses",
                        "shelter": "yes",
                        "operator": "Transdev Melbourne",
                        "route_ref": "200;207",
                        "tactile_paving": "yes",
                        "departures_board": "timetable",
                        "network:wikidata": "Q7257648",
                        "public_transport": "platform",
                        "network:wikipedia": "en:Public Transport Victoria"
                    },
                    "distance": 328.31084119,
                    "sims": 0.995747325776819
                },
                {
                    "id": 12483926914,
                    "tags": {
                        "level": "1",
                        "access": "customers",
                        "amenity": "toilets"
                    },
                    "distance": 949.97180679,
                    "sims": 0.9957326333520662
                },
                {
                    "id": 12074853374,
                    "tags": {
                        "name": "Little Mylk Bar - Tasty Vegan Streetfood",
                        "phone": "+61 0431107105",
                        "mobile": "+61 0431 107 105",
                        "source": "Real Estate Team University of Melbourne;Jon Peacock;local knowledge",
                        "amenity": "cafe",
                        "cuisine": "coffee_shop;burger;sandwich",
                        "smoking": "no",
                        "website": "https://littlemylkbar.com.au/",
                        "capacity": "50",
                        "delivery": "no",
                        "takeaway": "yes",
                        "check_date": "2024-08-06",
                        "diet:local": "yes",
                        "diet:vegan": "yes",
                        "wheelchair": "yes",
                        "addr:street": "University Plaza",
                        "description": "Amazing pop-up cafe in a caravan selling awesome vegan food with gluten-free options",
                        "diet:healthy": "yes",
                        "website:menu": "https://littlemylkbar.com.au/menu/",
                        "opening_hours": "Mo-Th 09:00-15:00",
                        "diet:vegetarian": "yes",
                        "internet_access": "wlan",
                        "outdoor_seating": "yes",
                        "air_conditioning": "no",
                        "diet:gluten_free": "yes",
                        "diet:lactose_free": "yes",
                        "internet_access:fee": "no",
                        "payment:debit_cards": "yes",
                        "internet_access:ssid": "Uniwireless, Eduroam",
                        "payment:credit_cards": "yes"
                    },
                    "distance": 841.98808278,
                    "sims": 0.9957134406478687
                },
                {
                    "id": 7924641139,
                    "tags": {
                        "name": "Somerset Serviced Apartments",
                        "tourism": "apartment",
                        "addr:state": "VIC",
                        "check_date": "2024-09-14",
                        "addr:street": "Elizabeth Street",
                        "addr:suburb": "Melbourne",
                        "addr:postcode": "3000",
                        "addr:housenumber": "222-260"
                    },
                    "distance": 905.36675435,
                    "sims": 0.9956521071817973
                },
                {
                    "id": 4362288162,
                    "tags": {
                        "amenity": "bicycle_parking",
                        "covered": "no",
                        "capacity": "6",
                        "bicycle_parking": "stands"
                    },
                    "distance": 364.90494848,
                    "sims": 0.995648412210752
                }
            ]
        },
        "19": {
            "execution_time": 0.19023776054382324,
            "results": [
                {
                    "id": 3954625850,
                    "tags": {
                        "bus": "yes",
                        "name": "Lonsdale Street/Queen Street",
                        "network": "PTV - Metropolitan Buses",
                        "operator": "Transdev",
                        "public_transport": "stop_position"
                    },
                    "distance": 120.33642258,
                    "sims": 0.9969790568885819
                },
                {
                    "id": 4520380501,
                    "tags": {
                        "ref": "3",
                        "name": "Stop 3: Flagstaff Station",
                        "tram": "yes",
                        "network": "PTV - Metropolitan Trams",
                        "railway": "tram_stop",
                        "operator": "Keolis Downer",
                        "network:wikidata": "Q7257648",
                        "public_transport": "stop_position",
                        "operator:wikidata": "Q6328065"
                    },
                    "distance": 346.20770422,
                    "sims": 0.9967385817803622
                },
                {
                    "id": 6089154668,
                    "tags": {
                        "amenity": "telephone",
                        "check_date": "2022-12-13",
                        "wheelchair": "yes"
                    },
                    "distance": 194.66124584,
                    "sims": 0.9963188756463004
                },
                {
                    "id": 3815018357,
                    "tags": {
                        "amenity": "waste_basket",
                        "check_date": "2023-01-23"
                    },
                    "distance": 233.44087819,
                    "sims": 0.9962560820227296
                },
                {
                    "id": 711750998,
                    "tags": {
                        "amenity": "cafe"
                    },
                    "distance": 263.29879052,
                    "sims": 0.9962460088344604
                },
                {
                    "id": 4957706275,
                    "tags": {
                        "amenity": "waste_basket",
                        "check_date": "2023-11-13"
                    },
                    "distance": 411.48737316,
                    "sims": 0.9961619066531114
                },
                {
                    "id": 3884766711,
                    "tags": {
                        "ref": "3",
                        "name": "Stop 3: William Street",
                        "tram": "yes",
                        "network": "PTV - Metropolitan Trams",
                        "railway": "tram_stop",
                        "operator": "Keolis Downer",
                        "network:wikidata": "Q7257648",
                        "public_transport": "stop_position",
                        "operator:wikidata": "Q6328065"
                    },
                    "distance": 360.63522952,
                    "sims": 0.9961509097072655
                },
                {
                    "id": 7246258957,
                    "tags": {
                        "bus": "yes",
                        "name": "Southern Cross Coach Terminal (Bay 76)",
                        "level": "0",
                        "highway": "bus_stop",
                        "shelter": "yes",
                        "public_transport": "platform"
                    },
                    "distance": 669.42716868,
                    "sims": 0.9961027493722479
                },
                {
                    "id": 11135210945,
                    "tags": {
                        "name": "Sushi Jiro",
                        "level": "0",
                        "amenity": "restaurant",
                        "cuisine": "sushi",
                        "takeaway": "yes",
                        "wheelchair": "yes",
                        "outdoor_seating": "no"
                    },
                    "distance": 513.58149651,
                    "sims": 0.9960933909750473
                },
                {
                    "id": 12175758069,
                    "tags": {
                        "level": "-1",
                        "amenity": "vending_machine",
                        "vending": "public_transport_tickets",
                        "operator": "myki"
                    },
                    "distance": 560.96670179,
                    "sims": 0.9960518465227814
                }
            ]
        }
    }
}