{
    "insertion_time": 67.48710060119629,
    "index_creation": {
        "func": [
            "CREATE INDEX IF NOT EXISTS idx_pois_geom ON PoIs USING GIST (geom);",
            "CREATE INDEX IF NOT EXISTS idx_pois_embedding ON PoIs USING hnsw (embedding vector_cosine_ops) WITH (m = 16, ef_construction = 64);"
        ],
        "time": 13.891079187393188
    },
    "query_results": {
        "0": {
            "execution_time": 0.20369362831115723,
            "results": [
                {
                    "id": 3658718390,
                    "tags": {
                        "name": "View of the Bosphorus",
                        "name:uk": "\u041e\u0433\u043b\u044f\u0434\u043d\u0438\u0439 \u043c\u0430\u0439\u0434\u0430\u043d\u0447\u0438\u043a \u0442\u0456\u043b\u044c\u043a\u0438 \u043d\u0430 \u0442\u0435\u0440\u0438\u0442\u043e\u0440\u0456\u0457 \u043c\u0435\u0447\u0435\u0442\u0456",
                        "tourism": "viewpoint"
                    },
                    "distance": 1954.23871154,
                    "sims": 0.514908041087385
                },
                {
                    "id": 5989714589,
                    "tags": {
                        "name:en": "good view on the Bosphorus",
                        "name:ru": "\u0445\u043e\u0440\u043e\u0448\u0438\u0439 \u0432\u0438\u0434 \u043d\u0430 \u0411\u043e\u0441\u0444\u043e\u0440",
                        "tourism": "viewpoint"
                    },
                    "distance": 2333.79319212,
                    "sims": 0.4882616130682099
                },
                {
                    "id": 5734092305,
                    "tags": {
                        "name": "Dubb Indian Bosphorus Restaurant",
                        "email": "book@dubbindian.com",
                        "level": "9",
                        "phone": "+90 212 343 80 81",
                        "amenity": "restaurant",
                        "cuisine": "indian",
                        "website": "http://bosphorus.dubbindian.com",
                        "addr:city": "Istanbul",
                        "addr:street": "Cumhuriyet Caddesi",
                        "payment:cash": "yes",
                        "payment:visa": "yes",
                        "addr:district": "\u015ei\u015fli",
                        "addr:postcode": "34367",
                        "opening_hours": "Mo-Su 12:00-15:00, 18:00-23:00",
                        "contact:twitter": "https://twitter.com/dubbbosphorus",
                        "outdoor_seating": "yes",
                        "addr:housenumber": "50",
                        "contact:instagram": "https://www.instagram.com/dubbindianbosphorus/",
                        "addr:neighbourhood": "Harbiye Mahallesi",
                        "payment:mastercard": "yes",
                        "payment:american_express": "yes"
                    },
                    "distance": 1031.13163947,
                    "sims": 0.459890269660016
                },
                {
                    "id": 4161579228,
                    "tags": {
                        "name": "Bosphorus Hotel Suit",
                        "tourism": "hotel",
                        "wheelchair": "no"
                    },
                    "distance": 2003.45606524,
                    "sims": 0.44193114580776627
                },
                {
                    "id": 6697339286,
                    "tags": {
                        "name:en": "Bosphorus view",
                        "name:ru": "\u0411\u043e\u0441\u0444\u043e\u0440 \u043e\u0431\u0437\u043e\u0440\u043d\u0430\u044f \u043f\u043b\u043e\u0449\u0430\u0434\u043a\u0430",
                        "tourism": "viewpoint"
                    },
                    "distance": 4518.87742862,
                    "sims": 0.43826411646269214
                },
                {
                    "id": 5579528611,
                    "tags": {
                        "fax": "+902122169360",
                        "name": "Star of Bosphorus Genel Merkez",
                        "email": "info@sob.com.tr",
                        "phone": "+902122169360",
                        "office": "company",
                        "website": "http://www.starofbosphorus.com.tr/",
                        "addr:city": "\u015ei\u015fli",
                        "addr:place": "Astoria Kuleleri A Kule",
                        "addr:street": "B\u00fcy\u00fckdere Caddesi",
                        "addr:country": "TR",
                        "addr:district": "\u015ei\u015fli",
                        "addr:postcode": "34394",
                        "addr:province": "\u0130stanbul",
                        "addr:housenumber": "127",
                        "addr:subdistrict": "Esentepe"
                    },
                    "distance": 2793.25749256,
                    "sims": 0.42052720891781836
                },
                {
                    "id": 1483978540,
                    "tags": {
                        "name": "Bo\u011faz Manzaras\u0131",
                        "name:en": "Bosphorus View",
                        "tourism": "viewpoint"
                    },
                    "distance": 4410.98200628,
                    "sims": 0.418796171236963
                },
                {
                    "id": 12669549201,
                    "tags": {
                        "name": "Cihangir Hotel Bosphorus",
                        "tourism": "hotel"
                    },
                    "distance": 1780.19749719,
                    "sims": 0.41276297303020026
                },
                {
                    "id": 9480291371,
                    "tags": {
                        "name": "Zimmer Hotel Bosphorus",
                        "tourism": "hotel",
                        "wikidata": "Q111856851"
                    },
                    "distance": 1728.37739445,
                    "sims": 0.4094586114224855
                },
                {
                    "id": 11491200882,
                    "tags": {
                        "name": "Evrensel De\u011ferler \u00c7ocuk M\u00fczesi",
                        "image": "https://www.atasehir.bel.tr/Uploads/ImageGallery/15296/b0473d1562c64ea48deddd7166ec03e6.JPG",
                        "museum": "nature",
                        "tourism": "museum",
                        "website": "https://www.atasehir.bel.tr/haber/evrensel-degerler-cocuk-muzesi-kapilarini-ziyaretcilere-acti",
                        "addr:city": "\u0130stanbul",
                        "addr:street": "Atapark Caddesi",
                        "addr:district": "Ata\u015fehir",
                        "addr:postcode": "34758",
                        "opening_hours": "Mo-Fr 8.30 - 17.00; Sa-Su 09.30 - 18.00",
                        "addr:neighbourhood": "Atat\u00fcrk"
                    },
                    "distance": 13430.17946898,
                    "sims": 0.4076649170720891
                }
            ]
        },
        "1": {
            "execution_time": 0.20180964469909668,
            "results": [
                {
                    "id": 9498225011,
                    "tags": {
                        "name": "Taksim & T\u00fcnel Cafe",
                        "amenity": "cafe"
                    },
                    "distance": 13800.39756527,
                    "sims": 0.5875380318668556
                },
                {
                    "id": 5744424621,
                    "tags": {
                        "name": "Beyo\u011flu Halk D\u00f6ner Restaurant",
                        "amenity": "fast_food",
                        "cuisine": "tea;chicken;turkish;kebab;local",
                        "addr:street": "Yedi Kuyular Caddesi",
                        "diet:vegetarian": "yes"
                    },
                    "distance": 462.69580743,
                    "sims": 0.5603327227035471
                },
                {
                    "id": 4599578273,
                    "tags": {
                        "name": "Taksim Pide",
                        "amenity": "restaurant"
                    },
                    "distance": 10980.9705409,
                    "sims": 0.5541302296000945
                },
                {
                    "id": 5674318376,
                    "tags": {
                        "name": "Sbarro",
                        "brand": "Sbarro",
                        "amenity": "fast_food",
                        "cuisine": "pizza",
                        "smoking": "outside",
                        "delivery": "yes",
                        "takeaway": "yes",
                        "addr:city": "Istanbul",
                        "addr:district": "Bakirk\u00f6y",
                        "brand:wikidata": "Q2589409",
                        "brand:wikipedia": "en:Sbarro",
                        "outdoor_seating": "yes",
                        "addr:neighbourhood": "Atak\u00f6y 7-8. Kisim"
                    },
                    "distance": 12914.92648728,
                    "sims": 0.5400977343466503
                },
                {
                    "id": 1912881345,
                    "tags": {
                        "name": "Taksim Karaoke",
                        "amenity": "restaurant",
                        "cuisine": "korean"
                    },
                    "distance": 320.37566511,
                    "sims": 0.5400059866912388
                },
                {
                    "id": 5483155223,
                    "tags": {
                        "amenity": "fast_food",
                        "addr:street": "Talatpa\u015fa Caddesi"
                    },
                    "distance": 5125.69336438,
                    "sims": 0.5389633225158875
                },
                {
                    "id": 5762010457,
                    "tags": {
                        "amenity": "restaurant",
                        "name:en": "Turkistan Dinner"
                    },
                    "distance": 3651.95793019,
                    "sims": 0.5389112876547956
                },
                {
                    "id": 6367783227,
                    "tags": {
                        "name": "Taksim Avenue Coffee Shop",
                        "shop": "coffee"
                    },
                    "distance": 380.87534379,
                    "sims": 0.5378183447014385
                },
                {
                    "id": 5188756121,
                    "tags": {
                        "name": "2K Chicken",
                        "amenity": "restaurant",
                        "addr:street": "Tahmis Sokak",
                        "description": "Do not go here as a tourist, they will rip you off horribly."
                    },
                    "distance": 2545.08589735,
                    "sims": 0.5348834436992974
                },
                {
                    "id": 5936320785,
                    "tags": {
                        "name": "Snob Street Food",
                        "amenity": "fast_food",
                        "name:en": "Snob Street Food",
                        "addr:street": "Dr. Esat I\u015f\u0131k Caddesi"
                    },
                    "distance": 6904.38206606,
                    "sims": 0.5316607989860571
                }
            ]
        },
        "2": {
            "execution_time": 0.19884967803955078,
            "results": [
                {
                    "id": 12768472401,
                    "tags": {
                        "name": "Padi\u015fah Mahfili - Yeni Cami",
                        "name:en": "Sultans Pavillion - the new Mosque",
                        "historic": "castle",
                        "addr:street": "Bankacilar 1"
                    },
                    "distance": 1320.44197004,
                    "sims": 0.5366654308640082
                },
                {
                    "id": 976474174,
                    "tags": {
                        "name": "Fatih Mescidi",
                        "amenity": "place_of_worship",
                        "name:ar": "\u062c\u0627\u0645\u0639 \u0627\u0644\u0641\u0627\u062a\u062d",
                        "religion": "muslim",
                        "wikidata": "Q756189",
                        "wikipedia": "en:Fatih Mosque, Istanbul",
                        "wikimedia_commons": "Category:Fatih Mosque"
                    },
                    "distance": 10441.27910613,
                    "sims": 0.5318364146048518
                },
                {
                    "id": 12730717459,
                    "tags": {
                        "amenity": "place_of_worship",
                        "religion": "muslim",
                        "check_date": "2025-04-05"
                    },
                    "distance": 1103.12160493,
                    "sims": 0.49857401881838814
                },
                {
                    "id": 5244801916,
                    "tags": {
                        "name": "Blue Mosque Apart",
                        "name:ar": "\u0628\u0644\u0648 \u0645\u0648\u0633\u0643 \u0623\u0628\u0627\u0631\u062a \u0645\u0648\u062a\u064a\u0644",
                        "tourism": "motel",
                        "addr:city": "Istanbul",
                        "addr:street": "Mustafa Pa\u015fa Sokak",
                        "addr:district": "Fatih",
                        "operator:type": "private"
                    },
                    "distance": 304.20177229,
                    "sims": 0.4943002623289454
                },
                {
                    "id": 5115935414,
                    "tags": {
                        "name": "\u015eeyh Seyyid Seyfullah Hz.",
                        "landuse": "cemetery",
                        "name:ar": "\u0642\u0628\u0631 \u0627\u0644\u0634\u064a\u062e \u0633\u064a\u062f \u0633\u064a\u0641 \u0627\u0644\u0644\u0647",
                        "cemetery": "grave",
                        "historic": "tomb",
                        "religion": "muslim",
                        "denomination": "sunni"
                    },
                    "distance": 4195.26064912,
                    "sims": 0.484633062889267
                },
                {
                    "id": 9718430937,
                    "tags": {
                        "name": "Mescit",
                        "amenity": "place_of_worship",
                        "religion": "muslim"
                    },
                    "distance": 13477.63785887,
                    "sims": 0.47986366274818604
                },
                {
                    "id": 4942262672,
                    "tags": {
                        "name": "S\u00fcmb\u00fcl Camii",
                        "amenity": "place_of_worship",
                        "denomination": "sunni"
                    },
                    "distance": 4179.62602877,
                    "sims": 0.47626508131084255
                },
                {
                    "id": 568011396,
                    "tags": {
                        "name": "Tuzbaba Camii",
                        "amenity": "place_of_worship",
                        "name:ar": "\u062c\u0627\u0645\u0639 \u062a\u0648\u0632 \u0628\u0627\u0628\u0627",
                        "religion": "muslim"
                    },
                    "distance": 5045.75603481,
                    "sims": 0.47190709998163194
                },
                {
                    "id": 7104327987,
                    "tags": {
                        "name": "Hz Ali Camii",
                        "amenity": "place_of_worship",
                        "religion": "muslim",
                        "addr:street": "23 Nisan Caddesi",
                        "denomination": "sunni"
                    },
                    "distance": 11853.80758554,
                    "sims": 0.470233507100713
                },
                {
                    "id": 7128180065,
                    "tags": {
                        "name": "Sultan Beyaz\u0131d\u0131 Veli",
                        "amenity": "place_of_worship"
                    },
                    "distance": 5246.61205327,
                    "sims": 0.4676413295910573
                }
            ]
        },
        "3": {
            "execution_time": 0.19738483428955078,
            "results": [
                {
                    "id": 5895099931,
                    "tags": {
                        "name": "K\u0131rm\u0131z\u0131 Kedi Book Store",
                        "shop": "books"
                    },
                    "distance": 2801.85430945,
                    "sims": 0.5877207096731877
                },
                {
                    "id": 10104720029,
                    "tags": {
                        "name": "Beyo\u011flu Simit\u00e7isi",
                        "shop": "bakery"
                    },
                    "distance": 7574.78750748,
                    "sims": 0.5863373454313682
                },
                {
                    "id": 4580146264,
                    "tags": {
                        "name": "beymen club",
                        "shop": "clothes"
                    },
                    "distance": 6164.14328873,
                    "sims": 0.5774636188861986
                },
                {
                    "id": 9481152783,
                    "tags": {
                        "name": "Beymen Club",
                        "shop": "clothes"
                    },
                    "distance": 10812.46310866,
                    "sims": 0.5774636188861986
                },
                {
                    "id": 9670693023,
                    "tags": {
                        "shop": "books"
                    },
                    "distance": 549.41698739,
                    "sims": 0.5714470914437503
                },
                {
                    "id": 11336676108,
                    "tags": {
                        "shop": "books"
                    },
                    "distance": 823.74594096,
                    "sims": 0.5714470914437503
                },
                {
                    "id": 8321874930,
                    "tags": {
                        "shop": "books"
                    },
                    "distance": 5878.07763238,
                    "sims": 0.5714470914437503
                },
                {
                    "id": 10185595117,
                    "tags": {
                        "shop": "books"
                    },
                    "distance": 6469.12864169,
                    "sims": 0.5714470914437503
                },
                {
                    "id": 4303169892,
                    "tags": {
                        "shop": "books"
                    },
                    "distance": 7648.44171809,
                    "sims": 0.5714470914437503
                },
                {
                    "id": 11553166236,
                    "tags": {
                        "shop": "books"
                    },
                    "distance": 10408.26201109,
                    "sims": 0.5714470914437503
                }
            ]
        },
        "4": {
            "execution_time": 0.19591832160949707,
            "results": [
                {
                    "id": 9911193863,
                    "tags": {
                        "shop": "electronics"
                    },
                    "distance": 829.13888742,
                    "sims": 0.7217841695144285
                },
                {
                    "id": 10183104122,
                    "tags": {
                        "shop": "electronics"
                    },
                    "distance": 4100.25788213,
                    "sims": 0.7217841695144285
                },
                {
                    "id": 5057774321,
                    "tags": {
                        "shop": "electronics"
                    },
                    "distance": 8812.70513484,
                    "sims": 0.7217841695144285
                },
                {
                    "id": 7153690184,
                    "tags": {
                        "shop": "electronics"
                    },
                    "distance": 8929.54419336,
                    "sims": 0.7217841695144285
                },
                {
                    "id": 6903752184,
                    "tags": {
                        "shop": "electronics"
                    },
                    "distance": 14246.89461268,
                    "sims": 0.7217841695144285
                },
                {
                    "id": 4318836589,
                    "tags": {
                        "shop": "electronics"
                    },
                    "distance": 14992.49909212,
                    "sims": 0.7217841695144285
                },
                {
                    "id": 9749385796,
                    "tags": {
                        "shop": "electrical"
                    },
                    "distance": 5948.37528665,
                    "sims": 0.568487184914267
                },
                {
                    "id": 12231795002,
                    "tags": {
                        "shop": "electrical"
                    },
                    "distance": 11982.89418255,
                    "sims": 0.568487184914267
                },
                {
                    "id": 12235743601,
                    "tags": {
                        "shop": "electrical"
                    },
                    "distance": 11986.37779744,
                    "sims": 0.568487184914267
                },
                {
                    "id": 12241626601,
                    "tags": {
                        "shop": "electrical"
                    },
                    "distance": 12072.15039464,
                    "sims": 0.568487184914267
                }
            ]
        },
        "5": {
            "execution_time": 0.19799423217773438,
            "results": [
                {
                    "id": 2481849097,
                    "tags": {
                        "name": "Karak\u00f6y",
                        "ferry": "yes",
                        "amenity": "ferry_terminal",
                        "public_transport": "station"
                    },
                    "distance": 895.3701639,
                    "sims": 0.47294316824668425
                },
                {
                    "id": 277447220,
                    "tags": {
                        "name": "Be\u015fikta\u015f",
                        "ferry": "yes",
                        "amenity": "ferry_terminal",
                        "name:ru": "\u0411\u0435\u0448\u0438\u043a\u0442\u0430\u0448",
                        "operator": "\u015eehir Hatlar\u0131",
                        "waterway:sign": "ferry",
                        "public_transport": "stop_position"
                    },
                    "distance": 2604.87260707,
                    "sims": 0.46412574189120537
                },
                {
                    "id": 12966301759,
                    "tags": {
                        "name": "Kabata\u015f",
                        "ferry": "yes",
                        "source": "PGS",
                        "amenity": "ferry_terminal",
                        "name:ru": "\u041a\u0430\u0431\u0430\u0442\u0430\u0448",
                        "name:tr": "Kabata\u015f",
                        "public_transport": "stop_position"
                    },
                    "distance": 1414.04305352,
                    "sims": 0.4635324077730779
                },
                {
                    "id": 2201648932,
                    "tags": {
                        "name": "Sar\u0131yer",
                        "ferry": "yes",
                        "source": "PGS",
                        "amenity": "ferry_terminal",
                        "operator": "\u015eehir Hatlar\u0131",
                        "public_transport": "station"
                    },
                    "distance": 16596.14471443,
                    "sims": 0.46083329762029823
                },
                {
                    "id": 4161740644,
                    "tags": {
                        "name": "\u00dcsk\u00fcdar",
                        "ferry": "yes",
                        "source": "GPS;PGS",
                        "amenity": "ferry_terminal",
                        "public_transport": "station"
                    },
                    "distance": 3092.1372521,
                    "sims": 0.4568104949901648
                },
                {
                    "id": 2478522785,
                    "tags": {
                        "name": "Karak\u00f6y",
                        "ferry": "yes",
                        "amenity": "ferry_terminal",
                        "public_transport": "stop_position"
                    },
                    "distance": 938.0670533,
                    "sims": 0.45575906428378654
                },
                {
                    "id": 12966301758,
                    "tags": {
                        "name": "Kabata\u015f",
                        "ferry": "yes",
                        "source": "PGS",
                        "amenity": "ferry_terminal",
                        "name:ru": "\u041a\u0430\u0431\u0430\u0442\u0430\u0448",
                        "name:tr": "Kabata\u015f",
                        "public_transport": "station"
                    },
                    "distance": 1396.86739165,
                    "sims": 0.45349518053454885
                },
                {
                    "id": 2473741074,
                    "tags": {
                        "name": "\u00dcsk\u00fcdar",
                        "ferry": "yes",
                        "source": "GPS",
                        "amenity": "ferry_terminal",
                        "public_transport": "station"
                    },
                    "distance": 3101.3253428,
                    "sims": 0.4519120145368778
                },
                {
                    "id": 3279313968,
                    "tags": {
                        "name": "Kad\u0131k\u00f6y",
                        "ferry": "yes",
                        "amenity": "ferry_terminal",
                        "public_transport": "station"
                    },
                    "distance": 5539.53254839,
                    "sims": 0.45107028585516384
                },
                {
                    "id": 4162041569,
                    "tags": {
                        "name": "Kabata\u015f",
                        "ferry": "yes",
                        "amenity": "ferry_terminal",
                        "name:ru": "\u041a\u0430\u0431\u0430\u0442\u0430\u0448",
                        "operator": "Dentur Avrasya",
                        "waterway:sign": "ferry",
                        "public_transport": "station"
                    },
                    "distance": 1517.84221528,
                    "sims": 0.4495662095231522
                }
            ]
        },
        "6": {
            "execution_time": 0.19652676582336426,
            "results": [
                {
                    "id": 6968692361,
                    "tags": {
                        "name": "Esmer Chef Fish House",
                        "amenity": "restaurant"
                    },
                    "distance": 4318.13866443,
                    "sims": 0.6164049089891438
                },
                {
                    "id": 12512834756,
                    "tags": {
                        "name": "Ocean Fish House",
                        "amenity": "restaurant",
                        "cuisine": "seafood",
                        "check_date": "2025-01-18"
                    },
                    "distance": 3539.93129673,
                    "sims": 0.6160414032763621
                },
                {
                    "id": 7896642785,
                    "tags": {
                        "name": "Saltanat fish & kebab house",
                        "amenity": "restaurant"
                    },
                    "distance": 4924.377015,
                    "sims": 0.6104489634280552
                },
                {
                    "id": 11950429282,
                    "tags": {
                        "amenity": "restaurant",
                        "cuisine": "seafood"
                    },
                    "distance": 13622.56514167,
                    "sims": 0.6099967744957512
                },
                {
                    "id": 3499273566,
                    "tags": {
                        "name": "Sultan Ahmet Fish House",
                        "amenity": "restaurant"
                    },
                    "distance": 4832.26411049,
                    "sims": 0.6084562929565402
                },
                {
                    "id": 5859877385,
                    "tags": {
                        "amenity": "restaurant",
                        "name:en": "Fish & meat house"
                    },
                    "distance": 2579.44364099,
                    "sims": 0.6054551765592527
                },
                {
                    "id": 6850778494,
                    "tags": {
                        "shop": "seafood"
                    },
                    "distance": 2036.89756067,
                    "sims": 0.5997992993119268
                },
                {
                    "id": 5881179786,
                    "tags": {
                        "shop": "seafood"
                    },
                    "distance": 4037.47074502,
                    "sims": 0.5997992993119268
                },
                {
                    "id": 10009210717,
                    "tags": {
                        "shop": "seafood"
                    },
                    "distance": 5720.98188472,
                    "sims": 0.5997992993119268
                },
                {
                    "id": 6925191878,
                    "tags": {
                        "shop": "seafood"
                    },
                    "distance": 12084.76521886,
                    "sims": 0.5997992993119268
                }
            ]
        },
        "7": {
            "execution_time": 0.19950246810913086,
            "results": [
                {
                    "id": 3279345565,
                    "tags": {
                        "name": "Hamal",
                        "historic": "memorial"
                    },
                    "distance": 1085.26325301,
                    "sims": 0.6412836076741851
                },
                {
                    "id": 2437773604,
                    "tags": {
                        "name": "S\u00fcreyya \u0130lmen Heykeli",
                        "historic": "memorial",
                        "memorial": "statue",
                        "subject:wikidata": "Q6037131",
                        "subject:wikipedia": "tr:S\u00fcreyya \u0130lmen",
                        "wikimedia_commons": "File:2021 09 20 Yogurtcu Parki Sureyya Ilmen.jpg"
                    },
                    "distance": 5255.47566349,
                    "sims": 0.4438233606604799
                },
                {
                    "id": 8520254824,
                    "tags": {
                        "name": "Hamm",
                        "shop": "furniture"
                    },
                    "distance": 8255.59027154,
                    "sims": 0.42872100218785136
                },
                {
                    "id": 1900616737,
                    "tags": {
                        "name": "ancient Substructures Hippodrom",
                        "source": "survey",
                        "name:ar": "\u062a\u0646\u0642\u064a\u0628\u0627\u062a \u0647\u064a\u0628\u064a\u062f\u0631\u0648\u0645 \u0627\u0644\u0642\u062f\u064a\u0645\u0629",
                        "name:zh": "1-11\u8dd1\u9a6c\u573a",
                        "historic": "archaeological_site"
                    },
                    "distance": 245.29260001,
                    "sims": 0.39833934277403593
                },
                {
                    "id": 6655918655,
                    "tags": {
                        "building": "yes",
                        "historic": "building"
                    },
                    "distance": 2258.54612538,
                    "sims": 0.38853974137420866
                },
                {
                    "id": 9964513645,
                    "tags": {
                        "name": "Yo\u011furt\u00e7u \u00c7e\u015fmesi",
                        "historic": "yes",
                        "wikidata": "Q105982169",
                        "wikipedia": "tr:Yo\u011furt\u00e7u \u00c7e\u015fmesi",
                        "wikimedia_commons": "File:Yo\u011furt\u00e7u Park\u0131 \u00c7e\u015fmesi.jpg"
                    },
                    "distance": 5369.45959648,
                    "sims": 0.38668064912327194
                },
                {
                    "id": 4977947521,
                    "tags": {
                        "name": "Ayios Polieuktos Kilisesi",
                        "name:en": "Church of St. Polyeuktos",
                        "name:tr": "Ayios Polieuktos Kilisesi",
                        "historic": "ruins",
                        "wikidata": "Q1578614",
                        "wikipedia": "en:Church of St. Polyeuctus",
                        "wikimedia_commons": "Category:St Polyeuktos church (Constantinople)"
                    },
                    "distance": 2192.71586103,
                    "sims": 0.38113366140528726
                },
                {
                    "id": 10300444773,
                    "tags": {
                        "name": "Prof. Dr. Kriton Curi heykeli",
                        "historic": "memorial",
                        "wikimedia_commons": "File:KritonCuriStatue 20230102.jpg"
                    },
                    "distance": 10407.78724086,
                    "sims": 0.37065846395345936
                },
                {
                    "id": 11212953038,
                    "tags": {
                        "name": "Catma Mescit Istanbul Hamam",
                        "leisure": "sauna"
                    },
                    "distance": 2969.28567904,
                    "sims": 0.37035491620822647
                },
                {
                    "id": 9833781318,
                    "tags": {
                        "name": "\u00c7\u00f6z\u00fcm Noktasi",
                        "historic": "monument"
                    },
                    "distance": 3555.70863646,
                    "sims": 0.37024812343694513
                }
            ]
        },
        "8": {
            "execution_time": 0.20353388786315918,
            "results": [
                {
                    "id": 8178363517,
                    "tags": {
                        "name": "Baklava",
                        "shop": "confectionery"
                    },
                    "distance": 3073.40125065,
                    "sims": 0.5728884593910907
                },
                {
                    "id": 10029201911,
                    "tags": {
                        "name": "Maden Baklava",
                        "shop": "confectionery"
                    },
                    "distance": 11830.9087911,
                    "sims": 0.5494642853736877
                },
                {
                    "id": 8809423846,
                    "tags": {
                        "name": "Hilalo\u011flu Baklava & Pasta Cafe",
                        "amenity": "cafe"
                    },
                    "distance": 6903.46655044,
                    "sims": 0.5332844734148232
                },
                {
                    "id": 6166298573,
                    "tags": {
                        "name": "anteplio\u011flu",
                        "amenity": "cafe",
                        "cuisine": "baklava"
                    },
                    "distance": 8663.52072047,
                    "sims": 0.5211894512176514
                },
                {
                    "id": 11212837239,
                    "tags": {
                        "name": "\u015eayan Baklava Ayasofya",
                        "shop": "confectionery"
                    },
                    "distance": 3109.28694894,
                    "sims": 0.5197986960411072
                },
                {
                    "id": 7740533127,
                    "tags": {
                        "name": "Emiro\u011flu Baklava",
                        "shop": "pastry"
                    },
                    "distance": 11315.91036616,
                    "sims": 0.5045123991660843
                },
                {
                    "id": 4576270835,
                    "tags": {
                        "name": "Tat B\u00f6rek Baklava",
                        "shop": "bakery"
                    },
                    "distance": 17101.75280446,
                    "sims": 0.5011397302830067
                },
                {
                    "id": 8742556060,
                    "tags": {
                        "name": "K\u00f6y\u00fcm B\u00f6rek Baklava & Cafe",
                        "amenity": "cafe"
                    },
                    "distance": 14206.37860003,
                    "sims": 0.501105785369873
                },
                {
                    "id": 11212837238,
                    "tags": {
                        "name": "Cennet Baklava-Turkish Delight-Spice-Tea",
                        "shop": "confectionery"
                    },
                    "distance": 3520.74530562,
                    "sims": 0.4997038245201111
                },
                {
                    "id": 12442309701,
                    "tags": {
                        "name": "Sani Usta B\u00f6rek Baklava",
                        "amenity": "cafe"
                    },
                    "distance": 7822.63818278,
                    "sims": 0.49228808283805847
                }
            ]
        },
        "9": {
            "execution_time": 0.1987929344177246,
            "results": [
                {
                    "id": 6531825660,
                    "tags": {
                        "name": "\u0130stanbul \u00dcniversitesi Devlet Konservatuvar\u0131",
                        "amenity": "music_school"
                    },
                    "distance": 5576.8710684,
                    "sims": 0.6463767711667141
                },
                {
                    "id": 10085677737,
                    "tags": {
                        "amenity": "bar",
                        "name:en": "Art Istanbul"
                    },
                    "distance": 378.85511298,
                    "sims": 0.6415197849273682
                },
                {
                    "id": 8367081722,
                    "tags": {
                        "name": "\u0130stanbul Halk Tiyatrosu",
                        "amenity": "theatre"
                    },
                    "distance": 10650.59073261,
                    "sims": 0.6018526195375561
                },
                {
                    "id": 10231979125,
                    "tags": {
                        "name": "Info Music Shop",
                        "shop": "musical_instrument",
                        "email": "info@infomusicshop.com",
                        "phone": "+90 850 888 2288",
                        "website": "https://www.infomusicshop.com/",
                        "addr:city": "\u0130stanbul",
                        "ref:vatin": "892 063 5800",
                        "addr:street": "Ak\u0131nc\u0131 Bay\u0131r\u0131 Soka\u011f\u0131",
                        "addr:district": "\u015ei\u015fli",
                        "addr:postcode": "34394",
                        "addr:housenumber": "4/A",
                        "addr:neighbourhood": "Fulya"
                    },
                    "distance": 4127.39620791,
                    "sims": 0.5775665892620938
                },
                {
                    "id": 5295467544,
                    "tags": {
                        "name": "Bamteli T\u00fcrk\u00fc Evi",
                        "shop": "music"
                    },
                    "distance": 16165.56086346,
                    "sims": 0.5774517231420199
                },
                {
                    "id": 11391398025,
                    "tags": {
                        "name": "\u0130stanbul Cafe",
                        "amenity": "cafe"
                    },
                    "distance": 12778.92843961,
                    "sims": 0.5603193306732587
                },
                {
                    "id": 6827236787,
                    "tags": {
                        "name": "Lokumla Istanbul",
                        "amenity": "cafe"
                    },
                    "distance": 12768.63792564,
                    "sims": 0.5579777359962463
                },
                {
                    "id": 4786905538,
                    "tags": {
                        "spa": "yes",
                        "name": "Arts Hotel",
                        "email": "info@artshotelistanbul.com",
                        "phone": "+90 (212) 225 91 00",
                        "comment": "handy mobile phone free of charge for guests",
                        "smoking": "outside",
                        "tourism": "hotel",
                        "website": "http://www.artshotelistanbul.com/",
                        "addr:city": "\u0130stanbul",
                        "addr:street": "Halaskargazi Caddesi",
                        "addr:district": "\u015ei\u015fli",
                        "addr:postcode": "34367",
                        "fitness_centre": "yes",
                        "internet_access": "wlan",
                        "addr:housenumber": "1",
                        "internet_access:fee": "no",
                        "internet_access:ssid": "ARTS HOTEL ISTANBUL"
                    },
                    "distance": 1992.00891439,
                    "sims": 0.5571599006652832
                },
                {
                    "id": 654189927,
                    "tags": {
                        "url": "http://www.garajistanbul.org",
                        "name": "Garaj Istanbul",
                        "phone": "+90 (0) 212 244 44 99",
                        "amenity": "theatre",
                        "name:ar": "\u0643\u0631\u0627\u062c \u0627\u0633\u0637\u0646\u0628\u0648\u0644",
                        "addr:full": "Tomtom Mah. Yeni \u00c7ar\u015f\u0131 Cad. Kaymakam Re\u015fat Bey Sk. No:11a 34433 Galatasaray-Beyo\u011flu / \u0130stanbul"
                    },
                    "distance": 411.77734893,
                    "sims": 0.5569966699483005
                },
                {
                    "id": 5113500229,
                    "tags": {
                        "name": "Recital Hotel",
                        "tourism": "hotel",
                        "wikidata": "Q111400339",
                        "addr:city": "Istanbul",
                        "check_date": "2022-11-12",
                        "addr:street": "Dizdariye medresesi sokak",
                        "addr:district": "Fatih"
                    },
                    "distance": 2826.52360186,
                    "sims": 0.5484448017543829
                }
            ]
        },
        "10": {
            "execution_time": 0.1998605728149414,
            "results": [
                {
                    "id": 8225587100,
                    "tags": {
                        "name": "Alibeyk\u00f6y Metro",
                        "tram": "yes",
                        "railway": "tram_stop",
                        "public_transport": "stop_position"
                    },
                    "distance": 8003.58800187,
                    "sims": 0.5022786412058416
                },
                {
                    "id": 8225587098,
                    "tags": {
                        "name": "Alibeyk\u00f6y Metro",
                        "tram": "yes",
                        "railway": "tram_stop",
                        "public_transport": "stop_position"
                    },
                    "distance": 8004.26764625,
                    "sims": 0.5022786412058416
                },
                {
                    "id": 8225587075,
                    "tags": {
                        "name": "Balat",
                        "tram": "yes",
                        "railway": "tram_stop",
                        "public_transport": "stop_position"
                    },
                    "distance": 3586.50897704,
                    "sims": 0.49580351920798416
                },
                {
                    "id": 8225587074,
                    "tags": {
                        "name": "Balat",
                        "tram": "yes",
                        "railway": "tram_stop",
                        "public_transport": "stop_position"
                    },
                    "distance": 3586.60994952,
                    "sims": 0.49580351920798416
                },
                {
                    "id": 3282357344,
                    "tags": {
                        "name": "\u00c7apa - \u015eehremini",
                        "tram": "yes",
                        "source": "local_knowledge",
                        "railway": "tram_stop",
                        "wheelchair": "yes",
                        "public_transport": "stop_position"
                    },
                    "distance": 3574.7807603,
                    "sims": 0.4952031510123176
                },
                {
                    "id": 1026207510,
                    "tags": {
                        "name": "Vatan",
                        "tram": "yes",
                        "railway": "stop",
                        "public_transport": "stop_position"
                    },
                    "distance": 4262.31769837,
                    "sims": 0.493444844103599
                },
                {
                    "id": 6801712679,
                    "tags": {
                        "name": "Fener",
                        "tram": "yes",
                        "railway": "tram_stop",
                        "public_transport": "stop_position"
                    },
                    "distance": 2780.76205777,
                    "sims": 0.4873629342560548
                },
                {
                    "id": 2379809606,
                    "tags": {
                        "name": "Fener",
                        "tram": "yes",
                        "railway": "tram_stop",
                        "public_transport": "stop_position"
                    },
                    "distance": 2782.10561486,
                    "sims": 0.4873629342560548
                },
                {
                    "id": 4958658863,
                    "tags": {
                        "name": "Rami",
                        "tram": "yes",
                        "railway": "tram_stop",
                        "public_transport": "stop_position"
                    },
                    "distance": 6508.43061726,
                    "sims": 0.47708596084292965
                },
                {
                    "id": 4958658835,
                    "tags": {
                        "name": "Rami",
                        "tram": "yes",
                        "railway": "tram_stop",
                        "public_transport": "stop_position"
                    },
                    "distance": 6513.99567273,
                    "sims": 0.47708596084292965
                }
            ]
        },
        "11": {
            "execution_time": 0.18735671043395996,
            "results": [
                {
                    "id": 9585845891,
                    "tags": {
                        "name": "K\u0131l\u0131\u00e7lar Market",
                        "shop": "convenience"
                    },
                    "distance": 13731.66818602,
                    "sims": 0.7031185482619032
                },
                {
                    "id": 7483256075,
                    "tags": {
                        "name": "Y\u0131ld\u0131z Market",
                        "shop": "convenience"
                    },
                    "distance": 8834.40507186,
                    "sims": 0.6723222737600479
                },
                {
                    "id": 5303061831,
                    "tags": {
                        "name": "K\u0131l\u0131\u00e7 Market",
                        "shop": "supermarket"
                    },
                    "distance": 8239.75237608,
                    "sims": 0.66671552261736
                },
                {
                    "id": 3127677374,
                    "tags": {
                        "name": "K\u0131l\u0131\u00e7 Market",
                        "shop": "supermarket"
                    },
                    "distance": 13197.50217955,
                    "sims": 0.66671552261736
                },
                {
                    "id": 5834063885,
                    "tags": {
                        "name": "Ar\u0131 Market",
                        "shop": "convenience"
                    },
                    "distance": 12948.74663182,
                    "sims": 0.6653468011629728
                },
                {
                    "id": 10159076238,
                    "tags": {
                        "name": "Y\u0131l\u0131d\u0131r\u0131m Market",
                        "shop": "convenience"
                    },
                    "distance": 12504.52376556,
                    "sims": 0.6623212691236704
                },
                {
                    "id": 6535457086,
                    "tags": {
                        "name": "Yal\u0131\u00e7 Market",
                        "shop": "convenience"
                    },
                    "distance": 13052.63733013,
                    "sims": 0.6614449019531844
                },
                {
                    "id": 9768173039,
                    "tags": {
                        "name": "Ayd\u0131n Market",
                        "shop": "convenience"
                    },
                    "distance": 12707.97251994,
                    "sims": 0.6587105182871997
                },
                {
                    "id": 2828789459,
                    "tags": {
                        "name": "\u00c7orlu Yap\u0131 Market",
                        "shop": "doityourself"
                    },
                    "distance": 9773.14764931,
                    "sims": 0.6581390100162999
                },
                {
                    "id": 11113914821,
                    "tags": {
                        "name": "Yerf\u0131st\u0131\u011f\u0131 Market",
                        "shop": "convenience"
                    },
                    "distance": 4630.4397227,
                    "sims": 0.6572138658655192
                }
            ]
        },
        "12": {
            "execution_time": 0.1918165683746338,
            "results": [
                {
                    "id": 6924994019,
                    "tags": {
                        "shop": "vacant",
                        "cuisine": "kebab"
                    },
                    "distance": 15985.90606607,
                    "sims": 0.7221442361812285
                },
                {
                    "id": 4986239145,
                    "tags": {
                        "name": "Palet Kebap",
                        "amenity": "restaurant",
                        "cuisine": "kebab"
                    },
                    "distance": 14880.59916695,
                    "sims": 0.6190690071778123
                },
                {
                    "id": 4582025352,
                    "tags": {
                        "name": "k\u00f6zde kebap",
                        "amenity": "restaurant",
                        "cuisine": "kebab"
                    },
                    "distance": 12609.76476901,
                    "sims": 0.5838813681744064
                },
                {
                    "id": 9948196917,
                    "tags": {
                        "amenity": "fast_food",
                        "cuisine": "kebab"
                    },
                    "distance": 1215.73025199,
                    "sims": 0.5794788080920062
                },
                {
                    "id": 10583748105,
                    "tags": {
                        "amenity": "restaurant",
                        "name:en": "Akbiyik Kebab House"
                    },
                    "distance": 1850.2810394,
                    "sims": 0.574679867980513
                },
                {
                    "id": 4044310884,
                    "tags": {
                        "name": "Maydanoz Kebap",
                        "amenity": "restaurant"
                    },
                    "distance": 7500.66402484,
                    "sims": 0.5659289877499517
                },
                {
                    "id": 4943336510,
                    "tags": {
                        "name": "\u00c7orba kebap",
                        "amenity": "restaurant",
                        "cuisine": "regional"
                    },
                    "distance": 14837.9062279,
                    "sims": 0.5651663982471511
                },
                {
                    "id": 10029201877,
                    "tags": {
                        "name": "\u015e\u00fckr\u00fcbey Kebap & Lahmacun",
                        "amenity": "restaurant"
                    },
                    "distance": 10160.75935395,
                    "sims": 0.5629083439221132
                },
                {
                    "id": 10029201872,
                    "tags": {
                        "name": "Bah\u00e7eli Kebap",
                        "amenity": "restaurant"
                    },
                    "distance": 10133.0116916,
                    "sims": 0.5474550071412472
                },
                {
                    "id": 3190096461,
                    "tags": {
                        "name": "K\u00f6\u015feba\u015f\u0131",
                        "amenity": "restaurant",
                        "cuisine": "kebab"
                    },
                    "distance": 7882.49840024,
                    "sims": 0.5441934089314889
                }
            ]
        },
        "13": {
            "execution_time": 0.1996471881866455,
            "results": [
                {
                    "id": 5450459392,
                    "tags": {
                        "name": "Bayan Yan\u0131 Art Project",
                        "amenity": "cafe"
                    },
                    "distance": 5519.8327193,
                    "sims": 0.6341248750686646
                },
                {
                    "id": 8992472068,
                    "tags": {
                        "name": "Adaletin K\u00f6rl\u00fc\u011f\u00fc",
                        "tourism": "artwork",
                        "artwork_type": "sculpture"
                    },
                    "distance": 17578.85405916,
                    "sims": 0.6197075843811035
                },
                {
                    "id": 9217240859,
                    "tags": {
                        "name": "Urgana Yenik D\u00fc\u015fmek",
                        "tourism": "artwork",
                        "artwork_type": "sculpture"
                    },
                    "distance": 17628.22179793,
                    "sims": 0.6178348660469055
                },
                {
                    "id": 9054452637,
                    "tags": {
                        "name": "Sultangazi Belediyesi Heykeli",
                        "tourism": "artwork",
                        "artwork_type": "sculpture"
                    },
                    "distance": 11778.38315206,
                    "sims": 0.5824143788320608
                },
                {
                    "id": 4950828322,
                    "tags": {
                        "name:en": "Ottomania Oriental Rugs Gallery",
                        "tourism": "artwork"
                    },
                    "distance": 1986.76010374,
                    "sims": 0.5811582457328899
                },
                {
                    "id": 10080122064,
                    "tags": {
                        "shop": "art"
                    },
                    "distance": 5802.3864543,
                    "sims": 0.574570025529265
                },
                {
                    "id": 9392342518,
                    "tags": {
                        "name:ru": "\u0433\u0440\u0430\u0444\u0444\u0438\u0442\u0438 \u0427\u0430\u043f\u043b\u0438\u043d",
                        "tourism": "artwork",
                        "artwork_type": "graffiti"
                    },
                    "distance": 621.66408401,
                    "sims": 0.5743884697921007
                },
                {
                    "id": 6531889028,
                    "tags": {
                        "name": "Bahariye Sanat",
                        "tourism": "gallery"
                    },
                    "distance": 5970.33165813,
                    "sims": 0.5730459690093994
                },
                {
                    "id": 6037752085,
                    "tags": {
                        "tourism": "artwork"
                    },
                    "distance": 1230.39466826,
                    "sims": 0.5708589553833008
                },
                {
                    "id": 6609340785,
                    "tags": {
                        "tourism": "artwork"
                    },
                    "distance": 2714.60070422,
                    "sims": 0.5708589553833008
                }
            ]
        },
        "14": {
            "execution_time": 0.19700193405151367,
            "results": [
                {
                    "id": 6850778494,
                    "tags": {
                        "shop": "seafood"
                    },
                    "distance": 2033.96927756,
                    "sims": 0.6119677727050442
                },
                {
                    "id": 5881179786,
                    "tags": {
                        "shop": "seafood"
                    },
                    "distance": 3700.94985583,
                    "sims": 0.6119677727050442
                },
                {
                    "id": 10009210717,
                    "tags": {
                        "shop": "seafood"
                    },
                    "distance": 5349.11634024,
                    "sims": 0.6119677727050442
                },
                {
                    "id": 6925191878,
                    "tags": {
                        "shop": "seafood"
                    },
                    "distance": 12454.27642474,
                    "sims": 0.6119677727050442
                },
                {
                    "id": 11950429282,
                    "tags": {
                        "amenity": "restaurant",
                        "cuisine": "seafood"
                    },
                    "distance": 13291.04740681,
                    "sims": 0.5707789911271122
                },
                {
                    "id": 8041704388,
                    "tags": {
                        "shop": "seafood",
                        "name:en": "Tunc Balik"
                    },
                    "distance": 2722.41951383,
                    "sims": 0.5510203814020611
                },
                {
                    "id": 2773225859,
                    "tags": {
                        "name": "Iskele",
                        "amenity": "restaurant",
                        "cuisine": "seafood"
                    },
                    "distance": 6574.66968643,
                    "sims": 0.5487818085573675
                },
                {
                    "id": 7149543901,
                    "tags": {
                        "name": "Pangalt\u0131 Bal\u0131k",
                        "shop": "seafood"
                    },
                    "distance": 2242.17496466,
                    "sims": 0.5003609659009706
                },
                {
                    "id": 8041831886,
                    "tags": {
                        "amenity": "restaurant",
                        "cuisine": "seafood",
                        "name:en": "Mercan Cocorec"
                    },
                    "distance": 2700.01121458,
                    "sims": 0.49258410488617344
                },
                {
                    "id": 6889258585,
                    "tags": {
                        "amenity": "fast_food",
                        "cuisine": "seafood",
                        "name:en": "Mario The Fishermen",
                        "name:tr": "Balik Durum Murat Usta",
                        "check_date": "2025-01-18"
                    },
                    "distance": 3637.66230624,
                    "sims": 0.480606217709608
                }
            ]
        },
        "15": {
            "execution_time": 0.20094823837280273,
            "results": [
                {
                    "id": 4889959425,
                    "tags": {
                        "shop": "bakery"
                    },
                    "distance": 793.63816977,
                    "sims": 0.6582922513164412
                },
                {
                    "id": 10183104123,
                    "tags": {
                        "shop": "bakery"
                    },
                    "distance": 1322.5555485,
                    "sims": 0.6582922513164412
                },
                {
                    "id": 9542787717,
                    "tags": {
                        "shop": "bakery"
                    },
                    "distance": 2017.49536626,
                    "sims": 0.6582922513164412
                },
                {
                    "id": 12921698128,
                    "tags": {
                        "shop": "bakery"
                    },
                    "distance": 2147.29983608,
                    "sims": 0.6582922513164412
                },
                {
                    "id": 656087306,
                    "tags": {
                        "shop": "bakery"
                    },
                    "distance": 2223.95162961,
                    "sims": 0.6582922513164412
                },
                {
                    "id": 11365955630,
                    "tags": {
                        "shop": "bakery"
                    },
                    "distance": 2797.10959701,
                    "sims": 0.6582922513164412
                },
                {
                    "id": 12230059201,
                    "tags": {
                        "shop": "bakery"
                    },
                    "distance": 2960.00405951,
                    "sims": 0.6582922513164412
                },
                {
                    "id": 4867092167,
                    "tags": {
                        "shop": "bakery"
                    },
                    "distance": 3865.03667078,
                    "sims": 0.6582922513164412
                },
                {
                    "id": 12289826202,
                    "tags": {
                        "shop": "bakery"
                    },
                    "distance": 3877.76070603,
                    "sims": 0.6582922513164412
                },
                {
                    "id": 4867092166,
                    "tags": {
                        "shop": "bakery"
                    },
                    "distance": 3970.42567629,
                    "sims": 0.6582922513164412
                }
            ]
        },
        "16": {
            "execution_time": 0.19821810722351074,
            "results": [
                {
                    "id": 3749623162,
                    "tags": {
                        "ferry": "yes",
                        "amenity": "ferry_terminal",
                        "public_transport": "station"
                    },
                    "distance": 1749.58923091,
                    "sims": 0.5274474214684497
                },
                {
                    "id": 5672633532,
                    "tags": {
                        "ferry": "yes",
                        "amenity": "ferry_terminal",
                        "public_transport": "station"
                    },
                    "distance": 2665.05407547,
                    "sims": 0.5274474214684497
                },
                {
                    "id": 3279318783,
                    "tags": {
                        "ferry": "yes",
                        "amenity": "ferry_terminal",
                        "public_transport": "station"
                    },
                    "distance": 3908.52902698,
                    "sims": 0.5274474214684497
                },
                {
                    "id": 10289640443,
                    "tags": {
                        "ferry": "yes",
                        "amenity": "ferry_terminal",
                        "public_transport": "station"
                    },
                    "distance": 12950.35926847,
                    "sims": 0.5274474214684497
                },
                {
                    "id": 5672864363,
                    "tags": {
                        "ferry": "yes",
                        "amenity": "ferry_terminal",
                        "public_transport": "station"
                    },
                    "distance": 13502.37248802,
                    "sims": 0.5274474214684497
                },
                {
                    "id": 11914938300,
                    "tags": {
                        "ref": "1",
                        "ferry": "yes",
                        "amenity": "ferry_terminal",
                        "public_transport": "station"
                    },
                    "distance": 2260.2404714,
                    "sims": 0.5210043993306226
                },
                {
                    "id": 513655728,
                    "tags": {
                        "name": "Arnavutk\u00f6y",
                        "ferry": "yes",
                        "amenity": "ferry_terminal",
                        "wheelchair": "yes",
                        "public_transport": "station"
                    },
                    "distance": 5989.38077476,
                    "sims": 0.5171406464060081
                },
                {
                    "id": 6920331645,
                    "tags": {
                        "ferry": "yes",
                        "amenity": "ferry_terminal",
                        "operator": "Beyden Deniz Ula\u015f\u0131m Hizmetleri Turizm ve Ticaret Ltd. \u015eti.",
                        "public_transport": "station"
                    },
                    "distance": 14470.72754695,
                    "sims": 0.5159779978931727
                },
                {
                    "id": 11914911841,
                    "tags": {
                        "ref": "3",
                        "ferry": "yes",
                        "amenity": "ferry_terminal",
                        "public_transport": "station"
                    },
                    "distance": 2267.99789453,
                    "sims": 0.5130791863807921
                },
                {
                    "id": 11914932648,
                    "tags": {
                        "ref": "2",
                        "ferry": "yes",
                        "amenity": "ferry_terminal",
                        "public_transport": "station"
                    },
                    "distance": 2263.92044898,
                    "sims": 0.5120597953921405
                }
            ]
        },
        "17": {
            "execution_time": 0.20154428482055664,
            "results": [
                {
                    "id": 11296163215,
                    "tags": {
                        "name": "Antique 50",
                        "shop": "antiques"
                    },
                    "distance": 6257.98220914,
                    "sims": 0.7308731067299148
                },
                {
                    "id": 12323863897,
                    "tags": {
                        "shop": "antiques",
                        "level": "0",
                        "check_date": "2024-11-08"
                    },
                    "distance": 9535.88197098,
                    "sims": 0.6704758392063191
                },
                {
                    "id": 11296176170,
                    "tags": {
                        "name": "Tellalzade Antiques",
                        "shop": "antiques"
                    },
                    "distance": 6241.94232703,
                    "sims": 0.6486256187109342
                },
                {
                    "id": 10556465309,
                    "tags": {
                        "name": "\u00dcst\u00fcn Antik",
                        "shop": "antiques"
                    },
                    "distance": 6260.7994977,
                    "sims": 0.6162689692092803
                },
                {
                    "id": 3194949818,
                    "tags": {
                        "shop": "antiques",
                        "addr:housenumber": "51"
                    },
                    "distance": 937.78755692,
                    "sims": 0.6114912826450444
                },
                {
                    "id": 12841018456,
                    "tags": {
                        "name": "Dilas Antique & Art",
                        "shop": "antiques"
                    },
                    "distance": 843.38209388,
                    "sims": 0.6015639717220612
                },
                {
                    "id": 3194950863,
                    "tags": {
                        "name": "Can Antika",
                        "shop": "antiques"
                    },
                    "distance": 930.13277598,
                    "sims": 0.5854305319438837
                },
                {
                    "id": 4561215239,
                    "tags": {
                        "name": "Danier Antika",
                        "shop": "antiques"
                    },
                    "distance": 12559.524847,
                    "sims": 0.578500838815903
                },
                {
                    "id": 11296171247,
                    "tags": {
                        "name": "\u00d6zen Antik",
                        "shop": "antiques"
                    },
                    "distance": 6250.43617225,
                    "sims": 0.5686633341324691
                },
                {
                    "id": 9685654631,
                    "tags": {
                        "name": "Ata\u015fehir Antika",
                        "shop": "antiques"
                    },
                    "distance": 12788.74820314,
                    "sims": 0.5476994613471138
                }
            ]
        },
        "18": {
            "execution_time": 0.19585967063903809,
            "results": [
                {
                    "id": 7047093864,
                    "tags": {
                        "name": "Barasti Cafe & Restaurant",
                        "amenity": "cafe"
                    },
                    "distance": 11722.61062285,
                    "sims": 0.5382786117958205
                },
                {
                    "id": 12510989072,
                    "tags": {
                        "name": "G\u00f6nen Rooftop Restaurant",
                        "amenity": "restaurant",
                        "check_date": "2025-01-17"
                    },
                    "distance": 611.85606591,
                    "sims": 0.5364768068932537
                },
                {
                    "id": 7041912486,
                    "tags": {
                        "amenity": "cafe",
                        "name:en": "Street with Cafes"
                    },
                    "distance": 839.98444678,
                    "sims": 0.5356831231306132
                },
                {
                    "id": 10556387340,
                    "tags": {
                        "name": "Publique Roof",
                        "amenity": "bar"
                    },
                    "distance": 5998.15628772,
                    "sims": 0.5335738062858582
                },
                {
                    "id": 11822483370,
                    "tags": {
                        "amenity": "cafe",
                        "name:en": "Beyo\u011flu cafe"
                    },
                    "distance": 371.97376347,
                    "sims": 0.5318987965583801
                },
                {
                    "id": 9710120731,
                    "tags": {
                        "amenity": "cafe"
                    },
                    "distance": 130.292965,
                    "sims": 0.5292864757350976
                },
                {
                    "id": 10918438008,
                    "tags": {
                        "amenity": "cafe"
                    },
                    "distance": 219.52529728,
                    "sims": 0.5292864757350976
                },
                {
                    "id": 9911204790,
                    "tags": {
                        "amenity": "cafe"
                    },
                    "distance": 267.78435342,
                    "sims": 0.5292864757350976
                },
                {
                    "id": 9023080977,
                    "tags": {
                        "amenity": "cafe"
                    },
                    "distance": 277.82260179,
                    "sims": 0.5292864757350976
                },
                {
                    "id": 4100140293,
                    "tags": {
                        "amenity": "cafe"
                    },
                    "distance": 312.90361174,
                    "sims": 0.5292864757350976
                }
            ]
        },
        "19": {
            "execution_time": 0.20052480697631836,
            "results": [
                {
                    "id": 4459098190,
                    "tags": {
                        "name": "Ko\u00e7 \u00dcniversitesi Hastanesi",
                        "image": "https://kuhcdn.azureedge.net/getmedia/88ab84d2-3604-4c13-82f9-ff8db4acdeee/kurumsal-slider-kuh.jpg.aspx?width=1920&height=1080&ext=.jpg",
                        "amenity": "hospital",
                        "name:en": "Koc University Hospital",
                        "website": "https://www.kuh.ku.edu.tr/",
                        "emergency": "yes",
                        "wikipedia": "tr:Ko\u00e7 \u00dcniversitesi Hastanesi",
                        "healthcare": "hospital",
                        "wikimedia_commons": "File:Koc University Hospital.jpg"
                    },
                    "distance": 4538.68555571,
                    "sims": 0.5404824340631038
                },
                {
                    "id": 1226555941,
                    "tags": {
                        "amenity": "hospital",
                        "healthcare": "hospital"
                    },
                    "distance": 1806.36049123,
                    "sims": 0.4878110580331727
                },
                {
                    "id": 4403228889,
                    "tags": {
                        "amenity": "doctors",
                        "name:en": "Midical park hospital",
                        "healthcare": "doctor"
                    },
                    "distance": 9315.45910837,
                    "sims": 0.48076978211222865
                },
                {
                    "id": 6276135986,
                    "tags": {
                        "amenity": "hospital",
                        "name:en": "Kolan International Hospital",
                        "healthcare": "hospital"
                    },
                    "distance": 5271.81418221,
                    "sims": 0.46915712768776063
                },
                {
                    "id": 2311684920,
                    "tags": {
                        "name": "Amerikan Hastanesi",
                        "amenity": "hospital",
                        "wikidata": "Q20476459",
                        "emergency": "yes",
                        "wikipedia": "en:American Hospital (Istanbul)",
                        "healthcare": "hospital"
                    },
                    "distance": 4467.96558574,
                    "sims": 0.4602382457398331
                },
                {
                    "id": 5087418123,
                    "tags": {
                        "name": "\u0130stanbul Cerrahi Hastanesi",
                        "amenity": "hospital",
                        "name:de": "Cerrahi-Krankenhaus Istanbul",
                        "name:en": "Istanbul Cerrahi Hospital",
                        "emergency": "yes",
                        "healthcare": "hospital"
                    },
                    "distance": 4791.12074104,
                    "sims": 0.45298346596857786
                },
                {
                    "id": 8116895417,
                    "tags": {
                        "name": "Bahceci",
                        "amenity": "hospital",
                        "healthcare": "hospital"
                    },
                    "distance": 6063.89559614,
                    "sims": 0.4511548654965858
                },
                {
                    "id": 7740545302,
                    "tags": {
                        "name": "Medient",
                        "amenity": "hospital",
                        "healthcare": "hospital"
                    },
                    "distance": 11051.58907261,
                    "sims": 0.4491071372692079
                },
                {
                    "id": 4926916937,
                    "tags": {
                        "name": "Beyoglu",
                        "amenity": "hospital",
                        "healthcare": "hospital"
                    },
                    "distance": 1550.26027771,
                    "sims": 0.44804517460273297
                },
                {
                    "id": 11897551847,
                    "tags": {
                        "name": "Aktif International Hospital",
                        "amenity": "hospital",
                        "healthcare": "hospital"
                    },
                    "distance": 4027.30523497,
                    "sims": 0.4478308629737593
                }
            ]
        },
        "20": {
            "execution_time": 0.19782042503356934,
            "results": [
                {
                    "id": 12510989011,
                    "tags": {
                        "name": "Taksim Park Club",
                        "amenity": "nightclub",
                        "check_date": "2025-01-17"
                    },
                    "distance": 624.9909826,
                    "sims": 0.692161949824766
                },
                {
                    "id": 2509874516,
                    "tags": {
                        "name": "Tektek\u00e7i",
                        "amenity": "nightclub"
                    },
                    "distance": 763.94686227,
                    "sims": 0.6556099888173275
                },
                {
                    "id": 9498225011,
                    "tags": {
                        "name": "Taksim & T\u00fcnel Cafe",
                        "amenity": "cafe"
                    },
                    "distance": 13670.55452723,
                    "sims": 0.6212472071135725
                },
                {
                    "id": 10086696650,
                    "tags": {
                        "name": "Taksim story residence",
                        "tourism": "hotel"
                    },
                    "distance": 502.28265497,
                    "sims": 0.6030293334618
                },
                {
                    "id": 6879165600,
                    "tags": {
                        "name": "Gece Nakka\u015ftepe",
                        "amenity": "nightclub"
                    },
                    "distance": 4615.64170794,
                    "sims": 0.5967003357290402
                },
                {
                    "id": 9550933528,
                    "tags": {
                        "name": "Dedikodu Club",
                        "amenity": "nightclub"
                    },
                    "distance": 12784.64190635,
                    "sims": 0.5801667534609531
                },
                {
                    "id": 5798516954,
                    "tags": {
                        "name:en": "Taksim Hostel",
                        "tourism": "hostel"
                    },
                    "distance": 512.79800423,
                    "sims": 0.5754221408049924
                },
                {
                    "id": 6935785932,
                    "tags": {
                        "club": "sport",
                        "name": "S\u00fcsl\u00fc Konak;Ata\u015fehir Tenis Spor Kul\u00fcb\u00fc",
                        "amenity": "nightclub"
                    },
                    "distance": 11626.67903755,
                    "sims": 0.5718013983483448
                },
                {
                    "id": 6116804087,
                    "tags": {
                        "amenity": "nightclub",
                        "name:en": "Minimuzikhol"
                    },
                    "distance": 294.34673378,
                    "sims": 0.5709764107550471
                },
                {
                    "id": 11947452269,
                    "tags": {
                        "name:en": "City Center Hotel Taksim",
                        "tourism": "hotel",
                        "wikidata": "Q111998518"
                    },
                    "distance": 140.17824357,
                    "sims": 0.5696331866126131
                }
            ]
        },
        "21": {
            "execution_time": 0.19958949089050293,
            "results": [
                {
                    "id": 8871767972,
                    "tags": {
                        "name": "Kay\u0131 Hal\u0131",
                        "shop": "carpet"
                    },
                    "distance": 12612.7120214,
                    "sims": 0.7133500959470868
                },
                {
                    "id": 8872594404,
                    "tags": {
                        "name": "\u015eale Hal\u0131",
                        "shop": "carpet"
                    },
                    "distance": 7889.94158482,
                    "sims": 0.7120008811949633
                },
                {
                    "id": 10104720006,
                    "tags": {
                        "name": "Sultan Hal\u0131",
                        "shop": "carpet"
                    },
                    "distance": 9280.68593392,
                    "sims": 0.7072763021423649
                },
                {
                    "id": 5244806806,
                    "tags": {
                        "name": "Vezirhan Carpet",
                        "shop": "carpet_store",
                        "name:ar": "\u0648\u0632\u064a\u0631\u0647\u0627\u0646 \u0643\u0627\u0631\u0628\u064a\u062a",
                        "addr:city": "Istanbul",
                        "addr:street": "Gazi Sinan Pa\u015fa Sokak",
                        "addr:district": "Fatih"
                    },
                    "distance": 122.92339298,
                    "sims": 0.7028782158232295
                },
                {
                    "id": 9421602061,
                    "tags": {
                        "name": "Sanat Hal\u0131",
                        "shop": "carpet"
                    },
                    "distance": 7670.95959609,
                    "sims": 0.7022251664265904
                },
                {
                    "id": 5113623082,
                    "tags": {
                        "name": "Green Rug Store",
                        "shop": "carpet",
                        "addr:city": "Istanbul",
                        "addr:street": "Tevkifhane sokak",
                        "addr:district": "Fatih"
                    },
                    "distance": 571.34286553,
                    "sims": 0.6982397616958773
                },
                {
                    "id": 5113620627,
                    "tags": {
                        "name": "Kirk\u0131t rugs",
                        "shop": "carpet",
                        "name:ar": "\u0643\u064a\u0631\u0643\u064a\u062a \u0633\u062c\u0627\u062f",
                        "addr:city": "Istanbul",
                        "addr:street": "Mimar mehmet a\u011fa Caddesi",
                        "addr:district": "Turkey"
                    },
                    "distance": 727.81017845,
                    "sims": 0.6975322961807301
                },
                {
                    "id": 12921399832,
                    "tags": {
                        "name": "Eray Hal\u0131",
                        "shop": "carpet"
                    },
                    "distance": 9038.44668455,
                    "sims": 0.6968019008636525
                },
                {
                    "id": 8956720766,
                    "tags": {
                        "name": "Ba\u011fdat Hal\u0131",
                        "shop": "carpet"
                    },
                    "distance": 9407.44998077,
                    "sims": 0.6947095187094979
                },
                {
                    "id": 8746225872,
                    "tags": {
                        "name": "Y\u0131lmaz Hal\u0131",
                        "shop": "carpet"
                    },
                    "distance": 12660.28091072,
                    "sims": 0.6943157497456235
                }
            ]
        },
        "22": {
            "execution_time": 0.20189332962036133,
            "results": [
                {
                    "id": 10086546422,
                    "tags": {
                        "name": "Payidar galata",
                        "amenity": "restaurant"
                    },
                    "distance": 182.59238774,
                    "sims": 0.49782046623719345
                },
                {
                    "id": 5114905728,
                    "tags": {
                        "name": "Imperial Galata",
                        "amenity": "restaurant"
                    },
                    "distance": 491.63730135,
                    "sims": 0.4841933357042185
                },
                {
                    "id": 3188738222,
                    "tags": {
                        "name": "Galata Kiva",
                        "amenity": "restaurant"
                    },
                    "distance": 64.26824449,
                    "sims": 0.476614351859296
                },
                {
                    "id": 5105397924,
                    "tags": {
                        "name": "Galata Olympus",
                        "amenity": "restaurant"
                    },
                    "distance": 468.8437242,
                    "sims": 0.47075771588272386
                },
                {
                    "id": 7889405785,
                    "tags": {
                        "name": "Galata Frida",
                        "amenity": "cafe"
                    },
                    "distance": 205.92241948,
                    "sims": 0.4575296837162348
                },
                {
                    "id": 5545370912,
                    "tags": {
                        "name": "Galata Kitchen",
                        "amenity": "cafe",
                        "cuisine": "turkish",
                        "name:en": "Galata Kitchen",
                        "diet:vegan": "yes",
                        "wheelchair": "no",
                        "opening_hours": "Mo-Sa 11:30-22:00",
                        "diet:vegetarian": "yes"
                    },
                    "distance": 118.14261146,
                    "sims": 0.45585839888058977
                },
                {
                    "id": 11212846837,
                    "tags": {
                        "name": "GALAKTION",
                        "amenity": "restaurant"
                    },
                    "distance": 479.91995606,
                    "sims": 0.4521314118143661
                },
                {
                    "id": 7652694336,
                    "tags": {
                        "name": "Gala Kokore\u00e7",
                        "amenity": "restaurant"
                    },
                    "distance": 6136.57861038,
                    "sims": 0.44457387927667014
                },
                {
                    "id": 6848335385,
                    "tags": {
                        "amenity": "restaurant",
                        "name:en": "Galata Ev Yemekleri"
                    },
                    "distance": 260.08942236,
                    "sims": 0.4419024150139017
                },
                {
                    "id": 6367785661,
                    "tags": {
                        "name": "Galaktion (Georgian food)",
                        "amenity": "restaurant"
                    },
                    "distance": 1281.03194514,
                    "sims": 0.43536968093207606
                }
            ]
        },
        "23": {
            "execution_time": 0.2039351463317871,
            "results": [
                {
                    "id": 6050767390,
                    "tags": {
                        "tourism": "information"
                    },
                    "distance": 13686.97138262,
                    "sims": 0.7250541664676123
                },
                {
                    "id": 6752587257,
                    "tags": {
                        "tourism": "information"
                    },
                    "distance": 14243.7635296,
                    "sims": 0.7250541664676123
                },
                {
                    "id": 3457463755,
                    "tags": {
                        "tourism": "information",
                        "information": "office"
                    },
                    "distance": 790.13998254,
                    "sims": 0.6819880618442355
                },
                {
                    "id": 12365653089,
                    "tags": {
                        "tourism": "information",
                        "information": "office"
                    },
                    "distance": 6477.62546113,
                    "sims": 0.6819880618442355
                },
                {
                    "id": 1912249104,
                    "tags": {
                        "tourism": "information",
                        "information": "map"
                    },
                    "distance": 2092.24499016,
                    "sims": 0.6677428682965898
                },
                {
                    "id": 9062385892,
                    "tags": {
                        "name": "Ziyaret\u00e7i E\u011fitim ve Tan\u0131t\u0131m Merkezi",
                        "tourism": "information",
                        "information": "office"
                    },
                    "distance": 19787.51715717,
                    "sims": 0.6360624026078705
                },
                {
                    "id": 3672537194,
                    "tags": {
                        "name": "Travel Information",
                        "tourism": "information",
                        "website": "https://privateistanbultours.com/",
                        "information": "office"
                    },
                    "distance": 518.51545982,
                    "sims": 0.6311127731535668
                },
                {
                    "id": 12736985218,
                    "tags": {
                        "name": "\u00dcsk\u00fcdar Turizm Ve Tan\u0131t\u0131m Ofisi",
                        "tourism": "information",
                        "information": "office"
                    },
                    "distance": 3848.00688125,
                    "sims": 0.6248899660906168
                },
                {
                    "id": 5163071221,
                    "tags": {
                        "tourism": "hostel"
                    },
                    "distance": 2301.00180402,
                    "sims": 0.6189750617437085
                },
                {
                    "id": 12813118901,
                    "tags": {
                        "tourism": "hostel"
                    },
                    "distance": 4484.67855772,
                    "sims": 0.6189750617437085
                }
            ]
        },
        "24": {
            "execution_time": 0.2028341293334961,
            "results": [
                {
                    "id": 6744432585,
                    "tags": {
                        "amenity": "toilets"
                    },
                    "distance": 507.97326476,
                    "sims": 0.690867981042504
                },
                {
                    "id": 7931463886,
                    "tags": {
                        "amenity": "toilets"
                    },
                    "distance": 651.87478669,
                    "sims": 0.690867981042504
                },
                {
                    "id": 2769191419,
                    "tags": {
                        "amenity": "toilets"
                    },
                    "distance": 693.16720216,
                    "sims": 0.690867981042504
                },
                {
                    "id": 1915390155,
                    "tags": {
                        "amenity": "toilets"
                    },
                    "distance": 834.64314521,
                    "sims": 0.690867981042504
                },
                {
                    "id": 11914942842,
                    "tags": {
                        "amenity": "toilets"
                    },
                    "distance": 1259.50676507,
                    "sims": 0.690867981042504
                },
                {
                    "id": 11236559463,
                    "tags": {
                        "amenity": "toilets"
                    },
                    "distance": 1372.87365776,
                    "sims": 0.690867981042504
                },
                {
                    "id": 11812527479,
                    "tags": {
                        "amenity": "toilets"
                    },
                    "distance": 1906.16045255,
                    "sims": 0.690867981042504
                },
                {
                    "id": 5489353024,
                    "tags": {
                        "amenity": "toilets"
                    },
                    "distance": 1928.13267204,
                    "sims": 0.690867981042504
                },
                {
                    "id": 9974086830,
                    "tags": {
                        "amenity": "toilets"
                    },
                    "distance": 1964.42843046,
                    "sims": 0.690867981042504
                },
                {
                    "id": 8636465717,
                    "tags": {
                        "amenity": "toilets"
                    },
                    "distance": 2012.89694134,
                    "sims": 0.690867981042504
                }
            ]
        },
        "25": {
            "execution_time": 0.19461584091186523,
            "results": [
                {
                    "id": 4351252489,
                    "tags": {
                        "amenity": "atm"
                    },
                    "distance": 97.07768406,
                    "sims": 0.5191911086286708
                },
                {
                    "id": 1909933166,
                    "tags": {
                        "amenity": "atm"
                    },
                    "distance": 401.46004109,
                    "sims": 0.5191911086286708
                },
                {
                    "id": 5444387130,
                    "tags": {
                        "amenity": "atm"
                    },
                    "distance": 820.12684212,
                    "sims": 0.5191911086286708
                },
                {
                    "id": 12600657601,
                    "tags": {
                        "amenity": "atm"
                    },
                    "distance": 827.22205071,
                    "sims": 0.5191911086286708
                },
                {
                    "id": 6100647185,
                    "tags": {
                        "amenity": "atm"
                    },
                    "distance": 898.8810064,
                    "sims": 0.5191911086286708
                },
                {
                    "id": 5710046227,
                    "tags": {
                        "amenity": "atm"
                    },
                    "distance": 1131.82654813,
                    "sims": 0.5191911086286708
                },
                {
                    "id": 6141956711,
                    "tags": {
                        "amenity": "atm"
                    },
                    "distance": 2180.70438598,
                    "sims": 0.5191911086286708
                },
                {
                    "id": 1839047369,
                    "tags": {
                        "amenity": "atm"
                    },
                    "distance": 2194.61034673,
                    "sims": 0.5191911086286708
                },
                {
                    "id": 11050608651,
                    "tags": {
                        "amenity": "atm"
                    },
                    "distance": 2325.61249006,
                    "sims": 0.5191911086286708
                },
                {
                    "id": 6977392172,
                    "tags": {
                        "amenity": "atm"
                    },
                    "distance": 2343.34371697,
                    "sims": 0.5191911086286708
                }
            ]
        },
        "26": {
            "execution_time": 0.2044689655303955,
            "results": [
                {
                    "id": 3179952672,
                    "tags": {
                        "name": "\u015eehbender 14",
                        "note": "Meyhane style restaurant. Lively place with delicious mezes, raki and wines",
                        "phone": "+90 212 292 06 67",
                        "amenity": "restaurant",
                        "website": "http://www.sehbender14.com/"
                    },
                    "distance": 3502.1816155,
                    "sims": 0.5358438853938413
                },
                {
                    "id": 10555428312,
                    "tags": {
                        "name": "A.\u00c7.T D\u00dcR\u00dcM ve MEZE",
                        "amenity": "restaurant",
                        "cuisine": "kebab",
                        "website": "https://qrmenu.actdurum.com"
                    },
                    "distance": 5945.22036258,
                    "sims": 0.5286015497867452
                },
                {
                    "id": 7996837600,
                    "tags": {
                        "name": "Izgaradan",
                        "amenity": "restaurant"
                    },
                    "distance": 2338.1941786,
                    "sims": 0.5109825591131464
                },
                {
                    "id": 2847384012,
                    "tags": {
                        "name": "Mezunlar Derne\u011fi",
                        "amenity": "cafe"
                    },
                    "distance": 18429.72234719,
                    "sims": 0.5015825782490734
                },
                {
                    "id": 11830986469,
                    "tags": {
                        "amenity": "cafe",
                        "name:en": "Mezzaluna"
                    },
                    "distance": 2911.14632048,
                    "sims": 0.496883287747211
                },
                {
                    "id": 932366015,
                    "tags": {
                        "name": "Imroz",
                        "amenity": "restaurant",
                        "name:ar": "\u0625\u0645\u0631\u0648\u0632"
                    },
                    "distance": 2964.96215152,
                    "sims": 0.4886115325408531
                },
                {
                    "id": 5715219321,
                    "tags": {
                        "name": "Helarfen",
                        "amenity": "cafe"
                    },
                    "distance": 3779.14647735,
                    "sims": 0.4728345979503741
                },
                {
                    "id": 9730237208,
                    "tags": {
                        "name": "Beyaz \u00f6nl\u0171k",
                        "amenity": "cafe"
                    },
                    "distance": 2361.73241489,
                    "sims": 0.471202562928587
                },
                {
                    "id": 4807075794,
                    "tags": {
                        "brand": "Aygaz",
                        "amenity": "fuel"
                    },
                    "distance": 12308.71366872,
                    "sims": 0.4661683220618462
                },
                {
                    "id": 9318036517,
                    "tags": {
                        "name": "Izmir Tekel",
                        "shop": "alcohol"
                    },
                    "distance": 6620.56051056,
                    "sims": 0.4657510339395238
                }
            ]
        },
        "27": {
            "execution_time": 0.1965038776397705,
            "results": [
                {
                    "id": 3661832936,
                    "tags": {
                        "name": "M2, \u015ei\u015fhane Metro \u0130stasyon Giri\u015fi",
                        "railway": "subway_entrance"
                    },
                    "distance": 1516.14051342,
                    "sims": 0.47416018515594827
                },
                {
                    "id": 7112399753,
                    "tags": {
                        "name": "M2, \u015ei\u015fhane Metro \u0130stasyon Giri\u015fi",
                        "railway": "subway_entrance"
                    },
                    "distance": 1553.0940839,
                    "sims": 0.47416018515594827
                },
                {
                    "id": 7112399757,
                    "tags": {
                        "name": "M2, \u015ei\u015fhane Metro \u0130stasyon Giri\u015fi",
                        "railway": "subway_entrance"
                    },
                    "distance": 1574.94840427,
                    "sims": 0.47416018515594827
                },
                {
                    "id": 3453804158,
                    "tags": {
                        "name": "M2, \u015ei\u015fhane Metro \u0130stasyon Giri\u015fi",
                        "railway": "subway_entrance",
                        "entrance": "yes"
                    },
                    "distance": 1292.54427132,
                    "sims": 0.4656920469585979
                },
                {
                    "id": 4778412528,
                    "tags": {
                        "name": "M2, \u015ei\u015fhane Metro \u0130stasyon Giri\u015fi",
                        "railway": "subway_entrance",
                        "entrance": "yes"
                    },
                    "distance": 1439.06596806,
                    "sims": 0.4656920469585979
                },
                {
                    "id": 5582989024,
                    "tags": {
                        "amenity": "cafe",
                        "name:en": "Metro Cafe"
                    },
                    "distance": 4425.59844092,
                    "sims": 0.44807743504664255
                },
                {
                    "id": 5582989023,
                    "tags": {
                        "amenity": "cafe",
                        "name:en": "Metro Cafe"
                    },
                    "distance": 4427.42417085,
                    "sims": 0.44807743504664255
                },
                {
                    "id": 6296619899,
                    "tags": {
                        "name": "Metro Turizm",
                        "shop": "ticket"
                    },
                    "distance": 1677.06539483,
                    "sims": 0.4363992918727866
                },
                {
                    "id": 6296619898,
                    "tags": {
                        "name": "Metro Turizm",
                        "shop": "ticket"
                    },
                    "distance": 2822.59355814,
                    "sims": 0.4363992918727866
                },
                {
                    "id": 808598202,
                    "tags": {
                        "name": "Kocatepe Metro Taksi",
                        "amenity": "taxi"
                    },
                    "distance": 7740.40747216,
                    "sims": 0.43425739832444876
                }
            ]
        },
        "28": {
            "execution_time": 0.19777870178222656,
            "results": [
                {
                    "id": 9682631003,
                    "tags": {
                        "name": "Maqsad Shisha Lounge",
                        "amenity": "cafe"
                    },
                    "distance": 7218.30975619,
                    "sims": 0.6465063637065216
                },
                {
                    "id": 6766518320,
                    "tags": {
                        "name": "Lale Devri Shisha Lounge G\u00fcne\u015fli",
                        "amenity": "cafe"
                    },
                    "distance": 14090.5335294,
                    "sims": 0.587867340533116
                },
                {
                    "id": 979294406,
                    "tags": {
                        "name": "Barbaros Cafe",
                        "amenity": "cafe",
                        "name:ar": "\u0645\u0642\u0647\u0649 \u0628\u0627\u0631\u0628\u0648\u0633",
                        "check_date": "2024-12-16",
                        "description": "Nargile, Shisha, water-pipe"
                    },
                    "distance": 2707.04384685,
                    "sims": 0.5486047056802824
                },
                {
                    "id": 9839042505,
                    "tags": {
                        "name": "Piya Caffe",
                        "amenity": "cafe"
                    },
                    "distance": 5816.33706326,
                    "sims": 0.5206046904755411
                },
                {
                    "id": 5475064321,
                    "tags": {
                        "name": "Khalifa Shisha Lounge",
                        "amenity": "cafe",
                        "name:ru": "\u041a\u0430\u043b\u044c\u044f\u043d\u043d\u0430\u044f \u041a\u0445\u0430\u043b\u0438\u0444\u0430 \u0428\u0438\u0448\u0430 \u041b\u0430\u043d\u0434\u0436",
                        "opening_hours": "24/7",
                        "internet_access": "wlan"
                    },
                    "distance": 4380.70739391,
                    "sims": 0.5168197195100263
                },
                {
                    "id": 9685610311,
                    "tags": {
                        "name": "Ata\u015fehir Pilavhame",
                        "amenity": "cafe"
                    },
                    "distance": 12286.89102966,
                    "sims": 0.5100892806266168
                },
                {
                    "id": 4549898290,
                    "tags": {
                        "amenity": "cafe",
                        "name:ar": "\u0645\u0642\u0647\u0649 boon cafe \u0634\u0646\u0642\u0644 \u0643\u0648\u064a"
                    },
                    "distance": 6488.02597358,
                    "sims": 0.5097818105762714
                },
                {
                    "id": 7041912486,
                    "tags": {
                        "amenity": "cafe",
                        "name:en": "Street with Cafes"
                    },
                    "distance": 516.0987543,
                    "sims": 0.5040471263016316
                },
                {
                    "id": 9420282317,
                    "tags": {
                        "amenity": "cafe",
                        "name:en": "cukurcuma atiques cafe"
                    },
                    "distance": 325.0263776,
                    "sims": 0.5027956523049246
                },
                {
                    "id": 6545955475,
                    "tags": {
                        "name": "\u015eerif Pub Cafe & Nargile",
                        "amenity": "restaurant"
                    },
                    "distance": 1526.30879396,
                    "sims": 0.502031654482802
                }
            ]
        },
        "29": {
            "execution_time": 0.19759678840637207,
            "results": [
                {
                    "id": 9911103569,
                    "tags": {
                        "name": "Asian vegan kitchen",
                        "amenity": "restaurant",
                        "diet:vegan": "yes"
                    },
                    "distance": 1598.47085819,
                    "sims": 0.6158698888057768
                },
                {
                    "id": 4280591193,
                    "tags": {
                        "name": "Sinas Galatas vegan cafe",
                        "amenity": "cafe",
                        "diet:vegan": "only"
                    },
                    "distance": 808.08313553,
                    "sims": 0.591453684904522
                },
                {
                    "id": 12088987915,
                    "tags": {
                        "name": "Veganarsist Bostanc\u0131",
                        "brand": "Veganarsist",
                        "amenity": "cafe",
                        "cuisine": "turkish",
                        "website": "https://veganarsist.com/",
                        "capacity": "2",
                        "delivery": "yes",
                        "takeaway": "yes",
                        "diet:vegan": "only",
                        "opening_hours": "Mo-Su 11:30-21:30",
                        "outdoor_seating": "yes"
                    },
                    "distance": 12354.73528912,
                    "sims": 0.5751068755793289
                },
                {
                    "id": 12673457441,
                    "tags": {
                        "name": "Vegan Masa",
                        "amenity": "restaurant",
                        "cuisine": "turkish;lahmacun;pide",
                        "website": "https://allzinapp.com/veganmasakadikoy",
                        "diet:vegan": "only",
                        "drink:beer": "no",
                        "website:menu": "https://allzinapp.com/veganmasakadikoy/menu/",
                        "opening_hours": "Mo-Su 11:00-22:00"
                    },
                    "distance": 5284.09730838,
                    "sims": 0.5647210661075683
                },
                {
                    "id": 9769630444,
                    "tags": {
                        "amenity": "restaurant",
                        "diet:vegan": "yes",
                        "diet:vegetarian": "yes"
                    },
                    "distance": 5175.68881031,
                    "sims": 0.5645953003295809
                },
                {
                    "id": 7087535985,
                    "tags": {
                        "name": "Cafe Berry",
                        "amenity": "restaurant",
                        "cuisine": "turkish",
                        "check_date": "2024-08-12",
                        "diet:vegan": "yes",
                        "diet:vegetarian": "yes"
                    },
                    "distance": 1766.92825976,
                    "sims": 0.5587638809507195
                },
                {
                    "id": 10753842905,
                    "tags": {
                        "name": "Vegan Dukkan Lokanta",
                        "amenity": "restaurant",
                        "cuisine": "regional",
                        "name:en": "Vegan Store & Cafe",
                        "website": "https://vegandukkanlokanta.com/",
                        "diet:vegan": "yes",
                        "opening_hours": "Mo-Su 10:00-21:00"
                    },
                    "distance": 1441.46443918,
                    "sims": 0.5561035804625216
                },
                {
                    "id": 6843782425,
                    "tags": {
                        "shop": "convenience",
                        "name:en": "vegan dukkan"
                    },
                    "distance": 1443.36880466,
                    "sims": 0.5555846889761735
                },
                {
                    "id": 5548556534,
                    "tags": {
                        "amenity": "restaurant",
                        "name:en": "Community Kitchen",
                        "diet:vegan": "yes",
                        "addr:street": "Kumbarac\u0131 Yoku\u015fu"
                    },
                    "distance": 925.89510084,
                    "sims": 0.5431994744301624
                },
                {
                    "id": 9887152820,
                    "tags": {
                        "name": "Turp",
                        "amenity": "restaurant",
                        "name:en": "Turp Vegan & Vejetaryen Sokak Lezzetleri"
                    },
                    "distance": 5468.30921411,
                    "sims": 0.5340945957730029
                }
            ]
        },
        "30": {
            "execution_time": 0.19559049606323242,
            "results": [
                {
                    "id": 7145569885,
                    "tags": {
                        "tourism": "museum"
                    },
                    "distance": 659.6252941,
                    "sims": 0.5935192461919345
                },
                {
                    "id": 4868553761,
                    "tags": {
                        "tourism": "museum"
                    },
                    "distance": 4055.85473154,
                    "sims": 0.5935192461919345
                },
                {
                    "id": 11139733998,
                    "tags": {
                        "amenity": "theatre",
                        "theatre:type": "open_air"
                    },
                    "distance": 18608.42046898,
                    "sims": 0.5296776452564493
                },
                {
                    "id": 11634094404,
                    "tags": {
                        "name": "Airties",
                        "office": "it"
                    },
                    "distance": 7740.43488329,
                    "sims": 0.4911897475236513
                },
                {
                    "id": 5310071237,
                    "tags": {
                        "name": "ITU Open Air Theater",
                        "amenity": "theatre",
                        "operator": "Istanbul Technical University"
                    },
                    "distance": 11559.3503973,
                    "sims": 0.4781094193458557
                },
                {
                    "id": 5046937922,
                    "tags": {
                        "name:en": "PILOT Gallery",
                        "tourism": "artwork"
                    },
                    "distance": 2894.81043137,
                    "sims": 0.45692318934660103
                },
                {
                    "id": 12834516914,
                    "tags": {
                        "shop": "museum",
                        "level": "0"
                    },
                    "distance": 12878.09068325,
                    "sims": 0.4546367065500234
                },
                {
                    "id": 1807703751,
                    "tags": {
                        "name": "Istanbul Photography Museum",
                        "name:ar": "\u0645\u062a\u062d\u0641 \u0627\u0633\u0637\u0646\u0628\u0648\u0644 \u0641\u0648\u062a\u0648\u063a\u0631\u0627\u0641\u064a",
                        "name:tr": "\u0130stanbul Foto\u011fraf M\u00fczesi",
                        "tourism": "museum",
                        "opening_hours": "Tu-Su 10:00-18:00"
                    },
                    "distance": 781.07738271,
                    "sims": 0.438823938369751
                },
                {
                    "id": 6783390887,
                    "tags": {
                        "name:en": "The Hippodrome Exhibition",
                        "tourism": "museum",
                        "operator": "nakkas"
                    },
                    "distance": 336.88114554,
                    "sims": 0.43398412275125375
                },
                {
                    "id": 1037084486,
                    "tags": {
                        "name": "Havac\u0131l\u0131k M\u00fczesi",
                        "email": "havacilikmuzesi@hho.edu.tr",
                        "phone": "+90 212 663 24 90",
                        "name:en": "Turkish Air Force Museum",
                        "name:ru": "\u041c\u0443\u0437\u0435\u0439 \u0430\u0432\u0438\u0430\u0446\u0438\u0438 \u0432 \u0421\u0442\u0430\u043c\u0431\u0443\u043b\u0435",
                        "tourism": "museum",
                        "website": "http://www.hho.edu.tr/muze/muze.htm",
                        "wikidata": "Q3394116",
                        "addr:city": "\u0130stanbul",
                        "wikipedia": "en:Istanbul Aviation Museum",
                        "addr:street": "Eski Havaalan\u0131 Caddesi",
                        "addr:district": "Bak\u0131rk\u00f6y",
                        "opening_hours": "Tu-Fr 09:00-16:30; Sa-Su 10:00-17:30",
                        "wikimedia_commons": "Category:Istanbul Aviation Museum"
                    },
                    "distance": 13508.35854763,
                    "sims": 0.4107580131744162
                }
            ]
        },
        "31": {
            "execution_time": 0.20192599296569824,
            "results": [
                {
                    "id": 10536221814,
                    "tags": {
                        "name": "Sultan 1.Mahmut \u00c7e\u015fmesi",
                        "historic": "memorial"
                    },
                    "distance": 10215.45950768,
                    "sims": 0.6708140365814204
                },
                {
                    "id": 12768472401,
                    "tags": {
                        "name": "Padi\u015fah Mahfili - Yeni Cami",
                        "name:en": "Sultans Pavillion - the new Mosque",
                        "historic": "castle",
                        "addr:street": "Bankacilar 1"
                    },
                    "distance": 914.76892182,
                    "sims": 0.6205801676320807
                },
                {
                    "id": 2524535697,
                    "tags": {
                        "name": "Sultan Ahmet Palace",
                        "email": "info@sultanahmetpalace.com",
                        "phone": "+902124580460",
                        "name:ar": "\u0642\u0635\u0631 \u0633\u0644\u0637\u0627\u0646 \u0623\u062d\u0645\u062f",
                        "name:zh": "\u82cf\u4e39\u963f\u5408\u9ea6\u7279\u5bab\u6bbf\u9152\u5e97",
                        "tourism": "hotel",
                        "website": "https://www.sultanahmetpalace.com/",
                        "wikidata": "Q111856837"
                    },
                    "distance": 2014.67995345,
                    "sims": 0.6069460617996614
                },
                {
                    "id": 1473034819,
                    "tags": {
                        "name": "Anatolia Suites Sultanahmet",
                        "name:ar": "\u0633\u0644\u0637\u0627\u0646 \u0623\u062d\u0645\u062f \u0623\u0646\u062a\u0648\u0644\u064a\u0627 \u0633\u064a\u0648\u062a",
                        "tourism": "hotel"
                    },
                    "distance": 2008.49969296,
                    "sims": 0.5752269021693581
                },
                {
                    "id": 6914442986,
                    "tags": {
                        "name": "Fatih Sultan Mehmet An\u0131t\u0131",
                        "name:en": "Monument to Fatih Sultan Mehmet",
                        "historic": "memorial",
                        "memorial": "statue"
                    },
                    "distance": 2508.61137299,
                    "sims": 0.5561073024081294
                },
                {
                    "id": 976474174,
                    "tags": {
                        "name": "Fatih Mescidi",
                        "amenity": "place_of_worship",
                        "name:ar": "\u062c\u0627\u0645\u0639 \u0627\u0644\u0641\u0627\u062a\u062d",
                        "religion": "muslim",
                        "wikidata": "Q756189",
                        "wikipedia": "en:Fatih Mosque, Istanbul",
                        "wikimedia_commons": "Category:Fatih Mosque"
                    },
                    "distance": 9316.40159329,
                    "sims": 0.5540678702471734
                },
                {
                    "id": 4999339814,
                    "tags": {
                        "name": "Sultan Ahmet",
                        "place": "suburb",
                        "name:ar": "\u0633\u0644\u0637\u0627\u0646 \u0623\u062d\u0645\u062f",
                        "name:ml": "\u0d38\u0d41\u0d7d\u0d24\u0d4d\u0d24\u0d3e\u0d7b \u0d05\u0d39\u0d2e\u0d4d\u0d2e\u0d26\u0d4d",
                        "alt_name": "Sultanahmet"
                    },
                    "distance": 1987.68435821,
                    "sims": 0.5533230443826274
                },
                {
                    "id": 1620494633,
                    "tags": {
                        "name": "Hatice Turhan Sultan T\u00fcrbesi",
                        "name:en": "Tomb of Hatice Turhan Sultan",
                        "name:ru": "\u041c\u043e\u0433\u0438\u043b\u0430 \u0422\u0443\u0440\u0445\u0430\u043d\u0430 \u0421\u0443\u043b\u0442\u0430\u043d\u0430",
                        "historic": "monument",
                        "wikidata": "Q66537010",
                        "wikipedia": "en:Tomb of Turhan Sultan",
                        "addr:postcode": "34116",
                        "wikimedia_commons": "Category:New Mosque (Istanbul) - Hatice Turhan Mausoleum"
                    },
                    "distance": 856.69966288,
                    "sims": 0.5533205739687662
                },
                {
                    "id": 5113481394,
                    "tags": {
                        "name": "Sultan sarn\u0131c\u0131",
                        "email": "iletisim@sultansarnic.com",
                        "phone": "05323005287",
                        "amenity": "restaurant",
                        "name:ar": "\u0633\u0644\u0637\u0627\u0646 \u0633\u0627\u0631\u064a\u0646\u062c\u064a",
                        "name:en": "Sultan Cistern",
                        "name:tr": "Sultan Sarn\u0131\u00e7",
                        "website": "http://sultansarnic.com",
                        "addr:city": "Istanbul",
                        "addr:street": "Ali Naki Sokak",
                        "addr:district": "Fatih",
                        "addr:housenumber": "02125210720",
                        "wedding_reception": "yes"
                    },
                    "distance": 1251.24398532,
                    "sims": 0.54322956961882
                },
                {
                    "id": 12292582318,
                    "tags": {
                        "name": "Mavi Marmara An\u0131t\u0131",
                        "historic": "memorial"
                    },
                    "distance": 11098.88298578,
                    "sims": 0.54295717645714
                }
            ]
        },
        "32": {
            "execution_time": 0.1970968246459961,
            "results": [
                {
                    "id": 1768294289,
                    "tags": {
                        "name": "Sunset",
                        "email": "info@sunsetgrillbar.com",
                        "phone": "+90 212 287 03 57;+90 212 287 03 58",
                        "amenity": "restaurant",
                        "website": "https://www.sunsetgrillbar.com/",
                        "official_name": "Sunset Grill&Bar"
                    },
                    "distance": 3554.45950428,
                    "sims": 0.4787076711654663
                },
                {
                    "id": 5486314621,
                    "tags": {
                        "name:en": "Sun clock",
                        "tourism": "attraction"
                    },
                    "distance": 6939.49757485,
                    "sims": 0.46068045496940613
                },
                {
                    "id": 11514418429,
                    "tags": {
                        "amenity": "marketplace",
                        "opening_hours": "Sa sunrise-sunset"
                    },
                    "distance": 4517.74836603,
                    "sims": 0.44364727865598463
                },
                {
                    "id": 11985689815,
                    "tags": {
                        "amenity": "cinema"
                    },
                    "distance": 7847.72783301,
                    "sims": 0.3752251863479614
                },
                {
                    "id": 8277311717,
                    "tags": {
                        "name": "Harmony hotel teras",
                        "image": "https://images.app.goo.gl/T32RGXoYWbcyvwst6",
                        "level": "3",
                        "name:en": "Harmony hotel terrace",
                        "name:ru": "\u0422e\u0440\u0430\u0441\u0441\u0430 \u043f\u0440\u0438 \u043e\u0442\u0435\u043b\u0435 \"Harmony\"",
                        "tourism": "viewpoint",
                        "description": "Terrace on the tap floor of \"Harmony\" hotel with a beatiful view on the Marmara sea. You can also order some drinks from the terrace menu and enjoy beatiful sunsets or sunrises above the sea surface."
                    },
                    "distance": 4919.44397602,
                    "sims": 0.3642374385666085
                },
                {
                    "id": 5488484221,
                    "tags": {
                        "amenity": "clock",
                        "display": "sundial",
                        "support": "ground",
                        "tourism": "attraction"
                    },
                    "distance": 5017.28395877,
                    "sims": 0.3597334623336792
                },
                {
                    "id": 7737183091,
                    "tags": {
                        "name:en": "Overlook over the East",
                        "tourism": "viewpoint"
                    },
                    "distance": 3944.88689445,
                    "sims": 0.347633421421051
                },
                {
                    "id": 11813287027,
                    "tags": {
                        "image": "https://photos.app.goo.gl/DJEtKeJHyf3dswSH6",
                        "amenity": "clock",
                        "display": "sundial"
                    },
                    "distance": 3425.04040011,
                    "sims": 0.3467536659983601
                },
                {
                    "id": 12088960369,
                    "tags": {
                        "name": "Beach",
                        "highway": "rest_area"
                    },
                    "distance": 14894.66046413,
                    "sims": 0.33970070840712197
                },
                {
                    "id": 4786907750,
                    "tags": {
                        "name": "Hanedan Et",
                        "amenity": "restaurant",
                        "cuisine": "steak_house",
                        "website": "http://hanedanrestaurant.com/",
                        "check_date": "2024-12-16",
                        "drink:wine": "served"
                    },
                    "distance": 326.54167577,
                    "sims": 0.3381769757919604
                }
            ]
        },
        "33": {
            "execution_time": 0.19599509239196777,
            "results": [
                {
                    "id": 12352274168,
                    "tags": {
                        "name": "\u0130stanbul Kitap\u00e7\u0131s\u0131",
                        "shop": "books"
                    },
                    "distance": 1163.04863771,
                    "sims": 0.7501150668079113
                },
                {
                    "id": 11391398025,
                    "tags": {
                        "name": "\u0130stanbul Cafe",
                        "amenity": "cafe"
                    },
                    "distance": 12741.51441584,
                    "sims": 0.7285025664574533
                },
                {
                    "id": 2193688113,
                    "tags": {
                        "name": "T\u00fcrkmen Cafe",
                        "amenity": "cafe",
                        "addr:city": "Istanbul"
                    },
                    "distance": 6949.73571003,
                    "sims": 0.6987526294595758
                },
                {
                    "id": 5295117687,
                    "tags": {
                        "name": "Rocca \u0130stanbul",
                        "amenity": "cafe"
                    },
                    "distance": 13659.39943348,
                    "sims": 0.6849658146399011
                },
                {
                    "id": 11828724973,
                    "tags": {
                        "name": "\u0130stanbul Kitap\u00e7\u0131s\u0131",
                        "shop": "books",
                        "website": "https://www.istanbulkitapcisi.com/",
                        "operator": "\u0130stanbul B\u00fcy\u00fck\u015fehir Belediyesi"
                    },
                    "distance": 3748.82467883,
                    "sims": 0.6817483156690686
                },
                {
                    "id": 4165097562,
                    "tags": {
                        "name": "Istanbul Cafe",
                        "amenity": "cafe",
                        "wheelchair": "limited"
                    },
                    "distance": 4407.66160795,
                    "sims": 0.6713909719559765
                },
                {
                    "id": 6827236787,
                    "tags": {
                        "name": "Lokumla Istanbul",
                        "amenity": "cafe"
                    },
                    "distance": 12608.00919203,
                    "sims": 0.6674679122769868
                },
                {
                    "id": 5112749776,
                    "tags": {
                        "name": "Pages Bookstore Cafe",
                        "amenity": "cafe",
                        "name:ar": "\u0628\u064a\u062c\u064a\u0632 \u0628\u0648\u0643\u0633\u062a\u0648\u0631 \u0643\u0627\u0641\u064a\u0647",
                        "addr:city": "Istanbul",
                        "addr:street": "Kariye \u00c7k.",
                        "addr:district": "Fatih"
                    },
                    "distance": 3514.44704929,
                    "sims": 0.664698083608801
                },
                {
                    "id": 9141450702,
                    "tags": {
                        "name": "\u0130stanbul Muhallebicisi",
                        "amenity": "cafe"
                    },
                    "distance": 5897.98325025,
                    "sims": 0.6640582871611077
                },
                {
                    "id": 5113487680,
                    "tags": {
                        "name": "Book Shop",
                        "shop": "books",
                        "addr:city": "Istanbul",
                        "addr:street": "Divan yolu caddesi",
                        "addr:district": "Fatih"
                    },
                    "distance": 2153.78177665,
                    "sims": 0.6634202989150231
                }
            ]
        },
        "34": {
            "execution_time": 0.19575762748718262,
            "results": [
                {
                    "id": 11092475458,
                    "tags": {
                        "name": "Kad\u0131k\u00f6y Body Art",
                        "shop": "tattoo"
                    },
                    "distance": 158.03278282,
                    "sims": 0.7275041396174559
                },
                {
                    "id": 5588490977,
                    "tags": {
                        "name": "G\u00fczel Kelimeler D\u00fckkan\u0131",
                        "shop": "art",
                        "addr:street": "Tatar Bey Soka\u011f\u0131"
                    },
                    "distance": 5825.9046865,
                    "sims": 0.6916302648672543
                },
                {
                    "id": 6567031748,
                    "tags": {
                        "addr:street": "Yenikap\u0131 \u00c7\u0131kmaz\u0131"
                    },
                    "distance": 982.61069557,
                    "sims": 0.6596472459926384
                },
                {
                    "id": 4562247228,
                    "tags": {
                        "name": "Karamanl\u0131 Boya",
                        "craft": "painter"
                    },
                    "distance": 14809.05648304,
                    "sims": 0.6583739715329999
                },
                {
                    "id": 12855224101,
                    "tags": {
                        "name": "K. Ayasofya Art Cafe",
                        "amenity": "cafe",
                        "addr:street": "Yabac\u0131 Soka\u011f\u0131"
                    },
                    "distance": 4635.34859962,
                    "sims": 0.654343743751757
                },
                {
                    "id": 6683993911,
                    "tags": {
                        "name": "Kad\u0131k\u00f6y Belediye Ba\u015fkanl\u0131\u011f\u0131",
                        "amenity": "townhall",
                        "website": "https://www.kadikoy.bel.tr/",
                        "wikimedia_commons": "File:Kad\u0131k\u00f6y Municipality Building in 2024.jpg"
                    },
                    "distance": 1135.78980168,
                    "sims": 0.6520397261392992
                },
                {
                    "id": 9217147446,
                    "tags": {
                        "name": "Yerine Ula\u015fmayan Mektuplar An\u0131t\u0131",
                        "tourism": "artwork",
                        "artwork_type": "sculpture"
                    },
                    "distance": 14173.90666515,
                    "sims": 0.6430651524423202
                },
                {
                    "id": 9069502878,
                    "tags": {
                        "name": "OYSA Akademi",
                        "source": "local knowledge;streetlevel imagery;survey",
                        "addr:city": "\u0130stanbul",
                        "addr:street": "Milliyet\u00e7i Sokak",
                        "addr:district": "Bak\u0131rk\u00f6y",
                        "addr:postcode": "34140",
                        "addr:housenumber": "17",
                        "addr:neighbourhood": "Zeytinlik Mahallesi"
                    },
                    "distance": 12975.338983,
                    "sims": 0.6410702275910931
                },
                {
                    "id": 11873880148,
                    "tags": {
                        "name": "Be\u015fikta\u015f Cumhuriyet ve Demokrasi An\u0131t\u0131",
                        "tourism": "artwork",
                        "artwork_type": "statue"
                    },
                    "distance": 7161.20886328,
                    "sims": 0.6407154775305522
                },
                {
                    "id": 10178065074,
                    "tags": {
                        "name": "Kad\u0131y\u00f6 Ambalaj ve Temizlik \u00dcr\u00fcnleri",
                        "shop": "houseware",
                        "addr:street": "K\u0131rtasiyeci Sokak"
                    },
                    "distance": 248.72241553,
                    "sims": 0.6406806279040143
                }
            ]
        },
        "35": {
            "execution_time": 0.19511151313781738,
            "results": [
                {
                    "id": 6882112886,
                    "tags": {
                        "shop": "wine"
                    },
                    "distance": 1592.42815127,
                    "sims": 0.6591493500800395
                },
                {
                    "id": 8071847141,
                    "tags": {
                        "name": "Beer Plus",
                        "amenity": "bar"
                    },
                    "distance": 1860.51896741,
                    "sims": 0.6086669253309509
                },
                {
                    "id": 12571656401,
                    "tags": {
                        "name": "Popstel liquor",
                        "amenity": "bar"
                    },
                    "distance": 723.99362572,
                    "sims": 0.6017782624826696
                },
                {
                    "id": 9500713917,
                    "tags": {
                        "name": "Beer corner",
                        "amenity": "bar"
                    },
                    "distance": 586.37268723,
                    "sims": 0.597017861123612
                },
                {
                    "id": 11092482498,
                    "tags": {
                        "name": "Cocktail",
                        "amenity": "bar"
                    },
                    "distance": 6222.56686959,
                    "sims": 0.582973214540928
                },
                {
                    "id": 9205038917,
                    "tags": {
                        "amenity": "bar"
                    },
                    "distance": 431.51953317,
                    "sims": 0.5797390151646266
                },
                {
                    "id": 5308557025,
                    "tags": {
                        "amenity": "bar"
                    },
                    "distance": 701.19362031,
                    "sims": 0.5797390151646266
                },
                {
                    "id": 4548512390,
                    "tags": {
                        "amenity": "bar"
                    },
                    "distance": 2420.75507065,
                    "sims": 0.5797390151646266
                },
                {
                    "id": 8173713399,
                    "tags": {
                        "name": "Beer House",
                        "amenity": "bar"
                    },
                    "distance": 1856.92876741,
                    "sims": 0.5656485401037996
                },
                {
                    "id": 1905854637,
                    "tags": {
                        "name": "Sensus Wine Boutique",
                        "amenity": "bar",
                        "wheelchair": "no"
                    },
                    "distance": 1404.14778712,
                    "sims": 0.5614335986534281
                }
            ]
        },
        "36": {
            "execution_time": 0.2080824375152588,
            "results": [
                {
                    "id": 6878148103,
                    "tags": {
                        "name": "Aktar Ambalaj",
                        "shop": "spices"
                    },
                    "distance": 16881.30497567,
                    "sims": 0.6343282954907089
                },
                {
                    "id": 10563519282,
                    "tags": {
                        "name": "Orta\u00e7a\u011f Baharat",
                        "shop": "spices"
                    },
                    "distance": 10718.71726392,
                    "sims": 0.6106793484642842
                },
                {
                    "id": 6383694896,
                    "tags": {
                        "name": "Tu\u011fba",
                        "shop": "spices"
                    },
                    "distance": 9008.35438058,
                    "sims": 0.5914647252090146
                },
                {
                    "id": 5297777496,
                    "tags": {
                        "name": "G\u00f6zde Kuruyemi\u015f",
                        "shop": "spices"
                    },
                    "distance": 13435.40900749,
                    "sims": 0.5904534975782607
                },
                {
                    "id": 12438792839,
                    "tags": {
                        "name": "Ata\u015fehir Baharat\u00e7\u0131s\u0131",
                        "shop": "spices"
                    },
                    "distance": 13323.71050023,
                    "sims": 0.5647789604262616
                },
                {
                    "id": 10931645820,
                    "tags": {
                        "name": "Kozyata\u011f\u0131 Baharat\u00e7\u0131s\u0131",
                        "shop": "spices"
                    },
                    "distance": 11513.91008093,
                    "sims": 0.563221133987534
                },
                {
                    "id": 8742544262,
                    "tags": {
                        "name": "K\u00fc\u00e7\u00fckyal\u0131 Baharat",
                        "shop": "spices"
                    },
                    "distance": 13469.42876064,
                    "sims": 0.5614697713364347
                },
                {
                    "id": 6964038039,
                    "tags": {
                        "name": "Anadolu Pazar\u0131",
                        "shop": "spices"
                    },
                    "distance": 6884.32357622,
                    "sims": 0.5547289221877829
                },
                {
                    "id": 11012990545,
                    "tags": {
                        "name": "Tarihi Emin\u00f6n\u00fc Baharat\u00e7\u0131s\u0131",
                        "shop": "spices"
                    },
                    "distance": 11393.62898965,
                    "sims": 0.5528988052968836
                },
                {
                    "id": 5244802003,
                    "tags": {
                        "name": "Kizilirmak Spice Shop",
                        "shop": "spices",
                        "name:ar": "\u0643\u064a\u0632\u064a\u0644\u0631\u0645\u0627\u0643 \u0633\u0628\u0627\u064a\u0633 \u0634\u0648\u0628",
                        "addr:city": "Istanbul",
                        "addr:street": "Kad\u0131rga Liman\u0131 Caddesi",
                        "addr:district": "Fatih"
                    },
                    "distance": 963.50962391,
                    "sims": 0.5447192628195886
                }
            ]
        },
        "37": {
            "execution_time": 0.20707416534423828,
            "results": [
                {
                    "id": 5163071221,
                    "tags": {
                        "tourism": "hostel"
                    },
                    "distance": 2308.27943945,
                    "sims": 0.6877354680369835
                },
                {
                    "id": 12813118901,
                    "tags": {
                        "tourism": "hostel"
                    },
                    "distance": 5120.75370298,
                    "sims": 0.6877354680369835
                },
                {
                    "id": 12813119001,
                    "tags": {
                        "tourism": "hostel"
                    },
                    "distance": 5235.79531615,
                    "sims": 0.6877354680369835
                },
                {
                    "id": 12813128201,
                    "tags": {
                        "tourism": "hostel"
                    },
                    "distance": 14812.07244181,
                    "sims": 0.6877354680369835
                },
                {
                    "id": 2447837924,
                    "tags": {
                        "name": "Hush Hostel Moda",
                        "tourism": "hostel"
                    },
                    "distance": 5266.26237066,
                    "sims": 0.5281261667604251
                },
                {
                    "id": 5840112085,
                    "tags": {
                        "name": "Nobel hostel",
                        "tourism": "apartment"
                    },
                    "distance": 1620.91450655,
                    "sims": 0.5136365978554858
                },
                {
                    "id": 6576826885,
                    "tags": {
                        "name": "\u0645\u0644\u0627\u0628\u0633 \u0627\u0637\u0641\u0627\u0644 \u0632\u064a\u062a\u0648\u0646 \u0628\u0648\u0631\u0646\u0648",
                        "tourism": "hostel"
                    },
                    "distance": 6200.32614614,
                    "sims": 0.5131471690430418
                },
                {
                    "id": 6576800311,
                    "tags": {
                        "name": "\u0645\u062d\u0644 \u0628\u064a\u0639 \u0645\u0644\u0627\u0628\u0633 \u0631\u062c\u0627\u0644\u064a \u0632\u064a\u062a\u0648\u0646 \u0628\u0648\u0631\u0646\u0648",
                        "tourism": "hostel"
                    },
                    "distance": 6146.22280656,
                    "sims": 0.5093099430514233
                },
                {
                    "id": 4785763259,
                    "tags": {
                        "name": "Hostel Bahane",
                        "tourism": "hostel"
                    },
                    "distance": 5628.37829597,
                    "sims": 0.49763804772704046
                },
                {
                    "id": 6131147786,
                    "tags": {
                        "name": "overland residents",
                        "tourism": "hostel"
                    },
                    "distance": 3170.66359738,
                    "sims": 0.4873815835087455
                }
            ]
        },
        "38": {
            "execution_time": 0.19852304458618164,
            "results": [
                {
                    "id": 5291970807,
                    "tags": {
                        "name": "Brillant Home",
                        "shop": "houseware"
                    },
                    "distance": 12336.4715495,
                    "sims": 0.33553557686504887
                },
                {
                    "id": 9786517772,
                    "tags": {
                        "name": "Brussel",
                        "amenity": "ice_cream"
                    },
                    "distance": 6063.58894157,
                    "sims": 0.31676828268827806
                },
                {
                    "id": 9939299594,
                    "tags": {
                        "name": "Bristot",
                        "amenity": "cafe"
                    },
                    "distance": 16234.66620844,
                    "sims": 0.30656364277061643
                },
                {
                    "id": 3761372059,
                    "tags": {
                        "name": "TeaOrCoffee",
                        "amenity": "cafe",
                        "check_date": "2025-04-03",
                        "survey:date": "2021-12-17"
                    },
                    "distance": 450.92856033,
                    "sims": 0.2955803912319642
                },
                {
                    "id": 6924994019,
                    "tags": {
                        "shop": "vacant",
                        "cuisine": "kebab"
                    },
                    "distance": 14446.92548606,
                    "sims": 0.2954236309507995
                },
                {
                    "id": 1915390143,
                    "tags": {
                        "name": "Bab Bowling Cafe",
                        "leisure": "amusement_arcade"
                    },
                    "distance": 125.34866187,
                    "sims": 0.29209137228965953
                },
                {
                    "id": 8319691845,
                    "tags": {
                        "name": "TRC american dinner",
                        "amenity": "cafe"
                    },
                    "distance": 2361.10884405,
                    "sims": 0.2911280838709509
                },
                {
                    "id": 9288127453,
                    "tags": {
                        "name": "Cajun Corner",
                        "amenity": "restaurant"
                    },
                    "distance": 12132.83606758,
                    "sims": 0.2901863003443692
                },
                {
                    "id": 8027757289,
                    "tags": {
                        "name": "Bilenler",
                        "shop": "bakery"
                    },
                    "distance": 15659.86416292,
                    "sims": 0.2875316448641976
                },
                {
                    "id": 8794329175,
                    "tags": {
                        "name": "Burak Iskender Kebab",
                        "amenity": "restaurant"
                    },
                    "distance": 10714.88797064,
                    "sims": 0.28505911114652127
                }
            ]
        },
        "39": {
            "execution_time": 0.2002241611480713,
            "results": [
                {
                    "id": 12289800904,
                    "tags": {
                        "amenity": "pharmacy"
                    },
                    "distance": 2667.1365389,
                    "sims": 0.5944929251981522
                },
                {
                    "id": 11377595761,
                    "tags": {
                        "amenity": "pharmacy",
                        "check_date": "2023-11-26",
                        "healthcare": "pharmacy"
                    },
                    "distance": 2265.56527397,
                    "sims": 0.5807512652426297
                },
                {
                    "id": 1072713876,
                    "tags": {
                        "amenity": "pharmacy",
                        "healthcare": "pharmacy"
                    },
                    "distance": 382.15058855,
                    "sims": 0.5622487254890108
                },
                {
                    "id": 10041473717,
                    "tags": {
                        "amenity": "pharmacy",
                        "healthcare": "pharmacy"
                    },
                    "distance": 389.0267715,
                    "sims": 0.5622487254890108
                },
                {
                    "id": 1613977081,
                    "tags": {
                        "amenity": "pharmacy",
                        "healthcare": "pharmacy"
                    },
                    "distance": 495.01137192,
                    "sims": 0.5622487254890108
                },
                {
                    "id": 3188739872,
                    "tags": {
                        "amenity": "pharmacy",
                        "healthcare": "pharmacy"
                    },
                    "distance": 764.761363,
                    "sims": 0.5622487254890108
                },
                {
                    "id": 4033313443,
                    "tags": {
                        "amenity": "pharmacy",
                        "healthcare": "pharmacy"
                    },
                    "distance": 1993.42434811,
                    "sims": 0.5622487254890108
                },
                {
                    "id": 9777266178,
                    "tags": {
                        "amenity": "pharmacy",
                        "healthcare": "pharmacy"
                    },
                    "distance": 2009.10122388,
                    "sims": 0.5622487254890108
                },
                {
                    "id": 8636465817,
                    "tags": {
                        "amenity": "pharmacy",
                        "healthcare": "pharmacy"
                    },
                    "distance": 3237.0313118,
                    "sims": 0.5622487254890108
                },
                {
                    "id": 11619848279,
                    "tags": {
                        "amenity": "pharmacy",
                        "healthcare": "pharmacy"
                    },
                    "distance": 3274.63161545,
                    "sims": 0.5622487254890108
                }
            ]
        },
        "40": {
            "execution_time": 0.20338010787963867,
            "results": [
                {
                    "id": 5244811451,
                    "tags": {
                        "name": "\u00c7ukurova Home Collection",
                        "shop": "furniture",
                        "name:ar": "\u062a\u0634\u0648\u0643\u0648\u0631\u0648\u0641\u0627 \u0647\u0648\u0645 \u0643\u0648\u0644\u064a\u0643\u0634\u0646",
                        "addr:city": "Istanbul",
                        "addr:street": "\u00c7akmak\u00e7\u0131lar Yoku\u015fu",
                        "addr:district": "Fatih"
                    },
                    "distance": 2198.39986412,
                    "sims": 0.6155786514282227
                },
                {
                    "id": 4786906455,
                    "tags": {
                        "name": "Horhor",
                        "shop": "antiques",
                        "amenity": "marketplace",
                        "comments": "over 200 individual antique shop in this market",
                        "addr:city": "Istanbul",
                        "addr:street": "K\u0131rma Tulumba Sokak",
                        "addr:district": "Aksaray",
                        "building:levels": "5",
                        "addr:housenumber": "13"
                    },
                    "distance": 3198.82477886,
                    "sims": 0.6065465807914734
                },
                {
                    "id": 6809444186,
                    "tags": {
                        "name:en": "Antique Shops road",
                        "tourism": "artwork"
                    },
                    "distance": 6127.8196117,
                    "sims": 0.6040484669237426
                },
                {
                    "id": 12841018456,
                    "tags": {
                        "name": "Dilas Antique & Art",
                        "shop": "antiques"
                    },
                    "distance": 105.91951161,
                    "sims": 0.5948612867254405
                },
                {
                    "id": 11296163215,
                    "tags": {
                        "name": "Antique 50",
                        "shop": "antiques"
                    },
                    "distance": 6182.86163327,
                    "sims": 0.5900703844449041
                },
                {
                    "id": 5570545284,
                    "tags": {
                        "name": "Kapadokya Antika",
                        "shop": "antiques"
                    },
                    "distance": 5914.26754087,
                    "sims": 0.5847649574279785
                },
                {
                    "id": 10556465309,
                    "tags": {
                        "name": "\u00dcst\u00fcn Antik",
                        "shop": "antiques"
                    },
                    "distance": 6182.68862442,
                    "sims": 0.5799148255561243
                },
                {
                    "id": 3194950863,
                    "tags": {
                        "name": "Can Antika",
                        "shop": "antiques"
                    },
                    "distance": 194.42331385,
                    "sims": 0.5792357921600342
                },
                {
                    "id": 5291873149,
                    "tags": {
                        "name": "Evkur",
                        "shop": "furniture"
                    },
                    "distance": 12462.38156043,
                    "sims": 0.5722775629841558
                },
                {
                    "id": 6924072987,
                    "tags": {
                        "name": "Closet Circuit, \u00c7ukurcuma 23",
                        "shop": "clothes"
                    },
                    "distance": 93.50408606,
                    "sims": 0.563130259513855
                }
            ]
        },
        "41": {
            "execution_time": 0.20249223709106445,
            "results": [
                {
                    "id": 11212829439,
                    "tags": {
                        "name": "Sultanahmet Bazaar Turkish Delight",
                        "shop": "confectionery"
                    },
                    "distance": 1091.68687077,
                    "sims": 0.7089281753769348
                },
                {
                    "id": 8219616218,
                    "tags": {
                        "shop": "confectionery",
                        "name:en": "Turkish Sweets"
                    },
                    "distance": 673.70261448,
                    "sims": 0.6871236599308946
                },
                {
                    "id": 11212837240,
                    "tags": {
                        "name": "D\u0130L\u015eEKER Turkish Delight-Baklava-Coffe-Nuts",
                        "shop": "confectionery"
                    },
                    "distance": 597.31747741,
                    "sims": 0.6813065435838588
                },
                {
                    "id": 11212837238,
                    "tags": {
                        "name": "Cennet Baklava-Turkish Delight-Spice-Tea",
                        "shop": "confectionery"
                    },
                    "distance": 220.13178083,
                    "sims": 0.6591831432312493
                },
                {
                    "id": 8221612117,
                    "tags": {
                        "shop": "confectionery",
                        "name:en": "Turkish Lukum"
                    },
                    "distance": 3633.44748744,
                    "sims": 0.651680109205276
                },
                {
                    "id": 4581100055,
                    "tags": {
                        "name": "dilim istanbul",
                        "craft": "confectionery"
                    },
                    "distance": 13742.82531937,
                    "sims": 0.6501774341396803
                },
                {
                    "id": 4935205522,
                    "tags": {
                        "amenity": "cafe",
                        "cuisine": "turkish"
                    },
                    "distance": 6746.11114976,
                    "sims": 0.6473404327447196
                },
                {
                    "id": 6968404503,
                    "tags": {
                        "name": "Osmanl\u0131 Baharat",
                        "shop": "spices"
                    },
                    "distance": 5198.55582996,
                    "sims": 0.6440584023103344
                },
                {
                    "id": 12289826101,
                    "tags": {
                        "name": "Osmanl\u0131 tatl\u0131c\u0131l\u0131k",
                        "shop": "confectionery"
                    },
                    "distance": 3894.34600053,
                    "sims": 0.6435598477267902
                },
                {
                    "id": 10110158373,
                    "tags": {
                        "name": "Tatl\u0131 Saray\u0131",
                        "shop": "confectionery"
                    },
                    "distance": 8244.03405366,
                    "sims": 0.636050416599308
                }
            ]
        },
        "42": {
            "execution_time": 0.20000910758972168,
            "results": [
                {
                    "id": 10002325117,
                    "tags": {
                        "name:en": "Rohan Hotel Hagia Radisson",
                        "tourism": "hotel"
                    },
                    "distance": 289.20481348,
                    "sims": 0.6154674750330366
                },
                {
                    "id": 4905464721,
                    "tags": {
                        "name:en": "albatros hagia sophia",
                        "tourism": "hotel",
                        "wikidata": "Q111998465"
                    },
                    "distance": 288.68403238,
                    "sims": 0.5951462018838579
                },
                {
                    "id": 12102726893,
                    "tags": {
                        "name": "Ticket office for The Hagia Sophia Grand Mosque",
                        "shop": "ticket"
                    },
                    "distance": 67.45187758,
                    "sims": 0.5756040991793079
                },
                {
                    "id": 1000021884,
                    "tags": {
                        "tourism": "hotel"
                    },
                    "distance": 266.10073535,
                    "sims": 0.5691416942050457
                },
                {
                    "id": 1000022116,
                    "tags": {
                        "tourism": "hotel"
                    },
                    "distance": 293.91171416,
                    "sims": 0.5691416942050457
                },
                {
                    "id": 4457647393,
                    "tags": {
                        "tourism": "hotel"
                    },
                    "distance": 343.99293395,
                    "sims": 0.5691416942050457
                },
                {
                    "id": 6432744585,
                    "tags": {
                        "tourism": "hotel"
                    },
                    "distance": 567.05868273,
                    "sims": 0.5691416942050457
                },
                {
                    "id": 6325811285,
                    "tags": {
                        "tourism": "hotel"
                    },
                    "distance": 749.72016618,
                    "sims": 0.5691416942050457
                },
                {
                    "id": 10241846609,
                    "tags": {
                        "tourism": "hotel"
                    },
                    "distance": 806.15798418,
                    "sims": 0.5691416942050457
                },
                {
                    "id": 5047421726,
                    "tags": {
                        "tourism": "hotel"
                    },
                    "distance": 899.031298,
                    "sims": 0.5691416942050457
                }
            ]
        },
        "43": {
            "execution_time": 0.20157599449157715,
            "results": [
                {
                    "id": 656087306,
                    "tags": {
                        "shop": "bakery"
                    },
                    "distance": 744.07202113,
                    "sims": 0.6400799560523072
                },
                {
                    "id": 11365955630,
                    "tags": {
                        "shop": "bakery"
                    },
                    "distance": 994.59191982,
                    "sims": 0.6400799560523072
                },
                {
                    "id": 9542787717,
                    "tags": {
                        "shop": "bakery"
                    },
                    "distance": 1366.61498483,
                    "sims": 0.6400799560523072
                },
                {
                    "id": 4889959425,
                    "tags": {
                        "shop": "bakery"
                    },
                    "distance": 2390.74856662,
                    "sims": 0.6400799560523072
                },
                {
                    "id": 12289826202,
                    "tags": {
                        "shop": "bakery"
                    },
                    "distance": 2587.51066948,
                    "sims": 0.6400799560523072
                },
                {
                    "id": 12921698128,
                    "tags": {
                        "shop": "bakery"
                    },
                    "distance": 2733.062399,
                    "sims": 0.6400799560523072
                },
                {
                    "id": 12230059201,
                    "tags": {
                        "shop": "bakery"
                    },
                    "distance": 3621.17726875,
                    "sims": 0.6400799560523072
                },
                {
                    "id": 10183104123,
                    "tags": {
                        "shop": "bakery"
                    },
                    "distance": 4028.27445026,
                    "sims": 0.6400799560523072
                },
                {
                    "id": 4867092167,
                    "tags": {
                        "shop": "bakery"
                    },
                    "distance": 6149.66066299,
                    "sims": 0.6400799560523072
                },
                {
                    "id": 4867092166,
                    "tags": {
                        "shop": "bakery"
                    },
                    "distance": 6216.007404,
                    "sims": 0.6400799560523072
                }
            ]
        },
        "44": {
            "execution_time": 0.20136475563049316,
            "results": [
                {
                    "id": 11038649325,
                    "tags": {
                        "amenity": "bicycle_rental"
                    },
                    "distance": 8674.85276561,
                    "sims": 0.7031019781681891
                },
                {
                    "id": 4179343220,
                    "tags": {
                        "amenity": "bicycle_rental"
                    },
                    "distance": 10947.47546069,
                    "sims": 0.7031019781681891
                },
                {
                    "id": 11047659322,
                    "tags": {
                        "amenity": "bicycle_rental"
                    },
                    "distance": 17496.28865483,
                    "sims": 0.7031019781681891
                },
                {
                    "id": 9983964791,
                    "tags": {
                        "shop": "rental",
                        "bicycle_rental": "shop"
                    },
                    "distance": 18137.90423455,
                    "sims": 0.6810754157394715
                },
                {
                    "id": 9983926708,
                    "tags": {
                        "shop": "rental",
                        "bicycle_rental": "shop"
                    },
                    "distance": 18185.88688172,
                    "sims": 0.6810754157394715
                },
                {
                    "id": 9990575240,
                    "tags": {
                        "shop": "rental",
                        "bicycle_rental": "shop"
                    },
                    "distance": 18198.07051275,
                    "sims": 0.6810754157394715
                },
                {
                    "id": 9983822663,
                    "tags": {
                        "shop": "rental",
                        "bicycle_rental": "shop"
                    },
                    "distance": 18211.9834858,
                    "sims": 0.6810754157394715
                },
                {
                    "id": 9994973786,
                    "tags": {
                        "shop": "rental",
                        "bicycle_rental": "shop"
                    },
                    "distance": 18285.26787976,
                    "sims": 0.6810754157394715
                },
                {
                    "id": 10034060474,
                    "tags": {
                        "amenity": "bicycle_rental",
                        "check_date": "2022-09-18"
                    },
                    "distance": 4239.90833681,
                    "sims": 0.6197403812099002
                },
                {
                    "id": 9980505745,
                    "tags": {
                        "shop": "rental",
                        "amenity": "bicycle_rental",
                        "bicycle_rental": "shop"
                    },
                    "distance": 18071.73622324,
                    "sims": 0.6154777728733106
                }
            ]
        },
        "45": {
            "execution_time": 0.20401859283447266,
            "results": [
                {
                    "id": 7040747585,
                    "tags": {
                        "shop": "jewelry",
                        "name:en": "Jewelry Street"
                    },
                    "distance": 819.8657438,
                    "sims": 0.7583725802495522
                },
                {
                    "id": 5481073723,
                    "tags": {
                        "name": "Akcazz",
                        "shop": "jewelry"
                    },
                    "distance": 4221.05383576,
                    "sims": 0.731196543217768
                },
                {
                    "id": 8742570062,
                    "tags": {
                        "name": "Akdeniz Diamond",
                        "shop": "jewelry"
                    },
                    "distance": 14320.56542185,
                    "sims": 0.7149424210362689
                },
                {
                    "id": 11296162137,
                    "tags": {
                        "name": "Silver World",
                        "shop": "jewelry"
                    },
                    "distance": 5785.38628154,
                    "sims": 0.7118816638345844
                },
                {
                    "id": 6383694893,
                    "tags": {
                        "name": "Sa-do",
                        "shop": "jewelry"
                    },
                    "distance": 10187.25492444,
                    "sims": 0.7113855917267078
                },
                {
                    "id": 3660214035,
                    "tags": {
                        "name": "Euro Diamond",
                        "shop": "jewelry"
                    },
                    "distance": 1794.01830737,
                    "sims": 0.7070080319023351
                },
                {
                    "id": 7740544849,
                    "tags": {
                        "name": "Fancy",
                        "shop": "jewelry"
                    },
                    "distance": 10464.79583874,
                    "sims": 0.7069956937445436
                },
                {
                    "id": 9529590551,
                    "tags": {
                        "name": "16.10",
                        "shop": "jewelry"
                    },
                    "distance": 6239.74538022,
                    "sims": 0.6878289728572873
                },
                {
                    "id": 5674783321,
                    "tags": {
                        "name": "Has-er",
                        "shop": "jewelry"
                    },
                    "distance": 1309.73879237,
                    "sims": 0.6810022947185655
                },
                {
                    "id": 9452691490,
                    "tags": {
                        "name": "Cihangir Gold",
                        "shop": "jewelry"
                    },
                    "distance": 8284.04782709,
                    "sims": 0.6786536744467038
                }
            ]
        },
        "46": {
            "execution_time": 0.20153188705444336,
            "results": [
                {
                    "id": 6850778494,
                    "tags": {
                        "shop": "seafood"
                    },
                    "distance": 2025.27897752,
                    "sims": 0.5629024637800111
                },
                {
                    "id": 5881179786,
                    "tags": {
                        "shop": "seafood"
                    },
                    "distance": 3567.60112358,
                    "sims": 0.5629024637800111
                },
                {
                    "id": 10009210717,
                    "tags": {
                        "shop": "seafood"
                    },
                    "distance": 5210.44288632,
                    "sims": 0.5629024637800111
                },
                {
                    "id": 6925191878,
                    "tags": {
                        "shop": "seafood"
                    },
                    "distance": 12593.44906901,
                    "sims": 0.5629024637800111
                },
                {
                    "id": 5602066022,
                    "tags": {
                        "name": "Salash Fish",
                        "amenity": "cafe"
                    },
                    "distance": 3554.23636661,
                    "sims": 0.4983950101115353
                },
                {
                    "id": 9950496925,
                    "tags": {
                        "name": "I Love Fish",
                        "amenity": "fast_food"
                    },
                    "distance": 382.76977535,
                    "sims": 0.4782375136029403
                },
                {
                    "id": 11950429282,
                    "tags": {
                        "amenity": "restaurant",
                        "cuisine": "seafood"
                    },
                    "distance": 13158.15968034,
                    "sims": 0.46563438922618583
                },
                {
                    "id": 5859877385,
                    "tags": {
                        "amenity": "restaurant",
                        "name:en": "Fish & meat house"
                    },
                    "distance": 2143.35760761,
                    "sims": 0.45536736239831144
                },
                {
                    "id": 12510989035,
                    "tags": {
                        "name": "Natural Fish Kebap",
                        "amenity": "restaurant",
                        "check_date": "2025-01-17"
                    },
                    "distance": 1953.88089231,
                    "sims": 0.4446416696794788
                },
                {
                    "id": 7896642785,
                    "tags": {
                        "name": "Saltanat fish & kebab house",
                        "amenity": "restaurant"
                    },
                    "distance": 4417.2072373,
                    "sims": 0.44346394771652853
                }
            ]
        },
        "47": {
            "execution_time": 0.19929003715515137,
            "results": [
                {
                    "id": 5113486810,
                    "tags": {
                        "name": "\u0130stanbul \u00dcniversitesi Rekt\u00f6rl\u00fc\u011f\u00fc K\u00fct\u00fcphane Ve Dok\u00fcmantasyon Daire Ba\u015fkanl\u0131\u011f\u0131",
                        "amenity": "university",
                        "name:ar": "\u062c\u0627\u0645\u0639\u0629 \u0627\u0633\u0637\u0646\u0628\u0648\u0644 \u0631\u064a\u062a\u0648\u0631\u0644\u0648\u063a\u0648 \u0643\u0648\u062a\u0628\u0647\u0627\u0646\u0647 \u0641\u064a \u062f\u0648\u0643\u0648\u0646\u0645\u0627\u0646\u062a\u0627\u0633\u064a\u0648\u0646 \u062f\u0627\u064a\u0631\u0647 \u0628\u0627\u0634\u0643\u0627\u0646\u0644\u064a\u063a\u064a",
                        "name:en": "Directorate of Library and Documentation Department, Istanbul University",
                        "addr:city": "Istanbul",
                        "addr:street": "\u0130stanbul \u00fcniversitesi"
                    },
                    "distance": 1970.06940403,
                    "sims": 0.7857724534665783
                },
                {
                    "id": 12352274168,
                    "tags": {
                        "name": "\u0130stanbul Kitap\u00e7\u0131s\u0131",
                        "shop": "books"
                    },
                    "distance": 1232.99405731,
                    "sims": 0.7668901632562526
                },
                {
                    "id": 8520268925,
                    "tags": {
                        "name": "\u0130stanbul Medeniyet \u00dcniversitesi Ziraat Bankas\u0131 K\u00fct\u00fcphanesi",
                        "amenity": "library"
                    },
                    "distance": 8831.24026067,
                    "sims": 0.7253367573424301
                },
                {
                    "id": 5112732267,
                    "tags": {
                        "name": "\u0130stanbul \u00dcniversitesi Edebiyat Fak\u00fcltesi",
                        "email": "edebiyatdekan@istanbul.edu.tr",
                        "amenity": "university",
                        "name:ar": "\u0643\u0644\u064a\u0629 \u0627\u0644\u0623\u062f\u0628\u064a\u0627\u062a \u062c\u0627\u0645\u0639\u0629 \u0627\u0633\u0637\u0646\u0628\u0648\u0644",
                        "name:en": "Istanbul University Faculty of Letters",
                        "name:ru": "\u0424\u0438\u043b\u043e\u0441\u043e\u0444\u0441\u043a\u0438\u0439 \u0444\u0430\u043a\u0443\u043b\u044c\u0442\u0435\u0442 \u0421\u0442\u0430\u043c\u0431\u0443\u043b\u044c\u0441\u043a\u043e\u0433\u043e \u0443\u043d\u0438\u0432\u0435\u0440\u0441\u0438\u0442\u0435\u0442\u0430",
                        "website": "https://edebiyat.istanbul.edu.tr/",
                        "addr:city": "Istanbul",
                        "addr:street": "Ordu Caddesi",
                        "addr:district": "Fatih",
                        "addr:housenumber": "02124555700"
                    },
                    "distance": 2344.30903336,
                    "sims": 0.7147371215883332
                },
                {
                    "id": 6918791985,
                    "tags": {
                        "name": "Istanbul Ara\u015ft\u0131rmalar\u0131 Enstit\u00fcs\u00fc",
                        "amenity": "library",
                        "name:en": "Istanbul Research Institute",
                        "website": "https://www.iae.org.tr/"
                    },
                    "distance": 537.12709476,
                    "sims": 0.7045263681882381
                },
                {
                    "id": 5110342216,
                    "tags": {
                        "fee": "no",
                        "name": "AUZEF \u0130stanbul \u00fcniversitesi",
                        "phone": "(0212) 440 00 44",
                        "amenity": "university",
                        "name:ar": "\u0627\u0633\u0637\u0646\u0628\u0648\u0644 \u064a\u0648\u0646\u064a\u0641\u064a\u0631\u0633\u064a\u062a\u064a",
                        "addr:city": "Istanbul",
                        "addr:street": "Bozdo\u011fan kemeri caddesi"
                    },
                    "distance": 2097.99597885,
                    "sims": 0.696252765916538
                },
                {
                    "id": 11828724973,
                    "tags": {
                        "name": "\u0130stanbul Kitap\u00e7\u0131s\u0131",
                        "shop": "books",
                        "website": "https://www.istanbulkitapcisi.com/",
                        "operator": "\u0130stanbul B\u00fcy\u00fck\u015fehir Belediyesi"
                    },
                    "distance": 3489.14470476,
                    "sims": 0.6947153442758744
                },
                {
                    "id": 4225653389,
                    "tags": {
                        "fee": "no",
                        "city": "\u0130stanbul",
                        "name": "\u0130stanbul \u00dcniversitesi Fen Fak\u00fcltesi",
                        "amenity": "school",
                        "district": "Fatih",
                        "addr:street": "Vidinli Tevfikpa\u015fa Caddesi"
                    },
                    "distance": 2219.80782518,
                    "sims": 0.6893764754572367
                },
                {
                    "id": 5108843366,
                    "tags": {
                        "name": "Ota\u011f K\u0131rtasiye",
                        "amenity": "library",
                        "name:ar": "\u0645\u0643\u062a\u0628\u0629 \u0623\u0648\u062a\u0627 \u0643\u0631\u062a\u0627\u0633\u064a\u0629",
                        "addr:city": "Istanbul",
                        "addr:street": "Prof. Kaz\u0131m \u0130smail G\u00fcrkan Caddesi",
                        "addr:district": "Fatih"
                    },
                    "distance": 2003.78351758,
                    "sims": 0.6876624245341827
                },
                {
                    "id": 5113599450,
                    "tags": {
                        "name": "NAR",
                        "shop": "library",
                        "name:ar": "\u0646\u0627\u0631",
                        "addr:city": "Istanbul",
                        "addr:street": "Hekimo\u011flu ali pa\u015fa Caddesi",
                        "addr:district": "Fatih"
                    },
                    "distance": 3812.66988506,
                    "sims": 0.6839293445327759
                }
            ]
        },
        "48": {
            "execution_time": 0.19905948638916016,
            "results": [
                {
                    "id": 11968450327,
                    "tags": {
                        "name": "Istanbul Tours",
                        "office": "guide",
                        "check_date": "2024-06-06"
                    },
                    "distance": 1504.09544079,
                    "sims": 0.5242655942761834
                },
                {
                    "id": 976474174,
                    "tags": {
                        "name": "Fatih Mescidi",
                        "amenity": "place_of_worship",
                        "name:ar": "\u062c\u0627\u0645\u0639 \u0627\u0644\u0641\u0627\u062a\u062d",
                        "religion": "muslim",
                        "wikidata": "Q756189",
                        "wikipedia": "en:Fatih Mosque, Istanbul",
                        "wikimedia_commons": "Category:Fatih Mosque"
                    },
                    "distance": 10071.05977152,
                    "sims": 0.5053302927821441
                },
                {
                    "id": 5115935414,
                    "tags": {
                        "name": "\u015eeyh Seyyid Seyfullah Hz.",
                        "landuse": "cemetery",
                        "name:ar": "\u0642\u0628\u0631 \u0627\u0644\u0634\u064a\u062e \u0633\u064a\u062f \u0633\u064a\u0641 \u0627\u0644\u0644\u0647",
                        "cemetery": "grave",
                        "historic": "tomb",
                        "religion": "muslim",
                        "denomination": "sunni"
                    },
                    "distance": 3824.48894747,
                    "sims": 0.48876348606681597
                },
                {
                    "id": 12768472401,
                    "tags": {
                        "name": "Padi\u015fah Mahfili - Yeni Cami",
                        "name:en": "Sultans Pavillion - the new Mosque",
                        "historic": "castle",
                        "addr:street": "Bankacilar 1"
                    },
                    "distance": 547.29166646,
                    "sims": 0.4831893504181156
                },
                {
                    "id": 12102726893,
                    "tags": {
                        "name": "Ticket office for The Hagia Sophia Grand Mosque",
                        "shop": "ticket"
                    },
                    "distance": 856.44534024,
                    "sims": 0.47963971627725466
                },
                {
                    "id": 5113592202,
                    "tags": {
                        "name": "Molla Gorani Hazretlerinin Kabri",
                        "name:ar": "\u0642\u0628\u0631 \u0627\u0644\u0645\u0644\u0627 \u063a\u0648\u0631\u0627\u0646\u064a",
                        "historic": "tomb",
                        "religion": "muslim",
                        "denomination": "sunni"
                    },
                    "distance": 2597.67320075,
                    "sims": 0.4733072018717108
                },
                {
                    "id": 12730717459,
                    "tags": {
                        "amenity": "place_of_worship",
                        "religion": "muslim",
                        "check_date": "2025-04-05"
                    },
                    "distance": 904.30105689,
                    "sims": 0.4675340470550191
                },
                {
                    "id": 5244801916,
                    "tags": {
                        "name": "Blue Mosque Apart",
                        "name:ar": "\u0628\u0644\u0648 \u0645\u0648\u0633\u0643 \u0623\u0628\u0627\u0631\u062a \u0645\u0648\u062a\u064a\u0644",
                        "tourism": "motel",
                        "addr:city": "Istanbul",
                        "addr:street": "Mustafa Pa\u015fa Sokak",
                        "addr:district": "Fatih",
                        "operator:type": "private"
                    },
                    "distance": 1029.6108796,
                    "sims": 0.4561273152411187
                },
                {
                    "id": 1473034819,
                    "tags": {
                        "name": "Anatolia Suites Sultanahmet",
                        "name:ar": "\u0633\u0644\u0637\u0627\u0646 \u0623\u062d\u0645\u062f \u0623\u0646\u062a\u0648\u0644\u064a\u0627 \u0633\u064a\u0648\u062a",
                        "tourism": "hotel"
                    },
                    "distance": 1008.1014522,
                    "sims": 0.4516569087438327
                },
                {
                    "id": 2524535697,
                    "tags": {
                        "name": "Sultan Ahmet Palace",
                        "email": "info@sultanahmetpalace.com",
                        "phone": "+902124580460",
                        "name:ar": "\u0642\u0635\u0631 \u0633\u0644\u0637\u0627\u0646 \u0623\u062d\u0645\u062f",
                        "name:zh": "\u82cf\u4e39\u963f\u5408\u9ea6\u7279\u5bab\u6bbf\u9152\u5e97",
                        "tourism": "hotel",
                        "website": "https://www.sultanahmetpalace.com/",
                        "wikidata": "Q111856837"
                    },
                    "distance": 971.86184448,
                    "sims": 0.4508733597775614
                }
            ]
        },
        "49": {
            "execution_time": 0.1973283290863037,
            "results": [
                {
                    "id": 5385351123,
                    "tags": {
                        "name": "imes petrol 089",
                        "amenity": "fuel"
                    },
                    "distance": 15190.84103005,
                    "sims": 0.43337325256269543
                },
                {
                    "id": 9549151422,
                    "tags": {
                        "name": "Petrol Ofisi",
                        "brand": "Petrol Ofisi",
                        "phone": "+90 533 053 5469",
                        "branch": "Ey\u00fcpsultan",
                        "amenity": "fuel",
                        "operator": "Minapet Petrol",
                        "addr:city": "\u0130stanbul",
                        "addr:street": "Ey\u00fcp Sultan Bulvar\u0131",
                        "addr:district": "Ey\u00fcpsultan",
                        "addr:postcode": "34055",
                        "brand:wikidata": "Q1278087",
                        "brand:wikipedia": "en:Petrol Ofisi",
                        "addr:housenumber": "38",
                        "addr:neighbourhood": "Top\u00e7ular"
                    },
                    "distance": 5279.37291534,
                    "sims": 0.42818621212945773
                },
                {
                    "id": 4699018077,
                    "tags": {
                        "name": "Petrol Ofisi",
                        "brand": "Petrol Ofisi",
                        "amenity": "fuel",
                        "website": "https://www.petrolofisi.com.tr/",
                        "fuel:lpg": "yes",
                        "operator": "Petrol Ofisi",
                        "addr:city": "\u0130stanbul",
                        "addr:street": "Libadiye Caddesi",
                        "contact:fax": "+90 2163284441",
                        "fuel:diesel": "yes",
                        "addr:country": "TR",
                        "payment:cash": "yes",
                        "addr:district": "\u00dcsk\u00fcdar",
                        "addr:postcode": "34696",
                        "contact:phone": "+90 5302429181",
                        "brand:wikidata": "Q1278087",
                        "compressed_air": "yes",
                        "fuel:octane_95": "yes",
                        "brand:wikipedia": "en:Petrol Ofisi",
                        "addr:housenumber": "43",
                        "addr:neighbourhood": "Bulgurlu Mahallesi",
                        "payment:debit_cards": "yes",
                        "payment:credit_cards": "yes"
                    },
                    "distance": 7677.86643612,
                    "sims": 0.40972382120011475
                },
                {
                    "id": 9549600017,
                    "tags": {
                        "name": "Petrol Ofisi",
                        "brand": "Petrol Ofisi",
                        "phone": "+90 554 240 5564",
                        "branch": "Mesah Petrol",
                        "source": "bing",
                        "amenity": "fuel",
                        "operator": "Mesah Petrol",
                        "addr:city": "\u0130stanbul",
                        "addr:street": "Eski Edirne Asfalt\u0131",
                        "addr:district": "Sultangazi",
                        "addr:postcode": "34265",
                        "brand:wikidata": "Q1278087",
                        "brand:wikipedia": "en:Petrol Ofisi",
                        "addr:housenumber": "456",
                        "addr:neighbourhood": "50. Y\u0131l"
                    },
                    "distance": 11759.6194052,
                    "sims": 0.39858293469978867
                },
                {
                    "id": 11586254469,
                    "tags": {
                        "name": "Petrol Ofisi",
                        "brand": "Petrol Ofisi",
                        "branch": "Otogar G\u00fcney",
                        "amenity": "fuel",
                        "operator": "Petrol Ofisi",
                        "addr:city": "\u0130stanbul",
                        "addr:district": "Bayrampa\u015fa",
                        "addr:postcode": "34035",
                        "brand:wikidata": "Q1278087",
                        "addr:neighbourhood": "Alt\u0131ntepsi"
                    },
                    "distance": 7945.90187808,
                    "sims": 0.38813215140469814
                },
                {
                    "id": 4530325789,
                    "tags": {
                        "name:en": "Esra Sultan Petrol Hotel",
                        "tourism": "hotel"
                    },
                    "distance": 2796.77348793,
                    "sims": 0.3867533696008105
                },
                {
                    "id": 9308547296,
                    "tags": {
                        "name": "Petrol Ofisi",
                        "brand": "Petrol Ofisi",
                        "amenity": "fuel",
                        "fuel:diesel": "yes",
                        "opening_hours": "24/7",
                        "brand:wikidata": "Q1278087",
                        "fuel:octane_95": "yes"
                    },
                    "distance": 7238.04268008,
                    "sims": 0.38505706208176915
                },
                {
                    "id": 6594719428,
                    "tags": {
                        "name": "Petrol Ofisi",
                        "brand": "Petrol Ofisi",
                        "amenity": "fuel",
                        "addr:city": "Sultangazi/\u0130stanbul",
                        "brand:wikidata": "Q1278087",
                        "brand:wikipedia": "en:Petrol Ofisi"
                    },
                    "distance": 13304.65668269,
                    "sims": 0.38112138430647335
                },
                {
                    "id": 4699018244,
                    "tags": {
                        "name": "Petrol Ofisi",
                        "brand": "Petrol Ofisi",
                        "source": "Yellow Pages T\u00fcrkiye",
                        "amenity": "fuel",
                        "website": "https://www.opet.com.tr/",
                        "fuel:lpg": "yes",
                        "operator": "Opet Petrolc\u00fcl\u00fck A.\u015e.",
                        "addr:city": "\u0130stanbul",
                        "addr:street": "T\u0131bbiye Caddesi At\u00f6lyeler Sokak",
                        "fuel:diesel": "yes",
                        "addr:country": "TR",
                        "addr:district": "\u00dcsk\u00fcdar",
                        "addr:postcode": "34668",
                        "contact:phone": "+90 2163107452",
                        "brand:wikidata": "Q1278087",
                        "compressed_air": "yes",
                        "brand:wikipedia": "en:Petrol Ofisi",
                        "addr:housenumber": "10",
                        "fuel:euro_diesel": "yes",
                        "addr:neighbourhood": "Selimiye Mahallesi"
                    },
                    "distance": 3915.34359499,
                    "sims": 0.38084391748355073
                },
                {
                    "id": 11586254470,
                    "tags": {
                        "name": "Petrol Ofisi",
                        "brand": "Petrol Ofisi",
                        "branch": "Otogar Kuzey",
                        "amenity": "fuel",
                        "operator": "Petrol Ofisi",
                        "addr:city": "\u0130stanbul",
                        "addr:district": "Bayrampa\u015fa",
                        "addr:postcode": "34035",
                        "opening_hours": "24/7",
                        "brand:wikidata": "Q1278087",
                        "addr:neighbourhood": "Alt\u0131ntepsi"
                    },
                    "distance": 7836.94978587,
                    "sims": 0.3799266981816647
                }
            ]
        }
    }
}