{
    "insertion_time": 26.851596117019653,
    "index_creation": {
        "func": [
            "CREATE INDEX IF NOT EXISTS idx_pois_embedding ON PoIs USING hnsw (embedding vector_cosine_ops) WITH (m = 16, ef_construction = 64);"
        ],
        "time": 12.556665897369385
    },
    "query_results": {
        "0": {
            "execution_time": 0.2832345962524414,
            "results": [
                {
                    "id": 12419856873,
                    "tags": {
                        "addr:street": "Gymkhana Court",
                        "addr:housenumber": "7"
                    },
                    "distance": 11474.91456652,
                    "sims": 0.8310794427584509
                },
                {
                    "id": 612940805,
                    "tags": {
                        "amenity": "toilets"
                    },
                    "distance": 19174.56346593,
                    "sims": 0.8307739340354804
                },
                {
                    "id": 12419856213,
                    "tags": {
                        "addr:street": "Gymkhana Court",
                        "addr:housenumber": "28"
                    },
                    "distance": 11798.84615065,
                    "sims": 0.8305854292468648
                },
                {
                    "id": 9195015975,
                    "tags": {
                        "covered": "no",
                        "leisure": "picnic_table"
                    },
                    "distance": 7170.2964768,
                    "sims": 0.8287710241266304
                },
                {
                    "id": 5417586389,
                    "tags": {
                        "leisure": "picnic_table"
                    },
                    "distance": 16007.26983942,
                    "sims": 0.8281829049914677
                },
                {
                    "id": 1982367994,
                    "tags": {
                        "addr:street": "Beryl Court",
                        "addr:postcode": "3805",
                        "addr:housenumber": "1"
                    },
                    "distance": 16813.86588041,
                    "sims": 0.8279155329239488
                },
                {
                    "id": 9419810176,
                    "tags": {
                        "leisure": "picnic_table"
                    },
                    "distance": 7871.91452848,
                    "sims": 0.8277735998226057
                },
                {
                    "id": 2011935877,
                    "tags": {
                        "addr:street": "Constance Court",
                        "addr:postcode": "3805",
                        "addr:housenumber": "10"
                    },
                    "distance": 17250.16751918,
                    "sims": 0.8273622578054324
                },
                {
                    "id": 6629289734,
                    "tags": {
                        "leisure": "picnic_table"
                    },
                    "distance": 11785.45100106,
                    "sims": 0.826722510672377
                },
                {
                    "id": 9234201695,
                    "tags": {
                        "leisure": "picnic_table"
                    },
                    "distance": 20069.13215792,
                    "sims": 0.8253040143172959
                }
            ]
        },
        "1": {
            "execution_time": 0.18451356887817383,
            "results": [
                {
                    "id": 2188972996,
                    "tags": {
                        "shop": "greengrocer"
                    },
                    "distance": 6196.60442704,
                    "sims": 0.9351525152093474
                },
                {
                    "id": 12414333436,
                    "tags": {
                        "addr:street": "Stables Circuit",
                        "addr:housenumber": "23"
                    },
                    "distance": 8960.12932103,
                    "sims": 0.8964970461123355
                },
                {
                    "id": 12413677175,
                    "tags": {
                        "addr:street": "Greenside Circuit",
                        "addr:housenumber": "38"
                    },
                    "distance": 10199.24090594,
                    "sims": 0.8957509745958045
                },
                {
                    "id": 12413677187,
                    "tags": {
                        "addr:street": "Greenside Circuit",
                        "addr:housenumber": "47"
                    },
                    "distance": 10168.57251686,
                    "sims": 0.8949598090243022
                },
                {
                    "id": 12414304696,
                    "tags": {
                        "addr:street": "Leafy Circuit",
                        "addr:housenumber": "29"
                    },
                    "distance": 3676.33361107,
                    "sims": 0.8945966174477648
                },
                {
                    "id": 12414333437,
                    "tags": {
                        "addr:street": "Stables Circuit",
                        "addr:housenumber": "21"
                    },
                    "distance": 8948.86935618,
                    "sims": 0.8944445000754849
                },
                {
                    "id": 12414334935,
                    "tags": {
                        "addr:street": "Kosciuszko Circuit",
                        "addr:housenumber": "12"
                    },
                    "distance": 5433.83579903,
                    "sims": 0.8943679739895217
                },
                {
                    "id": 12414333440,
                    "tags": {
                        "addr:street": "Stables Circuit",
                        "addr:housenumber": "9"
                    },
                    "distance": 8888.49350976,
                    "sims": 0.8942408309557289
                },
                {
                    "id": 12420338840,
                    "tags": {
                        "addr:street": "Mindful Circuit",
                        "addr:housenumber": "30"
                    },
                    "distance": 6590.2601544,
                    "sims": 0.8932122929602622
                },
                {
                    "id": 12420338937,
                    "tags": {
                        "addr:street": "Mindful Circuit",
                        "addr:housenumber": "39"
                    },
                    "distance": 6689.08491446,
                    "sims": 0.8929115278510176
                }
            ]
        },
        "2": {
            "execution_time": 0.1885693073272705,
            "results": [
                {
                    "id": 9053523110,
                    "tags": {
                        "building": "yes",
                        "addr:street": "Mcdonald Crescent",
                        "addr:housenumber": "31"
                    },
                    "distance": 9096.26312416,
                    "sims": 0.8031476017998902
                },
                {
                    "id": 12331649288,
                    "tags": {
                        "building": "yes",
                        "addr:street": "McDermott Avenue",
                        "addr:housenumber": "46"
                    },
                    "distance": 5020.43030118,
                    "sims": 0.8003021120664997
                },
                {
                    "id": 12419850891,
                    "tags": {
                        "addr:street": "Kerr Crescent",
                        "addr:housenumber": "52-52A"
                    },
                    "distance": 8899.11029462,
                    "sims": 0.7982537390883336
                },
                {
                    "id": 7941418669,
                    "tags": {
                        "building": "yes",
                        "addr:street": "Evans Drive",
                        "addr:housenumber": "34"
                    },
                    "distance": 3589.59226729,
                    "sims": 0.7978939299836326
                },
                {
                    "id": 8189094659,
                    "tags": {
                        "building": "yes",
                        "addr:street": "Grandview Avenue",
                        "addr:housenumber": "28"
                    },
                    "distance": 1993.1751544,
                    "sims": 0.7941365487412808
                },
                {
                    "id": 12187686709,
                    "tags": {
                        "building": "yes",
                        "addr:street": "Hazel Grove",
                        "addr:housenumber": "54"
                    },
                    "distance": 15283.47243649,
                    "sims": 0.7932066208237538
                },
                {
                    "id": 4384881981,
                    "tags": {
                        "building": "yes",
                        "addr:street": "Industrial Park Drive",
                        "addr:housenumber": "52"
                    },
                    "distance": 8799.07390437,
                    "sims": 0.7919227368900801
                },
                {
                    "id": 4384493518,
                    "tags": {
                        "building": "yes",
                        "addr:street": "Gibbs Road",
                        "addr:housenumber": "16"
                    },
                    "distance": 9241.69554246,
                    "sims": 0.791645670933053
                },
                {
                    "id": 9033901327,
                    "tags": {
                        "building": "yes",
                        "addr:street": "Lyons Road",
                        "addr:housenumber": "23"
                    },
                    "distance": 2874.25296216,
                    "sims": 0.791482592644388
                },
                {
                    "id": 4166879078,
                    "tags": {
                        "building": "yes",
                        "addr:street": "Esther Crescent",
                        "addr:housenumber": "93"
                    },
                    "distance": 4003.07533651,
                    "sims": 0.7913105140554348
                }
            ]
        },
        "3": {
            "execution_time": 0.18126296997070312,
            "results": [
                {
                    "id": 12417712458,
                    "tags": {
                        "addr:street": "Bondi Parade",
                        "addr:housenumber": "37"
                    },
                    "distance": 9312.67006959,
                    "sims": 0.7940318356695821
                },
                {
                    "id": 12417712447,
                    "tags": {
                        "addr:street": "Bondi Parade",
                        "addr:housenumber": "51"
                    },
                    "distance": 9232.28710124,
                    "sims": 0.793960381994179
                },
                {
                    "id": 12420055102,
                    "tags": {
                        "addr:street": "Bondi Parade",
                        "addr:housenumber": "94"
                    },
                    "distance": 8948.0856195,
                    "sims": 0.7926198738527824
                },
                {
                    "id": 12420055110,
                    "tags": {
                        "addr:street": "Bondi Parade",
                        "addr:housenumber": "124"
                    },
                    "distance": 9093.79158325,
                    "sims": 0.7921235809179359
                },
                {
                    "id": 12417712454,
                    "tags": {
                        "addr:street": "Bondi Parade",
                        "addr:housenumber": "45"
                    },
                    "distance": 9272.1719459,
                    "sims": 0.7909652021631123
                },
                {
                    "id": 12419672475,
                    "tags": {
                        "addr:street": "Myers Parade",
                        "addr:housenumber": "52"
                    },
                    "distance": 6871.60936672,
                    "sims": 0.7886687550936006
                },
                {
                    "id": 12420055113,
                    "tags": {
                        "addr:street": "Bondi Parade",
                        "addr:housenumber": "132"
                    },
                    "distance": 9132.69940198,
                    "sims": 0.7878902698984462
                },
                {
                    "id": 12419671930,
                    "tags": {
                        "addr:street": "Kensington Crescent",
                        "addr:housenumber": "11"
                    },
                    "distance": 7132.186066,
                    "sims": 0.7870532058978658
                },
                {
                    "id": 12419671386,
                    "tags": {
                        "addr:street": "Kensington Crescent",
                        "addr:housenumber": "18"
                    },
                    "distance": 7048.1739729,
                    "sims": 0.7865410828815304
                },
                {
                    "id": 12412466010,
                    "tags": {
                        "addr:street": "Kensington Crescent",
                        "addr:housenumber": "20"
                    },
                    "distance": 7051.89745474,
                    "sims": 0.7858479533558227
                }
            ]
        },
        "4": {
            "execution_time": 0.18520355224609375,
            "results": [
                {
                    "id": 12417712447,
                    "tags": {
                        "addr:street": "Bondi Parade",
                        "addr:housenumber": "51"
                    },
                    "distance": 12842.6233819,
                    "sims": 0.7901120185852051
                },
                {
                    "id": 12417712458,
                    "tags": {
                        "addr:street": "Bondi Parade",
                        "addr:housenumber": "37"
                    },
                    "distance": 12840.51435268,
                    "sims": 0.789764093742616
                },
                {
                    "id": 12420055110,
                    "tags": {
                        "addr:street": "Bondi Parade",
                        "addr:housenumber": "124"
                    },
                    "distance": 12512.51606114,
                    "sims": 0.7876240953951051
                },
                {
                    "id": 12420055102,
                    "tags": {
                        "addr:street": "Bondi Parade",
                        "addr:housenumber": "94"
                    },
                    "distance": 12513.8505395,
                    "sims": 0.7870298027992249
                },
                {
                    "id": 12417712454,
                    "tags": {
                        "addr:street": "Bondi Parade",
                        "addr:housenumber": "45"
                    },
                    "distance": 12840.6510888,
                    "sims": 0.786397171831301
                },
                {
                    "id": 12414997584,
                    "tags": {
                        "addr:street": "Gleesons Road",
                        "addr:housenumber": "34-48"
                    },
                    "distance": 13731.2524681,
                    "sims": 0.7845253944396973
                },
                {
                    "id": 12417715955,
                    "tags": {
                        "addr:street": "McMurray Crescent",
                        "addr:housenumber": "57"
                    },
                    "distance": 5291.95660943,
                    "sims": 0.7843257188796997
                },
                {
                    "id": 12420055113,
                    "tags": {
                        "addr:street": "Bondi Parade",
                        "addr:housenumber": "132"
                    },
                    "distance": 12512.77868543,
                    "sims": 0.7834071750464197
                },
                {
                    "id": 12419672475,
                    "tags": {
                        "addr:street": "Myers Parade",
                        "addr:housenumber": "52"
                    },
                    "distance": 12729.01909612,
                    "sims": 0.7823931704525264
                },
                {
                    "id": 12417704590,
                    "tags": {
                        "addr:street": "Villiers Drive",
                        "addr:housenumber": "54"
                    },
                    "distance": 8314.28754522,
                    "sims": 0.7812509536743164
                }
            ]
        },
        "5": {
            "execution_time": 0.17559027671813965,
            "results": [
                {
                    "id": 11142834341,
                    "tags": {
                        "amenity": "bicycle_repair_station"
                    },
                    "distance": 5589.5517525,
                    "sims": 0.962797246562864
                },
                {
                    "id": 6573488928,
                    "tags": {
                        "fee": "no",
                        "brand": "Fixation Public Work Stand",
                        "amenity": "bicycle_repair_station",
                        "operator": "Darebin City Council",
                        "opening_hours": "24/7",
                        "service:bicycle:pump": "yes",
                        "service:bicycle:stand": "yes",
                        "service:bicycle:tools": "yes"
                    },
                    "distance": 3490.90451924,
                    "sims": 0.944859168657547
                },
                {
                    "id": 4681176375,
                    "tags": {
                        "amenity": "bicycle_repair_station"
                    },
                    "distance": 8593.50466057,
                    "sims": 0.9427724097330094
                },
                {
                    "id": 6017200213,
                    "tags": {
                        "amenity": "bicycle_parking"
                    },
                    "distance": 3955.41007321,
                    "sims": 0.9196938132692307
                },
                {
                    "id": 10261553054,
                    "tags": {
                        "amenity": "bicycle_parking",
                        "covered": "no",
                        "capacity": "22",
                        "bicycle_parking": "stands"
                    },
                    "distance": 6772.60499148,
                    "sims": 0.9178113194366734
                },
                {
                    "id": 2017401834,
                    "tags": {
                        "amenity": "bicycle_parking",
                        "covered": "no",
                        "capacity": "12",
                        "check_date": "2023-09-23",
                        "bicycle_parking": "stands"
                    },
                    "distance": 8037.40071543,
                    "sims": 0.9156776465601094
                },
                {
                    "id": 1288593589,
                    "tags": {
                        "amenity": "bicycle_parking",
                        "capacity": "3",
                        "bicycle_parking": "stands"
                    },
                    "distance": 7052.64900289,
                    "sims": 0.9153152330501785
                },
                {
                    "id": 6017200135,
                    "tags": {
                        "amenity": "bicycle_parking",
                        "covered": "no",
                        "bicycle_parking": "stands"
                    },
                    "distance": 3705.48930412,
                    "sims": 0.9149460963824636
                },
                {
                    "id": 6017236264,
                    "tags": {
                        "amenity": "bicycle_parking",
                        "covered": "no",
                        "capacity": "2",
                        "bicycle_parking": "stands"
                    },
                    "distance": 4522.76513338,
                    "sims": 0.9142435312183154
                },
                {
                    "id": 9159664922,
                    "tags": {
                        "amenity": "bicycle_parking",
                        "covered": "no",
                        "bicycle_parking": "stands"
                    },
                    "distance": 4356.81665536,
                    "sims": 0.9125432487667461
                }
            ]
        },
        "6": {
            "execution_time": 0.181318998336792,
            "results": [
                {
                    "id": 1825011577,
                    "tags": {
                        "name": "Del Monte's Pizzeria",
                        "phone": "+61 3 9481 6238",
                        "amenity": "restaurant",
                        "cuisine": "pizza",
                        "website": "https://www.delmontespizzeria.com.au/",
                        "takeaway": "yes",
                        "addr:street": "Queens Parade",
                        "opening_hours": "We-Su 17:00-21:00; Mo-Tu closed",
                        "addr:housenumber": "157"
                    },
                    "distance": 6021.08689652,
                    "sims": 0.7890019870702685
                },
                {
                    "id": 12418145600,
                    "tags": {
                        "addr:street": "Alexandra Parade",
                        "addr:housenumber": "52"
                    },
                    "distance": 5674.34354733,
                    "sims": 0.7886546942364496
                },
                {
                    "id": 12410860952,
                    "tags": {
                        "addr:street": "Alexandra Parade",
                        "addr:housenumber": "175-177"
                    },
                    "distance": 5906.28875216,
                    "sims": 0.788059017907218
                },
                {
                    "id": 12418928387,
                    "tags": {
                        "addr:street": "Cole Crescent",
                        "addr:housenumber": "46"
                    },
                    "distance": 3216.98458502,
                    "sims": 0.7854594332527662
                },
                {
                    "id": 12418144684,
                    "tags": {
                        "addr:flats": "1-6",
                        "addr:street": "Alexandra Parade",
                        "addr:housenumber": "43-45"
                    },
                    "distance": 6276.42402936,
                    "sims": 0.783894070123218
                },
                {
                    "id": 12418135992,
                    "tags": {
                        "addr:street": "Alexandra Parade",
                        "addr:housenumber": "2-12"
                    },
                    "distance": 6109.38964259,
                    "sims": 0.7836676320237291
                },
                {
                    "id": 11261660483,
                    "tags": {
                        "ref": "O6-L16",
                        "name": "Bliss Essentials",
                        "shop": "gift",
                        "level": "0",
                        "wheelchair": "yes"
                    },
                    "distance": 6500.87249052,
                    "sims": 0.7827556936900193
                },
                {
                    "id": 12411720848,
                    "tags": {
                        "addr:street": "Stennis Street",
                        "addr:housenumber": "17"
                    },
                    "distance": 2181.68950331,
                    "sims": 0.7825621081310236
                },
                {
                    "id": 12418153506,
                    "tags": {
                        "addr:street": "Royal Parade",
                        "addr:housenumber": "43-49"
                    },
                    "distance": 5187.22005787,
                    "sims": 0.7819901185012201
                },
                {
                    "id": 12410859518,
                    "tags": {
                        "addr:street": "Alexandra Parade",
                        "addr:housenumber": "16"
                    },
                    "distance": 6147.76426477,
                    "sims": 0.7818529941860652
                }
            ]
        },
        "7": {
            "execution_time": 0.18571138381958008,
            "results": [
                {
                    "id": 12421168722,
                    "tags": {
                        "addr:street": "Koalas Circuit",
                        "addr:housenumber": "36"
                    },
                    "distance": 30244.08999234,
                    "sims": 0.8126679882206989
                },
                {
                    "id": 12421168723,
                    "tags": {
                        "addr:street": "Koalas Circuit",
                        "addr:housenumber": "34"
                    },
                    "distance": 30257.61124145,
                    "sims": 0.8111120687589621
                },
                {
                    "id": 12417860579,
                    "tags": {
                        "addr:street": "Thornbill Circuit",
                        "addr:housenumber": "27"
                    },
                    "distance": 21429.72311766,
                    "sims": 0.8011885999924907
                },
                {
                    "id": 12421170042,
                    "tags": {
                        "addr:street": "Terracotta Circuit",
                        "addr:housenumber": "11"
                    },
                    "distance": 31666.26411963,
                    "sims": 0.7984981777074182
                },
                {
                    "id": 12415000257,
                    "tags": {
                        "addr:street": "Wetlands Circuit",
                        "addr:housenumber": "29"
                    },
                    "distance": 24303.55857382,
                    "sims": 0.7976262810675819
                },
                {
                    "id": 12420348557,
                    "tags": {
                        "addr:street": "Creek Circuit",
                        "addr:housenumber": "39"
                    },
                    "distance": 21639.64457961,
                    "sims": 0.7970977308960886
                },
                {
                    "id": 12415000256,
                    "tags": {
                        "addr:street": "Wetlands Circuit",
                        "addr:housenumber": "31"
                    },
                    "distance": 24289.96564784,
                    "sims": 0.7948077565660824
                },
                {
                    "id": 12415000249,
                    "tags": {
                        "addr:street": "Wetlands Circuit",
                        "addr:housenumber": "9"
                    },
                    "distance": 24270.36265173,
                    "sims": 0.7929379231091298
                },
                {
                    "id": 12417447044,
                    "tags": {
                        "addr:street": "Copabella Circuit",
                        "addr:housenumber": "24"
                    },
                    "distance": 30134.05848931,
                    "sims": 0.7925626286789678
                },
                {
                    "id": 12414334589,
                    "tags": {
                        "addr:street": "Reef Circuit",
                        "addr:housenumber": "17"
                    },
                    "distance": 31466.47419072,
                    "sims": 0.7919304618918401
                }
            ]
        },
        "8": {
            "execution_time": 0.18171977996826172,
            "results": [
                {
                    "id": 700524524,
                    "tags": {
                        "name": "CAVIX",
                        "shop": "hairdresser",
                        "source": "survey"
                    },
                    "distance": 3737.38642626,
                    "sims": 0.8186068343554603
                },
                {
                    "id": 1948157042,
                    "tags": {
                        "name": "Beovich's Guardian Pharmacy",
                        "amenity": "pharmacy",
                        "healthcare": "pharmacy",
                        "attribution": "Survey"
                    },
                    "distance": 1903.24724875,
                    "sims": 0.8061775297272981
                },
                {
                    "id": 11558722697,
                    "tags": {
                        "name": "Bailey Nelson",
                        "shop": "optician",
                        "website": "https://baileynelson.com.au"
                    },
                    "distance": 13861.61299613,
                    "sims": 0.8059278459893924
                },
                {
                    "id": 5253561158,
                    "tags": {
                        "name": "Physiotherapy",
                        "healthcare": "physiotherapist"
                    },
                    "distance": 10763.07760371,
                    "sims": 0.8030471670744165
                },
                {
                    "id": 8551641400,
                    "tags": {
                        "name": "Witchery",
                        "shop": "clothes",
                        "brand": "Witchery",
                        "brand:wikidata": "Q8027909",
                        "brand:wikipedia": "en:Witchery (company)"
                    },
                    "distance": 2168.62667089,
                    "sims": 0.7998522282352268
                },
                {
                    "id": 5127953781,
                    "tags": {
                        "name": "Physio",
                        "healthcare": "physiotherapist"
                    },
                    "distance": 5207.18776123,
                    "sims": 0.7992484572910245
                },
                {
                    "id": 6019014672,
                    "tags": {
                        "name": "Patrick Smith Solicitor",
                        "office": "lawyer"
                    },
                    "distance": 5608.3874165,
                    "sims": 0.7984285719736187
                },
                {
                    "id": 3062311553,
                    "tags": {
                        "name": "Bel Air Hairdressing",
                        "shop": "hairdresser"
                    },
                    "distance": 9896.97650878,
                    "sims": 0.7972367776696264
                },
                {
                    "id": 3403667607,
                    "tags": {
                        "name": "Optometrist",
                        "shop": "optician"
                    },
                    "distance": 24769.88548491,
                    "sims": 0.7927160059376636
                },
                {
                    "id": 7802111304,
                    "tags": {
                        "name": "Camberwell",
                        "amenity": "post_office",
                        "operator": "Australia Post",
                        "operator:wikidata": "Q1142936",
                        "operator:wikipedia": "en:Australia Post"
                    },
                    "distance": 3500.12497652,
                    "sims": 0.7926540171366557
                }
            ]
        },
        "9": {
            "execution_time": 0.19176363945007324,
            "results": [
                {
                    "id": 2443742584,
                    "tags": {
                        "amenity": "toilets"
                    },
                    "distance": 11106.84969159,
                    "sims": 0.9350028270473505
                },
                {
                    "id": 623898293,
                    "tags": {
                        "amenity": "toilets"
                    },
                    "distance": 10490.03662848,
                    "sims": 0.9345500981793187
                },
                {
                    "id": 930149166,
                    "tags": {
                        "amenity": "toilets"
                    },
                    "distance": 17790.34366821,
                    "sims": 0.9091208306119437
                },
                {
                    "id": 9535616346,
                    "tags": {
                        "amenity": "toilets"
                    },
                    "distance": 32656.3881408,
                    "sims": 0.9027541031525343
                },
                {
                    "id": 2835052495,
                    "tags": {
                        "access": "yes",
                        "source": "survey",
                        "amenity": "toilets",
                        "toilets:disposal": "flush"
                    },
                    "distance": 13589.22450892,
                    "sims": 0.9017408841583527
                },
                {
                    "id": 612940805,
                    "tags": {
                        "amenity": "toilets"
                    },
                    "distance": 17366.00740995,
                    "sims": 0.8964750212066479
                },
                {
                    "id": 710382297,
                    "tags": {
                        "amenity": "toilets"
                    },
                    "distance": 13669.36855745,
                    "sims": 0.8924978163846766
                },
                {
                    "id": 710383136,
                    "tags": {
                        "amenity": "toilets"
                    },
                    "distance": 14154.10757181,
                    "sims": 0.8897856868080398
                },
                {
                    "id": 12474524491,
                    "tags": {
                        "fee": "no",
                        "amenity": "toilets",
                        "wheelchair": "yes",
                        "changing_table": "yes"
                    },
                    "distance": 18739.82069672,
                    "sims": 0.8881418508976607
                },
                {
                    "id": 11921189794,
                    "tags": {
                        "amenity": "toilets"
                    },
                    "distance": 15975.99261733,
                    "sims": 0.8783495861234323
                }
            ]
        },
        "10": {
            "execution_time": 0.18624567985534668,
            "results": [
                {
                    "id": 2668836352,
                    "tags": {
                        "name": "Edwards Sofas By Design",
                        "shop": "furniture",
                        "phone": "+61 3 9705 0655",
                        "website": "http://edwardssofasbydesign.com/",
                        "addr:street": "Victor Crescent",
                        "addr:housenumber": "94"
                    },
                    "distance": 8683.07949916,
                    "sims": 0.8045062086612303
                },
                {
                    "id": 6013955307,
                    "tags": {
                        "name": "B5"
                    },
                    "distance": 13035.89336437,
                    "sims": 0.8022505054998279
                },
                {
                    "id": 2153976522,
                    "tags": {
                        "addr:street": "Monaro Crescent",
                        "addr:postcode": "3805",
                        "addr:housenumber": "1"
                    },
                    "distance": 7030.95182493,
                    "sims": 0.7990441318054196
                },
                {
                    "id": 10687605330,
                    "tags": {
                        "building": "yes",
                        "addr:street": "Edrington Park Drive",
                        "addr:housenumber": "1"
                    },
                    "distance": 12431.66179115,
                    "sims": 0.7972381102613706
                },
                {
                    "id": 1970787935,
                    "tags": {
                        "addr:street": "Barondi Avenue",
                        "addr:postcode": "3805",
                        "addr:housenumber": "15"
                    },
                    "distance": 7041.32902309,
                    "sims": 0.7967703686591234
                },
                {
                    "id": 1970951691,
                    "tags": {
                        "addr:street": "Barondi Avenue",
                        "addr:postcode": "3805",
                        "addr:housenumber": "37"
                    },
                    "distance": 6797.91487579,
                    "sims": 0.7965643749208324
                },
                {
                    "id": 2172354807,
                    "tags": {
                        "addr:street": "Hermitage Rise",
                        "addr:postcode": "3805",
                        "addr:housenumber": "2"
                    },
                    "distance": 7564.43255984,
                    "sims": 0.795664595007246
                },
                {
                    "id": 2011948334,
                    "tags": {
                        "addr:street": "Rozzy Parade",
                        "addr:postcode": "3805",
                        "addr:housenumber": "20"
                    },
                    "distance": 7999.94864575,
                    "sims": 0.7952189187129493
                },
                {
                    "id": 2153969667,
                    "tags": {
                        "addr:street": "Wallaroo Avenue",
                        "addr:postcode": "3805",
                        "addr:housenumber": "15"
                    },
                    "distance": 6886.91268975,
                    "sims": 0.7951754073041088
                },
                {
                    "id": 1970951692,
                    "tags": {
                        "addr:street": "Barondi Avenue",
                        "addr:postcode": "3805",
                        "addr:housenumber": "63"
                    },
                    "distance": 6785.37929342,
                    "sims": 0.7950013257569637
                }
            ]
        },
        "11": {
            "execution_time": 0.18559980392456055,
            "results": [
                {
                    "id": 4242570424,
                    "tags": {
                        "building": "yes",
                        "addr:street": "Frankston Gardens Drive",
                        "addr:housenumber": "75"
                    },
                    "distance": 2316.97492969,
                    "sims": 0.816868676263274
                },
                {
                    "id": 4283266847,
                    "tags": {
                        "building": "yes",
                        "addr:street": "Frankston Gardens Drive",
                        "addr:housenumber": "91"
                    },
                    "distance": 2762.33013984,
                    "sims": 0.8132263664372676
                },
                {
                    "id": 8218397427,
                    "tags": {
                        "building": "yes",
                        "addr:street": "Frankston Gardens Drive",
                        "addr:housenumber": "120"
                    },
                    "distance": 3125.77141805,
                    "sims": 0.8086040857018262
                },
                {
                    "id": 12420049492,
                    "tags": {
                        "addr:unit": "17",
                        "addr:street": "Frankston Gardens Drive",
                        "addr:housenumber": "71"
                    },
                    "distance": 2254.92662447,
                    "sims": 0.7992656469126243
                },
                {
                    "id": 12420049494,
                    "tags": {
                        "addr:unit": "14",
                        "addr:street": "Frankston Gardens Drive",
                        "addr:housenumber": "71"
                    },
                    "distance": 2238.06809828,
                    "sims": 0.7980052229769892
                },
                {
                    "id": 12420050566,
                    "tags": {
                        "addr:unit": "3",
                        "addr:street": "Frankston Gardens Drive",
                        "addr:housenumber": "32-34"
                    },
                    "distance": 2124.53482948,
                    "sims": 0.796882379333769
                },
                {
                    "id": 12420050068,
                    "tags": {
                        "addr:street": "Frankston Gardens Drive",
                        "addr:housenumber": "32-34"
                    },
                    "distance": 2151.25059007,
                    "sims": 0.7964824079418904
                },
                {
                    "id": 6052203145,
                    "tags": {
                        "building": "yes",
                        "addr:street": "Victory Road",
                        "addr:housenumber": "7"
                    },
                    "distance": 9498.48026707,
                    "sims": 0.7939634200312745
                },
                {
                    "id": 12420051572,
                    "tags": {
                        "addr:unit": "25",
                        "addr:street": "Frankston Gardens Drive",
                        "addr:housenumber": "59"
                    },
                    "distance": 2079.90144012,
                    "sims": 0.7939493892773808
                },
                {
                    "id": 12420053029,
                    "tags": {
                        "addr:street": "Frankston Gardens Drive",
                        "addr:housenumber": "115S"
                    },
                    "distance": 3218.88495856,
                    "sims": 0.7937420124180927
                }
            ]
        },
        "12": {
            "execution_time": 0.19040489196777344,
            "results": [
                {
                    "id": 12419581965,
                    "tags": {
                        "addr:street": "Victoria Street",
                        "addr:housenumber": "46"
                    },
                    "distance": 2434.34685377,
                    "sims": 0.9250907674703114
                },
                {
                    "id": 12419583114,
                    "tags": {
                        "addr:street": "Victoria Street",
                        "addr:housenumber": "41A"
                    },
                    "distance": 2390.5685753,
                    "sims": 0.9249416962093014
                },
                {
                    "id": 12419128421,
                    "tags": {
                        "addr:flats": "1-9",
                        "addr:street": "Victoria Street",
                        "addr:housenumber": "18"
                    },
                    "distance": 5649.89495175,
                    "sims": 0.9202926469896358
                },
                {
                    "id": 12419582472,
                    "tags": {
                        "addr:street": "Victoria Street",
                        "addr:housenumber": "74"
                    },
                    "distance": 2577.87740791,
                    "sims": 0.9198874496944447
                },
                {
                    "id": 12419354730,
                    "tags": {
                        "addr:street": "Martin Street",
                        "addr:housenumber": "172-175A"
                    },
                    "distance": 4475.14447839,
                    "sims": 0.9172790946767063
                },
                {
                    "id": 12419105186,
                    "tags": {
                        "addr:flats": "1-2",
                        "addr:street": "St Kilda Road",
                        "addr:housenumber": "82"
                    },
                    "distance": 8888.67606351,
                    "sims": 0.9169000040471977
                },
                {
                    "id": 12419129505,
                    "tags": {
                        "addr:street": "Victoria Street",
                        "addr:housenumber": "49"
                    },
                    "distance": 5442.99683505,
                    "sims": 0.9159537253214917
                },
                {
                    "id": 12412085825,
                    "tags": {
                        "addr:flats": "1-4",
                        "addr:street": "Sandown Street",
                        "addr:housenumber": "2"
                    },
                    "distance": 3602.78199962,
                    "sims": 0.9155948133091397
                },
                {
                    "id": 12412085113,
                    "tags": {
                        "addr:flats": "1-9",
                        "addr:street": "New Street",
                        "addr:housenumber": "467"
                    },
                    "distance": 4938.20074382,
                    "sims": 0.9152272585982973
                },
                {
                    "id": 12412085045,
                    "tags": {
                        "addr:flats": "1-2",
                        "addr:street": "Cole Street",
                        "addr:housenumber": "105"
                    },
                    "distance": 4779.77466207,
                    "sims": 0.9148291044816738
                }
            ]
        },
        "13": {
            "execution_time": 0.18384099006652832,
            "results": [
                {
                    "id": 12419850891,
                    "tags": {
                        "addr:street": "Kerr Crescent",
                        "addr:housenumber": "52-52A"
                    },
                    "distance": 7601.63133977,
                    "sims": 0.800202989675131
                },
                {
                    "id": 9053523110,
                    "tags": {
                        "building": "yes",
                        "addr:street": "Mcdonald Crescent",
                        "addr:housenumber": "31"
                    },
                    "distance": 10334.94366035,
                    "sims": 0.798822330831954
                },
                {
                    "id": 12331649288,
                    "tags": {
                        "building": "yes",
                        "addr:street": "McDermott Avenue",
                        "addr:housenumber": "46"
                    },
                    "distance": 2638.59358927,
                    "sims": 0.7987230056396466
                },
                {
                    "id": 7941418669,
                    "tags": {
                        "building": "yes",
                        "addr:street": "Evans Drive",
                        "addr:housenumber": "34"
                    },
                    "distance": 2016.11485603,
                    "sims": 0.7979690306077338
                },
                {
                    "id": 4384881981,
                    "tags": {
                        "building": "yes",
                        "addr:street": "Industrial Park Drive",
                        "addr:housenumber": "52"
                    },
                    "distance": 5380.56768187,
                    "sims": 0.7960704425931034
                },
                {
                    "id": 4384493518,
                    "tags": {
                        "building": "yes",
                        "addr:street": "Gibbs Road",
                        "addr:housenumber": "16"
                    },
                    "distance": 7934.19019325,
                    "sims": 0.7951914287527172
                },
                {
                    "id": 3636389174,
                    "tags": {
                        "building": "yes",
                        "addr:street": "Parkvalley Drive",
                        "addr:housenumber": "37"
                    },
                    "distance": 2999.32330704,
                    "sims": 0.7926731313101388
                },
                {
                    "id": 12330450768,
                    "tags": {
                        "building": "yes",
                        "addr:street": "Partridge Way",
                        "addr:housenumber": "92"
                    },
                    "distance": 2253.10525703,
                    "sims": 0.7926044667266158
                },
                {
                    "id": 4166879078,
                    "tags": {
                        "building": "yes",
                        "addr:street": "Esther Crescent",
                        "addr:housenumber": "93"
                    },
                    "distance": 1797.09064051,
                    "sims": 0.7917977770795659
                },
                {
                    "id": 8189094659,
                    "tags": {
                        "building": "yes",
                        "addr:street": "Grandview Avenue",
                        "addr:housenumber": "28"
                    },
                    "distance": 2702.73188629,
                    "sims": 0.7909400658322594
                }
            ]
        },
        "14": {
            "execution_time": 0.18178820610046387,
            "results": [
                {
                    "id": 11142837969,
                    "tags": {
                        "building": "yes",
                        "addr:street": "Garden Grove Drive",
                        "addr:housenumber": "98"
                    },
                    "distance": 1023.29433497,
                    "sims": 0.7983867167945806
                },
                {
                    "id": 12410845114,
                    "tags": {
                        "addr:street": "Cameron Parade",
                        "addr:housenumber": "54"
                    },
                    "distance": 4284.48630374,
                    "sims": 0.7906554452170861
                },
                {
                    "id": 12418121124,
                    "tags": {
                        "addr:street": "Cameron Parade",
                        "addr:housenumber": "74"
                    },
                    "distance": 4346.06011586,
                    "sims": 0.7903723466840218
                },
                {
                    "id": 12410847773,
                    "tags": {
                        "addr:street": "Queens Gardens",
                        "addr:housenumber": "63"
                    },
                    "distance": 4384.61773265,
                    "sims": 0.7899161687418405
                },
                {
                    "id": 12411539723,
                    "tags": {
                        "addr:street": "Jubilee Crescent",
                        "addr:housenumber": "52"
                    },
                    "distance": 2785.90996436,
                    "sims": 0.7890420665480585
                },
                {
                    "id": 12418101431,
                    "tags": {
                        "addr:street": "Highview Crescent",
                        "addr:housenumber": "31"
                    },
                    "distance": 6296.7167324,
                    "sims": 0.7881024823310964
                },
                {
                    "id": 12410844991,
                    "tags": {
                        "addr:street": "Cameron Parade",
                        "addr:housenumber": "85"
                    },
                    "distance": 4374.38455532,
                    "sims": 0.7880768162126569
                },
                {
                    "id": 12410845117,
                    "tags": {
                        "addr:street": "Cameron Parade",
                        "addr:housenumber": "62"
                    },
                    "distance": 4304.06279261,
                    "sims": 0.7876724708979582
                },
                {
                    "id": 12417628749,
                    "tags": {
                        "addr:street": "Charlton Crescent",
                        "addr:housenumber": "17"
                    },
                    "distance": 6955.91892111,
                    "sims": 0.7859863277073688
                },
                {
                    "id": 12410844973,
                    "tags": {
                        "addr:street": "Cameron Parade",
                        "addr:housenumber": "35"
                    },
                    "distance": 4214.62535704,
                    "sims": 0.7855120407502719
                }
            ]
        },
        "15": {
            "execution_time": 0.1866457462310791,
            "results": [
                {
                    "id": 3327626652,
                    "tags": {
                        "name": "United",
                        "shop": "convenience",
                        "brand": "United",
                        "website": "https://www.unitedpetroleum.com.au/",
                        "brand:wikidata": "Q28224393",
                        "brand:wikipedia": "en:United Petroleum"
                    },
                    "distance": 14697.14052243,
                    "sims": 0.8668250163018911
                },
                {
                    "id": 305589521,
                    "tags": {
                        "name": "United",
                        "brand": "United",
                        "amenity": "fuel",
                        "website": "https://www.unitedpetroleum.com.au/",
                        "brand:wikidata": "Q28224393",
                        "brand:wikipedia": "en:United Petroleum"
                    },
                    "distance": 22323.40588685,
                    "sims": 0.8493635074632309
                },
                {
                    "id": 9512599054,
                    "tags": {
                        "waste": "trash",
                        "colour": "green",
                        "amenity": "waste_basket",
                        "material": "metal",
                        "operator": "Knox City Council"
                    },
                    "distance": 17169.42929007,
                    "sims": 0.8260301662629912
                },
                {
                    "id": 7641418683,
                    "tags": {
                        "name": "United",
                        "shop": "convenience",
                        "brand": "United",
                        "brand:wikidata": "Q28224393",
                        "brand:wikipedia": "en:United Petroleum"
                    },
                    "distance": 26498.95947828,
                    "sims": 0.8220935888067505
                },
                {
                    "id": 1715967474,
                    "tags": {
                        "bin": "no",
                        "lit": "no",
                        "ref": "13578",
                        "name": "Ross Street",
                        "bench": "no",
                        "source": "survey",
                        "highway": "bus_stop",
                        "shelter": "no",
                        "tactile_paving": "no"
                    },
                    "distance": 11776.15847308,
                    "sims": 0.8215447387317655
                },
                {
                    "id": 11145976366,
                    "tags": {
                        "bus": "yes",
                        "name": "High St/Lyall Rd",
                        "highway": "bus_stop",
                        "network": "837, 839",
                        "shelter": "yes",
                        "operator": "Ventura",
                        "departures_board": "timetable",
                        "public_transport": "platform"
                    },
                    "distance": 15937.10499836,
                    "sims": 0.8207372961231315
                },
                {
                    "id": 2172510807,
                    "tags": {
                        "name": "Australia Post - Narre Warren LPO",
                        "brand": "Australia Post",
                        "branch": "Narre Warren",
                        "amenity": "post_office",
                        "operator": "Australia Post",
                        "operator:wikidata": "Q1142936"
                    },
                    "distance": 18567.69625897,
                    "sims": 0.8174573618275489
                },
                {
                    "id": 6773110390,
                    "tags": {
                        "name": "Rollin' Brew",
                        "amenity": "cafe",
                        "cuisine": "coffee_shop",
                        "smoking": "no",
                        "wheelchair": "yes",
                        "opening_hours": "Mo-Th 05:00-09:45; Fr 05:00-09:30",
                        "air_conditioning": "no"
                    },
                    "distance": 11391.15289345,
                    "sims": 0.8168999393225093
                },
                {
                    "id": 10556326713,
                    "tags": {
                        "addr:state": "VIC",
                        "addr:street": "Beckbury Court",
                        "addr:suburb": "Lysterfield",
                        "addr:postcode": "3156",
                        "addr:housenumber": "11"
                    },
                    "distance": 18389.71317391,
                    "sims": 0.8151227566380702
                },
                {
                    "id": 266155502,
                    "tags": {
                        "fee": "no",
                        "name": "Burrinja",
                        "amenity": "cafe",
                        "tourism": "gallery",
                        "website": "https://www.burrinja.org.au/",
                        "addr:state": "VIC",
                        "addr:street": "Matson Drive",
                        "addr:suburb": "Upwey",
                        "addr:postcode": "3158",
                        "addr:housenumber": "18"
                    },
                    "distance": 12998.73496657,
                    "sims": 0.8135523290972316
                }
            ]
        },
        "16": {
            "execution_time": 0.18763017654418945,
            "results": [
                {
                    "id": 5222791644,
                    "tags": {
                        "amenity": "bench"
                    },
                    "distance": 1957.31136602,
                    "sims": 0.9485569412316144
                },
                {
                    "id": 11652038334,
                    "tags": {
                        "amenity": "bench"
                    },
                    "distance": 3447.42807134,
                    "sims": 0.9462737844969724
                },
                {
                    "id": 10870152143,
                    "tags": {
                        "amenity": "bench"
                    },
                    "distance": 3368.22640929,
                    "sims": 0.9436607856144748
                },
                {
                    "id": 11098648792,
                    "tags": {
                        "amenity": "bench"
                    },
                    "distance": 3721.12862954,
                    "sims": 0.9406121792233942
                },
                {
                    "id": 9761691618,
                    "tags": {
                        "amenity": "bench"
                    },
                    "distance": 6346.9275552,
                    "sims": 0.940050468456917
                },
                {
                    "id": 9360787406,
                    "tags": {
                        "amenity": "bench"
                    },
                    "distance": 6844.6230889,
                    "sims": 0.9378617500209923
                },
                {
                    "id": 9454849796,
                    "tags": {
                        "amenity": "bench"
                    },
                    "distance": 7296.54907972,
                    "sims": 0.9355684922840094
                },
                {
                    "id": 2356827670,
                    "tags": {
                        "amenity": "bench"
                    },
                    "distance": 7962.73366786,
                    "sims": 0.933405081452495
                },
                {
                    "id": 2356835495,
                    "tags": {
                        "amenity": "bench"
                    },
                    "distance": 8713.3005974,
                    "sims": 0.9308676195009035
                },
                {
                    "id": 10261713181,
                    "tags": {
                        "amenity": "bench"
                    },
                    "distance": 7912.56675899,
                    "sims": 0.9303279949017154
                }
            ]
        },
        "17": {
            "execution_time": 0.18359780311584473,
            "results": [
                {
                    "id": 12415012942,
                    "tags": {
                        "addr:street": "Waterfall Gully Road",
                        "addr:housenumber": "191"
                    },
                    "distance": 15974.37040039,
                    "sims": 0.8199043196240317
                },
                {
                    "id": 12415007874,
                    "tags": {
                        "addr:street": "Waterfall Gully Road",
                        "addr:housenumber": "317"
                    },
                    "distance": 16767.69796517,
                    "sims": 0.8181229639979297
                },
                {
                    "id": 12415007883,
                    "tags": {
                        "addr:street": "Waterfall Gully Road",
                        "addr:housenumber": "343"
                    },
                    "distance": 17098.6348595,
                    "sims": 0.817987100598134
                },
                {
                    "id": 12414992206,
                    "tags": {
                        "addr:street": "South Beach Road",
                        "addr:housenumber": "219"
                    },
                    "distance": 5720.56240084,
                    "sims": 0.817117205852897
                },
                {
                    "id": 12410774749,
                    "tags": {
                        "addr:street": "Bayview Road",
                        "addr:housenumber": "138"
                    },
                    "distance": 3164.34010595,
                    "sims": 0.8166916882050756
                },
                {
                    "id": 12415013115,
                    "tags": {
                        "addr:street": "Bayview Road",
                        "addr:housenumber": "37"
                    },
                    "distance": 2271.37735554,
                    "sims": 0.8149413974461072
                },
                {
                    "id": 12415013065,
                    "tags": {
                        "addr:street": "Bayview Road",
                        "addr:housenumber": "67"
                    },
                    "distance": 2759.76138962,
                    "sims": 0.8140843420800862
                },
                {
                    "id": 12415013123,
                    "tags": {
                        "addr:street": "Bayview Road",
                        "addr:housenumber": "59"
                    },
                    "distance": 2690.14636981,
                    "sims": 0.8127094060681964
                },
                {
                    "id": 12415003816,
                    "tags": {
                        "addr:street": "Bayview Road",
                        "addr:housenumber": "205A"
                    },
                    "distance": 17417.28023851,
                    "sims": 0.8119929822664601
                },
                {
                    "id": 12415007926,
                    "tags": {
                        "addr:street": "Waterfall Gully Road",
                        "addr:housenumber": "386"
                    },
                    "distance": 17236.0537219,
                    "sims": 0.8100270772044972
                }
            ]
        },
        "18": {
            "execution_time": 0.19173884391784668,
            "results": [
                {
                    "id": 4466279069,
                    "tags": {
                        "building": "yes",
                        "addr:street": "Inkerman Street",
                        "addr:housenumber": "83"
                    },
                    "distance": 2193.15548339,
                    "sims": 0.795563791331557
                },
                {
                    "id": 4466279068,
                    "tags": {
                        "name": "Lexer",
                        "tourism": "hostel",
                        "building": "yes",
                        "addr:street": "Inkerman Street",
                        "addr:housenumber": "80"
                    },
                    "distance": 2208.30785836,
                    "sims": 0.7894073316609954
                },
                {
                    "id": 12418984004,
                    "tags": {
                        "addr:flats": "1-6",
                        "addr:street": "Inkerman Road",
                        "addr:housenumber": "560"
                    },
                    "distance": 2184.54598564,
                    "sims": 0.7883172091755887
                },
                {
                    "id": 12411709322,
                    "tags": {
                        "addr:flats": "1-3",
                        "addr:street": "Inkerman Road",
                        "addr:housenumber": "656"
                    },
                    "distance": 2749.17834335,
                    "sims": 0.7882787297936089
                },
                {
                    "id": 8677800283,
                    "tags": {
                        "building": "yes",
                        "addr:street": "Palmer Parade",
                        "addr:housenumber": "17"
                    },
                    "distance": 2164.81059955,
                    "sims": 0.7877857865266678
                },
                {
                    "id": 12419074521,
                    "tags": {
                        "addr:flats": "1;3-5",
                        "addr:street": "Inkerman Road",
                        "addr:housenumber": "437"
                    },
                    "distance": 1984.47475002,
                    "sims": 0.7876893461654348
                },
                {
                    "id": 8218397751,
                    "tags": {
                        "building": "yes",
                        "addr:street": "Banole Avenue",
                        "addr:housenumber": "18"
                    },
                    "distance": 641.51991878,
                    "sims": 0.7872451125360966
                },
                {
                    "id": 12014501747,
                    "tags": {
                        "building": "yes",
                        "addr:street": "Fitzgibbon Crescent",
                        "addr:housenumber": "34"
                    },
                    "distance": 3991.41145261,
                    "sims": 0.7868853387286788
                },
                {
                    "id": 12418984590,
                    "tags": {
                        "addr:unit": "2",
                        "addr:street": "Inkerman Road",
                        "addr:housenumber": "649-657"
                    },
                    "distance": 2828.93740644,
                    "sims": 0.7856294682644155
                },
                {
                    "id": 12411726090,
                    "tags": {
                        "addr:flats": "1-6",
                        "addr:street": "Inkerman Street",
                        "addr:housenumber": "392"
                    },
                    "distance": 2059.79167822,
                    "sims": 0.7853510548359118
                }
            ]
        },
        "19": {
            "execution_time": 0.18366384506225586,
            "results": [
                {
                    "id": 12417856575,
                    "tags": {
                        "addr:unit": "3",
                        "addr:street": "Watton Street",
                        "addr:housenumber": "207"
                    },
                    "distance": 2963.35135693,
                    "sims": 0.7663643181864769
                },
                {
                    "id": 12420295976,
                    "tags": {
                        "addr:unit": "1",
                        "addr:street": "Dixon Avenue",
                        "addr:housenumber": "13"
                    },
                    "distance": 3691.86938868,
                    "sims": 0.7653230252284485
                },
                {
                    "id": 2343283570,
                    "tags": {
                        "name": "Hungry Jacks",
                        "brand": "Hungry Jacks",
                        "amenity": "fast_food",
                        "cuisine": "burger",
                        "website": "https://www.hungryjacks.com.au/",
                        "takeaway": "yes",
                        "check_date": "2024-07-18",
                        "brand:wikidata": "Q3036373",
                        "brand:wikipedia": "en:Hungry Jack's"
                    },
                    "distance": 2929.63726298,
                    "sims": 0.7622755226082487
                },
                {
                    "id": 12477026808,
                    "tags": {
                        "name": "Lux Barber",
                        "shop": "hairdresser"
                    },
                    "distance": 19437.90254406,
                    "sims": 0.7611776563697734
                },
                {
                    "id": 2375811677,
                    "tags": {
                        "addr:street": "Tom Roberts Parade",
                        "addr:housename": "Boardwalk Central Shopping Centre"
                    },
                    "distance": 8928.18213484,
                    "sims": 0.7607435869284385
                },
                {
                    "id": 12420294262,
                    "tags": {
                        "addr:street": "Watton Street",
                        "addr:housenumber": "193-195"
                    },
                    "distance": 3009.53246027,
                    "sims": 0.7594088746174323
                },
                {
                    "id": 12417713295,
                    "tags": {
                        "addr:flats": "101-111;201-211;301-305",
                        "addr:street": "Tribeca Drive",
                        "addr:housenumber": "18"
                    },
                    "distance": 10011.72380509,
                    "sims": 0.7582280698078931
                },
                {
                    "id": 8063999185,
                    "tags": {
                        "waste": "trash;recycling",
                        "amenity": "waste_basket"
                    },
                    "distance": 3232.56478998,
                    "sims": 0.7570146160695764
                },
                {
                    "id": 12417859412,
                    "tags": {
                        "addr:unit": "2",
                        "addr:street": "Dixon Avenue",
                        "addr:housenumber": "2"
                    },
                    "distance": 3637.52224562,
                    "sims": 0.7564335450092501
                },
                {
                    "id": 12417856572,
                    "tags": {
                        "addr:unit": "2",
                        "addr:street": "Dixon Avenue",
                        "addr:housenumber": "10"
                    },
                    "distance": 3639.06107754,
                    "sims": 0.7562064964402148
                }
            ]
        },
        "20": {
            "execution_time": 0.18469882011413574,
            "results": [
                {
                    "id": 12413714078,
                    "tags": {
                        "addr:street": "Lehmann Crescent",
                        "addr:housenumber": "14"
                    },
                    "distance": 4459.90481539,
                    "sims": 0.8873495132090073
                },
                {
                    "id": 12414952646,
                    "tags": {
                        "addr:street": "Alan George Terrace",
                        "addr:housenumber": "9"
                    },
                    "distance": 7814.91409203,
                    "sims": 0.8759476242190553
                },
                {
                    "id": 12414952629,
                    "tags": {
                        "addr:street": "Alan George Terrace",
                        "addr:housenumber": "28"
                    },
                    "distance": 7924.42648867,
                    "sims": 0.8713053175675359
                },
                {
                    "id": 12414982152,
                    "tags": {
                        "addr:unit": "3",
                        "addr:street": "Kingfisher Court",
                        "addr:housenumber": "10"
                    },
                    "distance": 15247.05219585,
                    "sims": 0.8693082126056654
                },
                {
                    "id": 12413725167,
                    "tags": {
                        "addr:street": "Shearer Court",
                        "addr:housenumber": "3"
                    },
                    "distance": 1232.90788888,
                    "sims": 0.869096787191228
                },
                {
                    "id": 12420286008,
                    "tags": {
                        "addr:unit": "3",
                        "addr:street": "Maxwell Court",
                        "addr:housenumber": "4"
                    },
                    "distance": 3272.40743524,
                    "sims": 0.8688417985816729
                },
                {
                    "id": 12414952886,
                    "tags": {
                        "addr:unit": "3",
                        "addr:street": "Foxwood Place",
                        "addr:housenumber": "5"
                    },
                    "distance": 7959.81321511,
                    "sims": 0.8682833627979137
                },
                {
                    "id": 12413724299,
                    "tags": {
                        "addr:unit": "4",
                        "addr:street": "Woodlea Court",
                        "addr:housenumber": "3"
                    },
                    "distance": 3510.14728737,
                    "sims": 0.8679845647848937
                },
                {
                    "id": 12414258686,
                    "tags": {
                        "addr:unit": "11",
                        "addr:street": "Serra Close",
                        "addr:housenumber": "5"
                    },
                    "distance": 3849.25126481,
                    "sims": 0.8677940166610568
                },
                {
                    "id": 12420047492,
                    "tags": {
                        "addr:street": "Dean Court",
                        "addr:housenumber": "3"
                    },
                    "distance": 7311.93609613,
                    "sims": 0.867405386589698
                }
            ]
        },
        "21": {
            "execution_time": 0.1836988925933838,
            "results": [
                {
                    "id": 12419648151,
                    "tags": {
                        "addr:street": "Duggie Mews",
                        "addr:housenumber": "3"
                    },
                    "distance": 4309.12808735,
                    "sims": 0.8618035645953508
                },
                {
                    "id": 9419810176,
                    "tags": {
                        "leisure": "picnic_table"
                    },
                    "distance": 9978.25209533,
                    "sims": 0.8597719491207889
                },
                {
                    "id": 12419408380,
                    "tags": {
                        "addr:street": "Oxford Rise",
                        "addr:housenumber": "14"
                    },
                    "distance": 4022.09418245,
                    "sims": 0.8591682906694115
                },
                {
                    "id": 5938282902,
                    "tags": {
                        "leisure": "picnic_table"
                    },
                    "distance": 8180.93552467,
                    "sims": 0.8591417922124424
                },
                {
                    "id": 12419647832,
                    "tags": {
                        "addr:street": "Cherylnne Crescent",
                        "addr:housenumber": "6B"
                    },
                    "distance": 4384.56933332,
                    "sims": 0.8585779408030895
                },
                {
                    "id": 6138346469,
                    "tags": {
                        "leisure": "picnic_table"
                    },
                    "distance": 10990.72829252,
                    "sims": 0.8572525126332258
                },
                {
                    "id": 12419343619,
                    "tags": {
                        "addr:street": "Wonga Mews",
                        "addr:housenumber": "17"
                    },
                    "distance": 7526.77711898,
                    "sims": 0.8572233744790171
                },
                {
                    "id": 12419647833,
                    "tags": {
                        "addr:street": "Cherylnne Crescent",
                        "addr:housenumber": "6C"
                    },
                    "distance": 4379.40697492,
                    "sims": 0.8568892734845173
                },
                {
                    "id": 6629289734,
                    "tags": {
                        "leisure": "picnic_table"
                    },
                    "distance": 12743.22909613,
                    "sims": 0.8567441958050758
                },
                {
                    "id": 12412392721,
                    "tags": {
                        "addr:street": "Gwyn Crescent",
                        "addr:housenumber": "3"
                    },
                    "distance": 4762.06345219,
                    "sims": 0.8567252500712519
                }
            ]
        },
        "22": {
            "execution_time": 0.18403053283691406,
            "results": [
                {
                    "id": 11607743505,
                    "tags": {
                        "name": "18 Pence Lane",
                        "amenity": "cafe"
                    },
                    "distance": 4849.91091127,
                    "sims": 0.925976941996622
                },
                {
                    "id": 3881388121,
                    "tags": {
                        "name": "TAB",
                        "leisure": "adult_gaming_centre"
                    },
                    "distance": 4327.77612061,
                    "sims": 0.9222191661588433
                },
                {
                    "id": 5824861168,
                    "tags": {
                        "name": "Akira",
                        "amenity": "internet_cafe"
                    },
                    "distance": 6246.55425298,
                    "sims": 0.9196222184962947
                },
                {
                    "id": 6680787313,
                    "tags": {
                        "name": "Saluministi",
                        "amenity": "cafe"
                    },
                    "distance": 4450.15526821,
                    "sims": 0.9185385187520915
                },
                {
                    "id": 5070531023,
                    "tags": {
                        "name": "Brooklyn Community Centre",
                        "amenity": "community_centre",
                        "addr:street": "Cypress Avenue",
                        "addr:housenumber": "2"
                    },
                    "distance": 3754.33452622,
                    "sims": 0.9164856746307665
                },
                {
                    "id": 12419379331,
                    "tags": {
                        "addr:unit": "1",
                        "addr:street": "Wilson Street",
                        "addr:housenumber": "66"
                    },
                    "distance": 177.07908772,
                    "sims": 0.9161057545230655
                },
                {
                    "id": 4741562941,
                    "tags": {
                        "name": "Myrtle Cafe",
                        "amenity": "cafe",
                        "name:en": "Myrtle Cafe",
                        "takeaway": "yes",
                        "outdoor_seating": "yes"
                    },
                    "distance": 2263.83999018,
                    "sims": 0.9160735730086762
                },
                {
                    "id": 6033562238,
                    "tags": {
                        "name": "Upsize",
                        "amenity": "cafe"
                    },
                    "distance": 2198.96283502,
                    "sims": 0.9149916838087516
                },
                {
                    "id": 4380159223,
                    "tags": {
                        "amenity": "bench",
                        "backrest": "no"
                    },
                    "distance": 3571.90247589,
                    "sims": 0.9143914325212001
                },
                {
                    "id": 3249049176,
                    "tags": {
                        "amenity": "telephone"
                    },
                    "distance": 6166.13799835,
                    "sims": 0.9142421824462025
                }
            ]
        },
        "23": {
            "execution_time": 0.1875896453857422,
            "results": [
                {
                    "id": 8873701547,
                    "tags": {
                        "amenity": "bench"
                    },
                    "distance": 5324.01003815,
                    "sims": 0.9459388852119446
                },
                {
                    "id": 8891789109,
                    "tags": {
                        "amenity": "bench"
                    },
                    "distance": 6213.86369285,
                    "sims": 0.9456146641258799
                },
                {
                    "id": 8891789106,
                    "tags": {
                        "amenity": "bench"
                    },
                    "distance": 6231.22377847,
                    "sims": 0.9456146641258799
                },
                {
                    "id": 8891789104,
                    "tags": {
                        "amenity": "bench"
                    },
                    "distance": 6242.38979677,
                    "sims": 0.9456146641258799
                },
                {
                    "id": 9761453233,
                    "tags": {
                        "amenity": "bench"
                    },
                    "distance": 9765.15141422,
                    "sims": 0.9355829358100891
                },
                {
                    "id": 9921613443,
                    "tags": {
                        "amenity": "bench"
                    },
                    "distance": 11827.90980194,
                    "sims": 0.9310811161994934
                },
                {
                    "id": 7838610674,
                    "tags": {
                        "amenity": "bench"
                    },
                    "distance": 11471.71074429,
                    "sims": 0.9295461773872375
                },
                {
                    "id": 5980632046,
                    "tags": {
                        "amenity": "bench"
                    },
                    "distance": 14615.51723316,
                    "sims": 0.9199815070623613
                },
                {
                    "id": 5980632269,
                    "tags": {
                        "amenity": "bench"
                    },
                    "distance": 14781.86093083,
                    "sims": 0.9198301482301878
                },
                {
                    "id": 12435710854,
                    "tags": {
                        "amenity": "bench"
                    },
                    "distance": 15062.15717474,
                    "sims": 0.9162083864212036
                }
            ]
        },
        "24": {
            "execution_time": 0.1828467845916748,
            "results": [
                {
                    "id": 12260465202,
                    "tags": {
                        "name": "Unit 3"
                    },
                    "distance": 17485.60121689,
                    "sims": 0.88620828225712
                },
                {
                    "id": 4057755359,
                    "tags": {
                        "name": "Unit 2",
                        "building": "yes"
                    },
                    "distance": 5264.09957151,
                    "sims": 0.883206942654899
                },
                {
                    "id": 6359523427,
                    "tags": {
                        "amenity": "atm"
                    },
                    "distance": 4756.57196336,
                    "sims": 0.8638594069397234
                },
                {
                    "id": 5563155268,
                    "tags": {
                        "name": "Unit 4",
                        "building": "yes"
                    },
                    "distance": 13895.14335497,
                    "sims": 0.8636677779953486
                },
                {
                    "id": 12588631114,
                    "tags": {
                        "name": "General Games Malvern",
                        "shop": "games",
                        "opening_hours": "Mo-Fr 10:00-22:00, Sa 10:00-18:00, Su 10:00-17:00"
                    },
                    "distance": 2262.7303055,
                    "sims": 0.860922737231587
                },
                {
                    "id": 12418358955,
                    "tags": {
                        "addr:unit": "2",
                        "addr:street": "Malvern Road",
                        "addr:housenumber": "1468"
                    },
                    "distance": 2205.26060641,
                    "sims": 0.8584189246200294
                },
                {
                    "id": 9996927071,
                    "tags": {
                        "source": "https://web.archive.org/web/20220903092027/https://i.imgur.com/sHALjI9_d.webp?maxwidth=640&shape=thumb&fidelity=medium",
                        "amenity": "bench"
                    },
                    "distance": 6035.48924815,
                    "sims": 0.8578799197530712
                },
                {
                    "id": 9996927078,
                    "tags": {
                        "source": "https://web.archive.org/web/20220903092027/https://i.imgur.com/sHALjI9_d.webp?maxwidth=640&shape=thumb&fidelity=medium",
                        "amenity": "bench"
                    },
                    "distance": 6039.54981238,
                    "sims": 0.8578799197530712
                },
                {
                    "id": 12418358716,
                    "tags": {
                        "addr:unit": "3",
                        "addr:street": "Malvern Road",
                        "addr:housenumber": "1500"
                    },
                    "distance": 2382.83606431,
                    "sims": 0.8553758942150946
                },
                {
                    "id": 5508666864,
                    "tags": {
                        "name": "Equilibrium",
                        "amenity": "clinic",
                        "healthcare": "clinic"
                    },
                    "distance": 2222.36439345,
                    "sims": 0.8549184626243727
                }
            ]
        },
        "25": {
            "execution_time": 0.18636274337768555,
            "results": [
                {
                    "id": 8247051274,
                    "tags": {
                        "name": "Pie Face",
                        "brand": "Pie Face",
                        "amenity": "cafe",
                        "cuisine": "coffee_shop",
                        "takeaway": "yes",
                        "addr:street": "Dynon Road",
                        "brand:wikidata": "Q18166370",
                        "brand:wikipedia": "en:Pie Face",
                        "addr:housenumber": "152-160"
                    },
                    "distance": 3722.50101482,
                    "sims": 0.7864882262973469
                },
                {
                    "id": 12418153506,
                    "tags": {
                        "addr:street": "Royal Parade",
                        "addr:housenumber": "43-49"
                    },
                    "distance": 5346.1701157,
                    "sims": 0.7809357438798755
                },
                {
                    "id": 12418145600,
                    "tags": {
                        "addr:street": "Alexandra Parade",
                        "addr:housenumber": "52"
                    },
                    "distance": 6962.59218645,
                    "sims": 0.7794371641688995
                },
                {
                    "id": 9907006985,
                    "tags": {
                        "entrance": "yes",
                        "addr:street": "Stubbs Street",
                        "addr:housenumber": "71"
                    },
                    "distance": 3413.58206361,
                    "sims": 0.7775653402390813
                },
                {
                    "id": 12419584854,
                    "tags": {
                        "addr:flats": "2;6-8;23;27-33;35;37-39;41;44;1A;1B;1C;1D;1E;37A",
                        "addr:street": "Ashley Street",
                        "addr:housenumber": "9-45"
                    },
                    "distance": 3905.38248697,
                    "sims": 0.7773001128911924
                },
                {
                    "id": 4907302783,
                    "tags": {
                        "name": "Sun Bookshop",
                        "shop": "books",
                        "addr:street": "Ballarat Street",
                        "addr:suburb": "Yarraville",
                        "addr:postcode": "3013",
                        "opening_hours": "Mo-Sa 09:00-21:30; Su10:00-19:30",
                        "addr:housenumber": "10"
                    },
                    "distance": 4264.38212754,
                    "sims": 0.7768005167245512
                },
                {
                    "id": 12411973783,
                    "tags": {
                        "addr:street": "Inkerman Street",
                        "addr:housenumber": "57"
                    },
                    "distance": 12028.03537881,
                    "sims": 0.7764449056518523
                },
                {
                    "id": 12418153804,
                    "tags": {
                        "addr:street": "Albert Coates Lane",
                        "addr:housenumber": "20"
                    },
                    "distance": 6704.16526993,
                    "sims": 0.7762519787991234
                },
                {
                    "id": 12419119897,
                    "tags": {
                        "addr:street": "Puckle Street",
                        "addr:housenumber": "57"
                    },
                    "distance": 2297.95114366,
                    "sims": 0.7762493428589701
                },
                {
                    "id": 8218388169,
                    "tags": {
                        "building": "yes",
                        "addr:street": "Maribyrnong Road",
                        "addr:housenumber": "52"
                    },
                    "distance": 2064.59930535,
                    "sims": 0.776137107339617
                }
            ]
        },
        "26": {
            "execution_time": 0.18517851829528809,
            "results": [
                {
                    "id": 3529926398,
                    "tags": {
                        "amenity": "shelter"
                    },
                    "distance": 14569.41297262,
                    "sims": 0.8893691035005284
                },
                {
                    "id": 9027649625,
                    "tags": {
                        "amenity": "shelter",
                        "shelter_type": "picnic_shelter"
                    },
                    "distance": 4846.51305449,
                    "sims": 0.8834313362661987
                },
                {
                    "id": 9546217620,
                    "tags": {
                        "amenity": "bench"
                    },
                    "distance": 3137.28609672,
                    "sims": 0.8428817765994844
                },
                {
                    "id": 9029466712,
                    "tags": {
                        "amenity": "bench"
                    },
                    "distance": 7401.24545881,
                    "sims": 0.8415669580538612
                },
                {
                    "id": 4194557558,
                    "tags": {
                        "amenity": "cafe"
                    },
                    "distance": 6691.64083335,
                    "sims": 0.8346310056135878
                },
                {
                    "id": 9687083040,
                    "tags": {
                        "amenity": "bench",
                        "backrest": "no"
                    },
                    "distance": 1144.11033586,
                    "sims": 0.8341034450284611
                },
                {
                    "id": 9047353491,
                    "tags": {
                        "amenity": "parking_space",
                        "capacity": "1",
                        "parking_space": "disabled"
                    },
                    "distance": 6754.62659572,
                    "sims": 0.826896758038422
                },
                {
                    "id": 4194557580,
                    "tags": {
                        "name": "Babycino on Main",
                        "amenity": "cafe"
                    },
                    "distance": 6649.66689354,
                    "sims": 0.8240492062481043
                },
                {
                    "id": 5824764005,
                    "tags": {
                        "amenity": "bench"
                    },
                    "distance": 16116.54293348,
                    "sims": 0.8160317978783368
                },
                {
                    "id": 5070415069,
                    "tags": {
                        "amenity": "bbq"
                    },
                    "distance": 19388.38553846,
                    "sims": 0.8150903427385698
                }
            ]
        },
        "27": {
            "execution_time": 0.18095660209655762,
            "results": [
                {
                    "id": 9996118701,
                    "tags": {
                        "amenity": "bench"
                    },
                    "distance": 3039.01758526,
                    "sims": 0.9499314680634265
                },
                {
                    "id": 10202953013,
                    "tags": {
                        "amenity": "bench"
                    },
                    "distance": 3743.62133599,
                    "sims": 0.9488388926483012
                },
                {
                    "id": 10005956923,
                    "tags": {
                        "amenity": "bench"
                    },
                    "distance": 4228.47181467,
                    "sims": 0.9481987357139655
                },
                {
                    "id": 10023832883,
                    "tags": {
                        "amenity": "bench"
                    },
                    "distance": 8990.64372311,
                    "sims": 0.9435848560085823
                },
                {
                    "id": 11377494037,
                    "tags": {
                        "amenity": "bench"
                    },
                    "distance": 5186.4016765,
                    "sims": 0.9416437079481731
                },
                {
                    "id": 498652079,
                    "tags": {
                        "amenity": "bench"
                    },
                    "distance": 6044.40600998,
                    "sims": 0.9412290383850381
                },
                {
                    "id": 9602759008,
                    "tags": {
                        "amenity": "bench"
                    },
                    "distance": 5953.12866149,
                    "sims": 0.9401316571392604
                },
                {
                    "id": 12205243141,
                    "tags": {
                        "amenity": "bench"
                    },
                    "distance": 10456.60702302,
                    "sims": 0.9392671232760365
                },
                {
                    "id": 12160514658,
                    "tags": {
                        "amenity": "bench"
                    },
                    "distance": 7384.90245915,
                    "sims": 0.9321568567846349
                },
                {
                    "id": 9931170847,
                    "tags": {
                        "amenity": "bench"
                    },
                    "distance": 14580.20937158,
                    "sims": 0.9286985950886383
                }
            ]
        },
        "28": {
            "execution_time": 0.18076825141906738,
            "results": [
                {
                    "id": 3401367640,
                    "tags": {
                        "bus": "yes",
                        "ref": "ID.1911",
                        "name": "Charlton Crescent/Boldrewood Parade",
                        "bench": "yes",
                        "highway": "bus_stop",
                        "shelter": "yes",
                        "route_ref": "552;561",
                        "not_served_by": "301",
                        "tactile_paving": "yes",
                        "public_transport": "platform"
                    },
                    "distance": 4133.54145272,
                    "sims": 0.7949615472509378
                },
                {
                    "id": 3401367639,
                    "tags": {
                        "bus": "yes",
                        "ref": "ID.581",
                        "name": "Charlton Crescent/Boldrewood Parade",
                        "bench": "yes",
                        "highway": "bus_stop",
                        "shelter": "yes",
                        "route_ref": "552;561",
                        "not_served_by": "301",
                        "tactile_paving": "yes",
                        "public_transport": "platform"
                    },
                    "distance": 4149.47174492,
                    "sims": 0.7949615472509378
                },
                {
                    "id": 12417630637,
                    "tags": {
                        "addr:street": "Boldrewood Parade",
                        "addr:housenumber": "54"
                    },
                    "distance": 4256.50372548,
                    "sims": 0.7913444029307998
                },
                {
                    "id": 12417628749,
                    "tags": {
                        "addr:street": "Charlton Crescent",
                        "addr:housenumber": "17"
                    },
                    "distance": 4436.68472831,
                    "sims": 0.7909662002901084
                },
                {
                    "id": 12417622397,
                    "tags": {
                        "addr:street": "Fulham Grove",
                        "addr:housenumber": "41"
                    },
                    "distance": 2197.5552529,
                    "sims": 0.7881647095876642
                },
                {
                    "id": 12417623673,
                    "tags": {
                        "addr:street": "Boldrewood Parade",
                        "addr:housenumber": "41"
                    },
                    "distance": 4238.81418294,
                    "sims": 0.7881339535872937
                },
                {
                    "id": 12417621176,
                    "tags": {
                        "addr:unit": "1",
                        "addr:street": "Boldrewood Parade",
                        "addr:housenumber": "69"
                    },
                    "distance": 4141.97845603,
                    "sims": 0.7877374869193894
                },
                {
                    "id": 12417626157,
                    "tags": {
                        "addr:street": "Boldrewood Parade",
                        "addr:housenumber": "46"
                    },
                    "distance": 4288.62521964,
                    "sims": 0.7877188198398967
                },
                {
                    "id": 12418928387,
                    "tags": {
                        "addr:street": "Cole Crescent",
                        "addr:housenumber": "46"
                    },
                    "distance": 4070.65441118,
                    "sims": 0.7873816959489529
                },
                {
                    "id": 12417628765,
                    "tags": {
                        "addr:street": "Charlton Crescent",
                        "addr:housenumber": "45"
                    },
                    "distance": 4253.72878574,
                    "sims": 0.7873179893669502
                }
            ]
        },
        "29": {
            "execution_time": 0.18109941482543945,
            "results": [
                {
                    "id": 12415029825,
                    "tags": {
                        "addr:street": "McDonald Road",
                        "addr:housenumber": "37"
                    },
                    "distance": 3622.25375485,
                    "sims": 0.8069924116134701
                },
                {
                    "id": 12415018281,
                    "tags": {
                        "addr:street": "Ronald Street",
                        "addr:housenumber": "38"
                    },
                    "distance": 5822.06485888,
                    "sims": 0.8042878029174937
                },
                {
                    "id": 12415018034,
                    "tags": {
                        "addr:street": "Ronald Street",
                        "addr:housenumber": "52"
                    },
                    "distance": 5686.46973994,
                    "sims": 0.8028287409050038
                },
                {
                    "id": 12415029832,
                    "tags": {
                        "addr:street": "McDonald Road",
                        "addr:housenumber": "13"
                    },
                    "distance": 3569.96519536,
                    "sims": 0.8020215630531368
                },
                {
                    "id": 12415027360,
                    "tags": {
                        "addr:street": "Rodney Street",
                        "addr:housenumber": "14"
                    },
                    "distance": 1323.83017156,
                    "sims": 0.8007852553853254
                },
                {
                    "id": 12415027362,
                    "tags": {
                        "addr:street": "Rodney Street",
                        "addr:housenumber": "16"
                    },
                    "distance": 1341.25047603,
                    "sims": 0.8004888057563097
                },
                {
                    "id": 12264997826,
                    "tags": {
                        "name": "Mister Minit",
                        "shop": "locksmith",
                        "brand": "Mister Minit",
                        "wheelchair": "yes",
                        "brand:wikidata": "Q1939269",
                        "opening_hours:signed": "no",
                        "check_date:opening_hours": "2024-10-19"
                    },
                    "distance": 27596.08732228,
                    "sims": 0.800471484661108
                },
                {
                    "id": 12415034407,
                    "tags": {
                        "addr:street": "Macfarlan Avenue",
                        "addr:housenumber": "69"
                    },
                    "distance": 2508.38026416,
                    "sims": 0.7995311975618872
                },
                {
                    "id": 12420525737,
                    "tags": {
                        "addr:street": "Bruce Street",
                        "addr:housenumber": "51"
                    },
                    "distance": 3485.6763737,
                    "sims": 0.7986781837131758
                },
                {
                    "id": 12415034408,
                    "tags": {
                        "addr:street": "Macfarlan Avenue",
                        "addr:housenumber": "71"
                    },
                    "distance": 2527.36434639,
                    "sims": 0.7974089384079036
                }
            ]
        },
        "30": {
            "execution_time": 0.1768782138824463,
            "results": [
                {
                    "id": 12420055110,
                    "tags": {
                        "addr:street": "Bondi Parade",
                        "addr:housenumber": "124"
                    },
                    "distance": 4848.60356592,
                    "sims": 0.7931728959083783
                },
                {
                    "id": 12417712458,
                    "tags": {
                        "addr:street": "Bondi Parade",
                        "addr:housenumber": "37"
                    },
                    "distance": 4897.37151634,
                    "sims": 0.793041539606969
                },
                {
                    "id": 12420055102,
                    "tags": {
                        "addr:street": "Bondi Parade",
                        "addr:housenumber": "94"
                    },
                    "distance": 4641.89501291,
                    "sims": 0.7923629531427734
                },
                {
                    "id": 12417712447,
                    "tags": {
                        "addr:street": "Bondi Parade",
                        "addr:housenumber": "51"
                    },
                    "distance": 4781.13270171,
                    "sims": 0.7923061499230739
                },
                {
                    "id": 12420055113,
                    "tags": {
                        "addr:street": "Bondi Parade",
                        "addr:housenumber": "132"
                    },
                    "distance": 4903.24265411,
                    "sims": 0.7901034840848995
                },
                {
                    "id": 12417712454,
                    "tags": {
                        "addr:street": "Bondi Parade",
                        "addr:housenumber": "45"
                    },
                    "distance": 4839.55113037,
                    "sims": 0.7900581735268535
                },
                {
                    "id": 12419672475,
                    "tags": {
                        "addr:street": "Myers Parade",
                        "addr:housenumber": "52"
                    },
                    "distance": 1434.57030994,
                    "sims": 0.7843502549498831
                },
                {
                    "id": 12419671930,
                    "tags": {
                        "addr:street": "Kensington Crescent",
                        "addr:housenumber": "11"
                    },
                    "distance": 2010.09347536,
                    "sims": 0.7840102443689088
                },
                {
                    "id": 12419671386,
                    "tags": {
                        "addr:street": "Kensington Crescent",
                        "addr:housenumber": "18"
                    },
                    "distance": 1995.66562726,
                    "sims": 0.7833584676171388
                },
                {
                    "id": 12412466010,
                    "tags": {
                        "addr:street": "Kensington Crescent",
                        "addr:housenumber": "20"
                    },
                    "distance": 2019.73583474,
                    "sims": 0.7822895309579987
                }
            ]
        },
        "31": {
            "execution_time": 0.17456984519958496,
            "results": [
                {
                    "id": 12419155790,
                    "tags": {
                        "addr:flats": "1-26",
                        "addr:street": "Kingloch Parade",
                        "addr:housenumber": "54"
                    },
                    "distance": 6288.17517139,
                    "sims": 0.8002474663727465
                },
                {
                    "id": 9053523110,
                    "tags": {
                        "building": "yes",
                        "addr:street": "Mcdonald Crescent",
                        "addr:housenumber": "31"
                    },
                    "distance": 11335.30813422,
                    "sims": 0.7985379826868914
                },
                {
                    "id": 11145701635,
                    "tags": {
                        "name": "Roy A. McDonald",
                        "level": "1",
                        "phone": "+61 3 9848 5933",
                        "office": "accountant",
                        "website": "https://www.royamcdonald.com",
                        "addr:street": "Jackson Court",
                        "addr:housenumber": "28-30"
                    },
                    "distance": 3930.69199392,
                    "sims": 0.7971118714407649
                },
                {
                    "id": 12419633517,
                    "tags": {
                        "addr:flats": "1-2",
                        "addr:street": "McDonald Crescent",
                        "addr:housenumber": "33"
                    },
                    "distance": 11355.21879481,
                    "sims": 0.7914231011744197
                },
                {
                    "id": 12344831164,
                    "tags": {
                        "building": "yes",
                        "addr:street": "Felix Crescent",
                        "addr:housenumber": "67"
                    },
                    "distance": 3273.67144991,
                    "sims": 0.7903472742523419
                },
                {
                    "id": 10236389281,
                    "tags": {
                        "building": "yes",
                        "addr:street": "Mint Street",
                        "addr:housenumber": "23"
                    },
                    "distance": 4688.42355193,
                    "sims": 0.7897118892692425
                },
                {
                    "id": 12344828550,
                    "tags": {
                        "building": "yes",
                        "addr:street": "Felix Crescent",
                        "addr:housenumber": "63"
                    },
                    "distance": 3314.61686419,
                    "sims": 0.789286146206366
                },
                {
                    "id": 12331649288,
                    "tags": {
                        "building": "yes",
                        "addr:street": "McDermott Avenue",
                        "addr:housenumber": "46"
                    },
                    "distance": 12338.41189522,
                    "sims": 0.7883692361614286
                },
                {
                    "id": 9044306127,
                    "tags": {
                        "building": "yes",
                        "addr:street": "Farnham Road",
                        "addr:housenumber": "48"
                    },
                    "distance": 8990.89887105,
                    "sims": 0.7875032048649591
                },
                {
                    "id": 8189094659,
                    "tags": {
                        "building": "yes",
                        "addr:street": "Grandview Avenue",
                        "addr:housenumber": "28"
                    },
                    "distance": 9119.15486913,
                    "sims": 0.7870045293534509
                }
            ]
        },
        "32": {
            "execution_time": 0.17696452140808105,
            "results": [
                {
                    "id": 12411638384,
                    "tags": {
                        "addr:street": "Prilep Heights",
                        "addr:housenumber": "14"
                    },
                    "distance": 7372.15647166,
                    "sims": 0.8666988253535955
                },
                {
                    "id": 12417668982,
                    "tags": {
                        "addr:street": "Hermes Street",
                        "addr:housenumber": "8"
                    },
                    "distance": 1612.87249958,
                    "sims": 0.8635306521021604
                },
                {
                    "id": 12411662028,
                    "tags": {
                        "addr:street": "McBryde Street",
                        "addr:housenumber": "229"
                    },
                    "distance": 11150.48663529,
                    "sims": 0.8631266775912132
                },
                {
                    "id": 12417668981,
                    "tags": {
                        "addr:street": "Hermes Street",
                        "addr:housenumber": "6"
                    },
                    "distance": 1615.26304469,
                    "sims": 0.8622984536352554
                },
                {
                    "id": 12411636077,
                    "tags": {
                        "addr:street": "Prilep Heights",
                        "addr:housenumber": "1"
                    },
                    "distance": 7323.65557128,
                    "sims": 0.8620699469384694
                },
                {
                    "id": 12417668281,
                    "tags": {
                        "addr:street": "Marisa Street",
                        "addr:housenumber": "3"
                    },
                    "distance": 403.45810832,
                    "sims": 0.85943995182754
                },
                {
                    "id": 12418941423,
                    "tags": {
                        "addr:street": "McBryde Street",
                        "addr:housenumber": "288"
                    },
                    "distance": 11137.47285778,
                    "sims": 0.8590238518395652
                },
                {
                    "id": 12417669759,
                    "tags": {
                        "addr:street": "Soho Crescent",
                        "addr:housenumber": "46"
                    },
                    "distance": 2406.03139454,
                    "sims": 0.8588266540972468
                },
                {
                    "id": 12418946104,
                    "tags": {
                        "addr:street": "Dennis Street",
                        "addr:housenumber": "3A"
                    },
                    "distance": 7335.31058657,
                    "sims": 0.8583125640973434
                },
                {
                    "id": 12411645855,
                    "tags": {
                        "addr:street": "Shields Street",
                        "addr:housenumber": "58"
                    },
                    "distance": 3254.92932839,
                    "sims": 0.8582691974995353
                }
            ]
        },
        "33": {
            "execution_time": 0.17827343940734863,
            "results": [
                {
                    "id": 10836221699,
                    "tags": {
                        "amenity": "bicycle_parking"
                    },
                    "distance": 5362.06583967,
                    "sims": 0.9515305786412761
                },
                {
                    "id": 434298827,
                    "tags": {
                        "amenity": "parking"
                    },
                    "distance": 12392.41469666,
                    "sims": 0.947958475594709
                },
                {
                    "id": 7834654030,
                    "tags": {
                        "fee": "no",
                        "access": "permissive",
                        "amenity": "parking",
                        "parking": "carports",
                        "surface": "asphalt",
                        "operator": "Coates Hire Mulgrave"
                    },
                    "distance": 5503.69396235,
                    "sims": 0.9424119064316928
                },
                {
                    "id": 2498884970,
                    "tags": {
                        "amenity": "parking_entrance"
                    },
                    "distance": 7879.12206396,
                    "sims": 0.9424003116130655
                },
                {
                    "id": 9203802330,
                    "tags": {
                        "amenity": "bicycle_parking"
                    },
                    "distance": 11031.97367829,
                    "sims": 0.9422226617070907
                },
                {
                    "id": 355017059,
                    "tags": {
                        "amenity": "bicycle_parking",
                        "capacity": "24",
                        "created_by": "Potlatch 0.10f"
                    },
                    "distance": 4998.56901453,
                    "sims": 0.9415574143460562
                },
                {
                    "id": 1901510142,
                    "tags": {
                        "amenity": "parking"
                    },
                    "distance": 8014.65367477,
                    "sims": 0.9388628151743853
                },
                {
                    "id": 9130838867,
                    "tags": {
                        "amenity": "parking_space",
                        "capacity": "1",
                        "parking_space": "disabled"
                    },
                    "distance": 2911.25160617,
                    "sims": 0.9381825401565451
                },
                {
                    "id": 9891490379,
                    "tags": {
                        "access": "private",
                        "amenity": "parking_entrance"
                    },
                    "distance": 1573.60882622,
                    "sims": 0.937999971151362
                },
                {
                    "id": 9130838908,
                    "tags": {
                        "amenity": "parking_space",
                        "capacity": "1",
                        "parking_space": "disabled"
                    },
                    "distance": 3350.67307512,
                    "sims": 0.9375116899595697
                }
            ]
        },
        "34": {
            "execution_time": 0.181044340133667,
            "results": [
                {
                    "id": 8063999185,
                    "tags": {
                        "waste": "trash;recycling",
                        "amenity": "waste_basket"
                    },
                    "distance": 4750.62415611,
                    "sims": 0.9017183253447476
                },
                {
                    "id": 11927508135,
                    "tags": {
                        "waste": "trash",
                        "amenity": "waste_basket"
                    },
                    "distance": 12858.40570139,
                    "sims": 0.8611093610516982
                },
                {
                    "id": 11924029314,
                    "tags": {
                        "waste": "trash",
                        "amenity": "waste_basket"
                    },
                    "distance": 14928.06433956,
                    "sims": 0.8538633651556854
                },
                {
                    "id": 8063999187,
                    "tags": {
                        "amenity": "waste_basket"
                    },
                    "distance": 4898.35233716,
                    "sims": 0.848372676095732
                },
                {
                    "id": 11821752222,
                    "tags": {
                        "waste": "trash",
                        "amenity": "waste_basket"
                    },
                    "distance": 17042.27901977,
                    "sims": 0.8422640562957733
                },
                {
                    "id": 9027649625,
                    "tags": {
                        "amenity": "shelter",
                        "shelter_type": "picnic_shelter"
                    },
                    "distance": 6020.39453756,
                    "sims": 0.8405655864272993
                },
                {
                    "id": 10292558212,
                    "tags": {
                        "amenity": "waste_basket"
                    },
                    "distance": 14247.59966296,
                    "sims": 0.8315278479623833
                },
                {
                    "id": 2707924884,
                    "tags": {
                        "amenity": "recycling",
                        "recycling:cans": "yes",
                        "recycling:wood": "no",
                        "recycling_type": "container",
                        "recycling:books": "no",
                        "recycling:glass": "no",
                        "recycling:paper": "no",
                        "recycling:waste": "no",
                        "recycling:cartons": "no",
                        "recycling:clothes": "no",
                        "recycling:plastic": "no",
                        "recycling:batteries": "no",
                        "recycling:cardboard": "no",
                        "recycling:magazines": "no",
                        "recycling:newspaper": "no",
                        "recycling:green_waste": "no",
                        "recycling:scrap_metal": "no",
                        "recycling:glass_bottles": "yes",
                        "recycling:paper_packaging": "no",
                        "recycling:small_appliances": "no",
                        "recycling:plastic_packaging": "no",
                        "recycling:electrical_appliances": "no"
                    },
                    "distance": 21541.44558975,
                    "sims": 0.831497280804964
                },
                {
                    "id": 11856473430,
                    "tags": {
                        "waste": "trash",
                        "amenity": "waste_basket"
                    },
                    "distance": 18673.67604038,
                    "sims": 0.824272110624473
                },
                {
                    "id": 11118881735,
                    "tags": {
                        "bin": "no",
                        "fee": "no",
                        "amenity": "vending_machine",
                        "vending": "excrement_bags"
                    },
                    "distance": 10877.9645437,
                    "sims": 0.8222190380080537
                }
            ]
        },
        "35": {
            "execution_time": 0.18096590042114258,
            "results": [
                {
                    "id": 12412347805,
                    "tags": {
                        "addr:street": "Nicholson Parade",
                        "addr:housenumber": "18"
                    },
                    "distance": 5329.50822429,
                    "sims": 0.7871918412268927
                },
                {
                    "id": 12412347806,
                    "tags": {
                        "addr:street": "Nicholson Parade",
                        "addr:housenumber": "20"
                    },
                    "distance": 5312.41618324,
                    "sims": 0.7851729269477594
                },
                {
                    "id": 12412251918,
                    "tags": {
                        "addr:street": "Teague Crescent",
                        "addr:housenumber": "93"
                    },
                    "distance": 7453.18500991,
                    "sims": 0.7812455073033133
                },
                {
                    "id": 12412252482,
                    "tags": {
                        "addr:flats": "1-9",
                        "addr:street": "Hargreaves Crescent",
                        "addr:housenumber": "69-73"
                    },
                    "distance": 7403.59098502,
                    "sims": 0.7804791840179814
                },
                {
                    "id": 12419831791,
                    "tags": {
                        "addr:street": "Grantham Parade",
                        "addr:housenumber": "47"
                    },
                    "distance": 4062.93195849,
                    "sims": 0.7799925720750913
                },
                {
                    "id": 12412519555,
                    "tags": {
                        "addr:street": "Stevenage Crescent",
                        "addr:housenumber": "73"
                    },
                    "distance": 1229.00790087,
                    "sims": 0.779031341884347
                },
                {
                    "id": 12412348882,
                    "tags": {
                        "addr:street": "Morrison Crescent",
                        "addr:housenumber": "34"
                    },
                    "distance": 6229.20433391,
                    "sims": 0.7787044439047583
                },
                {
                    "id": 12412517511,
                    "tags": {
                        "addr:street": "Doherty Street",
                        "addr:housenumber": "17"
                    },
                    "distance": 1760.82320689,
                    "sims": 0.7784468592254097
                },
                {
                    "id": 12420077171,
                    "tags": {
                        "addr:flats": "1-14",
                        "addr:street": "Dohertys Road",
                        "addr:housenumber": "479"
                    },
                    "distance": 7893.48787642,
                    "sims": 0.7775049608912352
                },
                {
                    "id": 12419672475,
                    "tags": {
                        "addr:street": "Myers Parade",
                        "addr:housenumber": "52"
                    },
                    "distance": 12856.05128368,
                    "sims": 0.7771446643544534
                }
            ]
        },
        "36": {
            "execution_time": 0.17681884765625,
            "results": [
                {
                    "id": 11436852023,
                    "tags": {
                        "bus": "yes",
                        "ref": "20972",
                        "name": "Werribee Station/Manly Street",
                        "highway": "bus_stop",
                        "public_transport": "platform"
                    },
                    "distance": 6896.04429612,
                    "sims": 0.8676639234238591
                },
                {
                    "id": 11443658814,
                    "tags": {
                        "bus": "yes",
                        "ref": "50225",
                        "name": "Kimberley Road/Ballan Road",
                        "highway": "bus_stop",
                        "public_transport": "platform"
                    },
                    "distance": 7508.58226012,
                    "sims": 0.8592293849823213
                },
                {
                    "id": 4751853128,
                    "tags": {
                        "bus": "yes",
                        "name": "Land Sales Office",
                        "highway": "bus_stop",
                        "public_transport": "platform"
                    },
                    "distance": 11611.79725093,
                    "sims": 0.856775667128539
                },
                {
                    "id": 11443658867,
                    "tags": {
                        "bus": "yes",
                        "ref": "47152",
                        "name": "Quay Boulevard/Duncans Road",
                        "highway": "bus_stop",
                        "public_transport": "platform"
                    },
                    "distance": 14174.36473858,
                    "sims": 0.8567299844557857
                },
                {
                    "id": 10904173897,
                    "tags": {
                        "bus": "yes",
                        "name": "Mernda Rd/Glengala Rd",
                        "highway": "bus_stop",
                        "public_transport": "platform"
                    },
                    "distance": 13497.19015813,
                    "sims": 0.853806284085547
                },
                {
                    "id": 7838673773,
                    "tags": {
                        "bus": "yes",
                        "name": "Jacaranda Dr/Taylors Rd",
                        "highway": "bus_stop",
                        "public_transport": "platform"
                    },
                    "distance": 14114.02798263,
                    "sims": 0.8497087300866389
                },
                {
                    "id": 1818775476,
                    "tags": {
                        "bus": "yes",
                        "ref": "416",
                        "name": "Daniela Way/Shane Avenue",
                        "highway": "bus_stop",
                        "network": "PTV",
                        "operator": "Westrans",
                        "public_transport": "stop_position"
                    },
                    "distance": 7622.64361932,
                    "sims": 0.8476237603580388
                },
                {
                    "id": 11443658852,
                    "tags": {
                        "bus": "yes",
                        "ref": "5206",
                        "name": "Beldale Avenue/Westleigh Drive",
                        "highway": "bus_stop",
                        "public_transport": "platform"
                    },
                    "distance": 9267.85143828,
                    "sims": 0.8468876776237199
                },
                {
                    "id": 12419830116,
                    "tags": {
                        "addr:flats": "1-3",
                        "addr:street": "Sydney Street",
                        "addr:housenumber": "55"
                    },
                    "distance": 14015.8921975,
                    "sims": 0.844838147529018
                },
                {
                    "id": 10904173887,
                    "tags": {
                        "bus": "yes",
                        "name": "Allison St/Glengala Rd",
                        "highway": "bus_stop",
                        "public_transport": "platform"
                    },
                    "distance": 11518.07642835,
                    "sims": 0.8435097486926862
                }
            ]
        },
        "37": {
            "execution_time": 0.1892557144165039,
            "results": [
                {
                    "id": 7838673773,
                    "tags": {
                        "bus": "yes",
                        "name": "Jacaranda Dr/Taylors Rd",
                        "highway": "bus_stop",
                        "public_transport": "platform"
                    },
                    "distance": 1835.79204735,
                    "sims": 0.809720543233352
                },
                {
                    "id": 3008339116,
                    "tags": {
                        "name": "Mount Atkinson",
                        "name:zh": "\u963f\u7279\u91d1\u68ee\u5cf0",
                        "natural": "peak",
                        "wikidata": "Q21938577"
                    },
                    "distance": 5419.07990584,
                    "sims": 0.8071758527929679
                },
                {
                    "id": 10904173887,
                    "tags": {
                        "bus": "yes",
                        "name": "Allison St/Glengala Rd",
                        "highway": "bus_stop",
                        "public_transport": "platform"
                    },
                    "distance": 8257.44022738,
                    "sims": 0.7931296691867445
                },
                {
                    "id": 6177653288,
                    "tags": {
                        "access": "yes",
                        "amenity": "bicycle_parking",
                        "covered": "no",
                        "capacity": "10",
                        "bicycle_parking": "stands"
                    },
                    "distance": 7532.76767627,
                    "sims": 0.7907882665722178
                },
                {
                    "id": 5999528619,
                    "tags": {
                        "access": "yes",
                        "amenity": "bicycle_parking",
                        "covered": "no",
                        "capacity": "10",
                        "bicycle_parking": "stands"
                    },
                    "distance": 10783.6734749,
                    "sims": 0.7901531789117922
                },
                {
                    "id": 6089182125,
                    "tags": {
                        "bin": "no",
                        "bus": "yes",
                        "name": "Halstead Street",
                        "highway": "bus_stop",
                        "route_ref": "220",
                        "tactile_paving": "no",
                        "public_transport": "platform"
                    },
                    "distance": 12931.926211,
                    "sims": 0.7884317836985051
                },
                {
                    "id": 11240542097,
                    "tags": {
                        "name": "Greyhound Adoption Program",
                        "phone": "+61 3 5799 0166",
                        "amenity": "animal_shelter",
                        "website": "https://gap.grv.org.au/",
                        "operator": "Greyhound Racing Victoria",
                        "opening_hours": "Mo-Sa 10:00-15:00",
                        "animal_shelter": "dog"
                    },
                    "distance": 12900.43904721,
                    "sims": 0.7873114075006132
                },
                {
                    "id": 12636580234,
                    "tags": {
                        "name": "Yarraville West School Office",
                        "amenity": "school"
                    },
                    "distance": 16234.42962119,
                    "sims": 0.7856337619415508
                },
                {
                    "id": 11601270038,
                    "tags": {
                        "name": "Sunshine Plaza Skatepark",
                        "sport": "skateboard",
                        "access": "yes",
                        "leisure": "pitch",
                        "surface": "concrete"
                    },
                    "distance": 10669.04068183,
                    "sims": 0.7852050979985842
                },
                {
                    "id": 4398859727,
                    "tags": {
                        "bus": "yes",
                        "name": "Essendon North Primary School",
                        "network": "PTV - Metropolitan Buses",
                        "operator": "Tullamarine;Sunbury",
                        "public_transport": "stop_position"
                    },
                    "distance": 15010.00088535,
                    "sims": 0.7835258429880394
                }
            ]
        },
        "38": {
            "execution_time": 0.19363880157470703,
            "results": [
                {
                    "id": 6017200213,
                    "tags": {
                        "amenity": "bicycle_parking"
                    },
                    "distance": 1477.93597602,
                    "sims": 0.9735669266551559
                },
                {
                    "id": 600674103,
                    "tags": {
                        "amenity": "bicycle_parking"
                    },
                    "distance": 5236.77018745,
                    "sims": 0.9661330105782984
                },
                {
                    "id": 940960187,
                    "tags": {
                        "amenity": "bicycle_parking"
                    },
                    "distance": 7712.28690878,
                    "sims": 0.9618307443069252
                },
                {
                    "id": 2017402077,
                    "tags": {
                        "amenity": "bicycle_parking",
                        "capacity": "10"
                    },
                    "distance": 3527.88587081,
                    "sims": 0.9519466304938529
                },
                {
                    "id": 12176757876,
                    "tags": {
                        "amenity": "bicycle_parking",
                        "capacity": "4"
                    },
                    "distance": 5191.98182288,
                    "sims": 0.949889762729223
                },
                {
                    "id": 3494855069,
                    "tags": {
                        "amenity": "bicycle_parking"
                    },
                    "distance": 10050.27522786,
                    "sims": 0.9495626838318877
                },
                {
                    "id": 11345589322,
                    "tags": {
                        "amenity": "bicycle_parking"
                    },
                    "distance": 7833.42354251,
                    "sims": 0.9479947245137146
                },
                {
                    "id": 6017200135,
                    "tags": {
                        "amenity": "bicycle_parking",
                        "covered": "no",
                        "bicycle_parking": "stands"
                    },
                    "distance": 1724.48399841,
                    "sims": 0.9474465407590867
                },
                {
                    "id": 10261553054,
                    "tags": {
                        "amenity": "bicycle_parking",
                        "covered": "no",
                        "capacity": "22",
                        "bicycle_parking": "stands"
                    },
                    "distance": 2031.39264594,
                    "sims": 0.946813210209692
                },
                {
                    "id": 10228158782,
                    "tags": {
                        "amenity": "bicycle_parking",
                        "capacity": "4"
                    },
                    "distance": 6600.04988424,
                    "sims": 0.946706194863515
                }
            ]
        },
        "39": {
            "execution_time": 0.18834328651428223,
            "results": [
                {
                    "id": 9544937926,
                    "tags": {
                        "amenity": "bench"
                    },
                    "distance": 3099.10462082,
                    "sims": 0.948346507943536
                },
                {
                    "id": 11016755952,
                    "tags": {
                        "amenity": "bench"
                    },
                    "distance": 13863.24620575,
                    "sims": 0.9425891774680459
                },
                {
                    "id": 7745862796,
                    "tags": {
                        "amenity": "bench",
                        "tourism": "viewpoint",
                        "backrest": "yes"
                    },
                    "distance": 15258.75669513,
                    "sims": 0.9103082632283795
                },
                {
                    "id": 4357505655,
                    "tags": {
                        "amenity": "bench"
                    },
                    "distance": 25960.31914271,
                    "sims": 0.9086035978727315
                },
                {
                    "id": 1948991020,
                    "tags": {
                        "amenity": "restaurant"
                    },
                    "distance": 14431.15426823,
                    "sims": 0.8975125795573061
                },
                {
                    "id": 7645068817,
                    "tags": {
                        "amenity": "restaurant"
                    },
                    "distance": 14444.15615859,
                    "sims": 0.8974070793612069
                },
                {
                    "id": 12221800066,
                    "tags": {
                        "amenity": "restaurant"
                    },
                    "distance": 12399.32532887,
                    "sims": 0.8912800874471546
                },
                {
                    "id": 12420529984,
                    "tags": {
                        "addr:street": "Jamieson Court",
                        "addr:housenumber": "32"
                    },
                    "distance": 14760.02068987,
                    "sims": 0.8900026345246963
                },
                {
                    "id": 12415017053,
                    "tags": {
                        "addr:unit": "2",
                        "addr:street": "Chatfield Avenue",
                        "addr:housenumber": "22"
                    },
                    "distance": 8458.19983753,
                    "sims": 0.8899066776315481
                },
                {
                    "id": 12420442486,
                    "tags": {
                        "addr:unit": "1",
                        "addr:street": "Brasser Avenue",
                        "addr:housenumber": "34"
                    },
                    "distance": 1669.85016726,
                    "sims": 0.8877718716211878
                }
            ]
        },
        "40": {
            "execution_time": 0.1920781135559082,
            "results": [
                {
                    "id": 2094683624,
                    "tags": {
                        "addr:street": "Winners Circle",
                        "addr:postcode": "3195",
                        "addr:housenumber": "44"
                    },
                    "distance": 10167.70128505,
                    "sims": 0.7610733161035088
                },
                {
                    "id": 2094676067,
                    "tags": {
                        "addr:street": "Winners Circle",
                        "addr:postcode": "3195",
                        "addr:housenumber": "89"
                    },
                    "distance": 10290.45737873,
                    "sims": 0.7602536919004009
                },
                {
                    "id": 2095656935,
                    "tags": {
                        "addr:street": "Winners Circle",
                        "addr:postcode": "3195",
                        "addr:housenumber": "14"
                    },
                    "distance": 10182.23897004,
                    "sims": 0.7592060797271899
                },
                {
                    "id": 2095661618,
                    "tags": {
                        "addr:street": "Winners Circle",
                        "addr:postcode": "3195",
                        "addr:housenumber": "45"
                    },
                    "distance": 10092.25460132,
                    "sims": 0.758124597668528
                },
                {
                    "id": 2097719715,
                    "tags": {
                        "addr:street": "The Waterways Boulevard",
                        "addr:postcode": "3195",
                        "addr:housenumber": "7"
                    },
                    "distance": 10381.1120074,
                    "sims": 0.7580883128243551
                },
                {
                    "id": 5526680250,
                    "tags": {
                        "name": "Boat Launch Ramp No.4",
                        "lanes": "2",
                        "leisure": "slipway"
                    },
                    "distance": 16284.79140232,
                    "sims": 0.7571879242553676
                },
                {
                    "id": 12419637989,
                    "tags": {
                        "addr:street": "Bridgewater Drive",
                        "addr:housenumber": "21"
                    },
                    "distance": 6910.56703521,
                    "sims": 0.7565657108122549
                },
                {
                    "id": 2097719685,
                    "tags": {
                        "addr:street": "The Waterways Boulevard",
                        "addr:postcode": "3195",
                        "addr:housenumber": "19"
                    },
                    "distance": 10373.55683721,
                    "sims": 0.756365163544701
                },
                {
                    "id": 2099152026,
                    "tags": {
                        "addr:street": "Lake King Circle",
                        "addr:postcode": "3195",
                        "addr:housenumber": "17"
                    },
                    "distance": 10083.35928241,
                    "sims": 0.7553735572462335
                },
                {
                    "id": 9260723187,
                    "tags": {
                        "tourism": "artwork"
                    },
                    "distance": 19874.61341218,
                    "sims": 0.7551173987581976
                }
            ]
        },
        "41": {
            "execution_time": 0.19815444946289062,
            "results": [
                {
                    "id": 4242570424,
                    "tags": {
                        "building": "yes",
                        "addr:street": "Frankston Gardens Drive",
                        "addr:housenumber": "75"
                    },
                    "distance": 7433.80650568,
                    "sims": 0.8144315081766107
                },
                {
                    "id": 4283266847,
                    "tags": {
                        "building": "yes",
                        "addr:street": "Frankston Gardens Drive",
                        "addr:housenumber": "91"
                    },
                    "distance": 7894.18235122,
                    "sims": 0.8093684002726522
                },
                {
                    "id": 8218397427,
                    "tags": {
                        "building": "yes",
                        "addr:street": "Frankston Gardens Drive",
                        "addr:housenumber": "120"
                    },
                    "distance": 8233.32556677,
                    "sims": 0.8059594898031626
                },
                {
                    "id": 12420049492,
                    "tags": {
                        "addr:unit": "17",
                        "addr:street": "Frankston Gardens Drive",
                        "addr:housenumber": "71"
                    },
                    "distance": 7440.95822374,
                    "sims": 0.7982166043361638
                },
                {
                    "id": 12420050068,
                    "tags": {
                        "addr:street": "Frankston Gardens Drive",
                        "addr:housenumber": "32-34"
                    },
                    "distance": 6948.73450909,
                    "sims": 0.7980621090232369
                },
                {
                    "id": 12420049494,
                    "tags": {
                        "addr:unit": "14",
                        "addr:street": "Frankston Gardens Drive",
                        "addr:housenumber": "71"
                    },
                    "distance": 7410.69408302,
                    "sims": 0.7967402915599209
                },
                {
                    "id": 12420053029,
                    "tags": {
                        "addr:street": "Frankston Gardens Drive",
                        "addr:housenumber": "115S"
                    },
                    "distance": 8305.92022183,
                    "sims": 0.7951790783770601
                },
                {
                    "id": 12420050566,
                    "tags": {
                        "addr:unit": "3",
                        "addr:street": "Frankston Gardens Drive",
                        "addr:housenumber": "32-34"
                    },
                    "distance": 6924.94218321,
                    "sims": 0.7943860749196301
                },
                {
                    "id": 12420051572,
                    "tags": {
                        "addr:unit": "25",
                        "addr:street": "Frankston Gardens Drive",
                        "addr:housenumber": "59"
                    },
                    "distance": 7069.09124142,
                    "sims": 0.7942018123636254
                },
                {
                    "id": 6052203145,
                    "tags": {
                        "building": "yes",
                        "addr:street": "Victory Road",
                        "addr:housenumber": "7"
                    },
                    "distance": 6003.27483845,
                    "sims": 0.7922794064507653
                }
            ]
        },
        "42": {
            "execution_time": 0.20262408256530762,
            "results": [
                {
                    "id": 945554121,
                    "tags": {
                        "name": "Launder It",
                        "amenity": "cafe"
                    },
                    "distance": 2769.36945767,
                    "sims": 0.9626148894566234
                },
                {
                    "id": 4643411556,
                    "tags": {
                        "name": "Alour Cafe",
                        "amenity": "cafe"
                    },
                    "distance": 4085.83831656,
                    "sims": 0.962099933937186
                },
                {
                    "id": 711750998,
                    "tags": {
                        "amenity": "cafe"
                    },
                    "distance": 7335.71335,
                    "sims": 0.9596846627625237
                },
                {
                    "id": 3079502040,
                    "tags": {
                        "name": "Cafe Piccolina",
                        "amenity": "cafe"
                    },
                    "distance": 5895.248474,
                    "sims": 0.9573825546959176
                },
                {
                    "id": 6017200045,
                    "tags": {
                        "name": "HA Espresso",
                        "amenity": "cafe"
                    },
                    "distance": 1242.00230447,
                    "sims": 0.9560757511967088
                },
                {
                    "id": 763661408,
                    "tags": {
                        "name": "Sage And Grace Cafe",
                        "amenity": "cafe"
                    },
                    "distance": 5344.56386574,
                    "sims": 0.9519311416046571
                },
                {
                    "id": 11834499015,
                    "tags": {
                        "name": "Clove Cafe & Restaurant",
                        "amenity": "cafe",
                        "addr:street": "Lygon Street",
                        "outdoor_seating": "no",
                        "addr:housenumber": "449"
                    },
                    "distance": 2265.51754379,
                    "sims": 0.9514414014150451
                },
                {
                    "id": 6017394207,
                    "tags": {
                        "name": "Red Bean",
                        "amenity": "cafe"
                    },
                    "distance": 1086.26192151,
                    "sims": 0.9513500870883637
                },
                {
                    "id": 6471919806,
                    "tags": {
                        "name": "Espresso Bar",
                        "amenity": "cafe"
                    },
                    "distance": 3896.47107058,
                    "sims": 0.951023334386753
                },
                {
                    "id": 7824640912,
                    "tags": {
                        "amenity": "cafe"
                    },
                    "distance": 10270.07143731,
                    "sims": 0.9485956369156472
                }
            ]
        },
        "43": {
            "execution_time": 0.19536423683166504,
            "results": [
                {
                    "id": 12421140643,
                    "tags": {
                        "addr:street": "Riviera Court",
                        "addr:housenumber": "7"
                    },
                    "distance": 4048.50576314,
                    "sims": 0.8560188665435239
                },
                {
                    "id": 12411613904,
                    "tags": {
                        "addr:street": "Riviera Court",
                        "addr:housenumber": "6"
                    },
                    "distance": 5289.42841531,
                    "sims": 0.8545369245774395
                },
                {
                    "id": 12419122539,
                    "tags": {
                        "addr:street": "Tatura Crescent",
                        "addr:housenumber": "60"
                    },
                    "distance": 9092.80526942,
                    "sims": 0.8526378518671879
                },
                {
                    "id": 12418966307,
                    "tags": {
                        "addr:street": "Pimbial Court",
                        "addr:housenumber": "6"
                    },
                    "distance": 4967.69748172,
                    "sims": 0.8515888694736888
                },
                {
                    "id": 12418988133,
                    "tags": {
                        "addr:street": "Gallipoli Parade",
                        "addr:housenumber": "45"
                    },
                    "distance": 5674.30068455,
                    "sims": 0.8504045159830337
                },
                {
                    "id": 12411992623,
                    "tags": {
                        "addr:street": "Greta Court",
                        "addr:housenumber": "4"
                    },
                    "distance": 9475.54875773,
                    "sims": 0.8502079487342954
                },
                {
                    "id": 12419122582,
                    "tags": {
                        "addr:street": "Tatura Crescent",
                        "addr:housenumber": "9"
                    },
                    "distance": 9039.9430417,
                    "sims": 0.849936687931249
                },
                {
                    "id": 12412053197,
                    "tags": {
                        "addr:street": "Coorong Court",
                        "addr:housenumber": "3"
                    },
                    "distance": 11425.71783675,
                    "sims": 0.8495324401654261
                },
                {
                    "id": 12411712423,
                    "tags": {
                        "addr:street": "Reynolds Parade",
                        "addr:housenumber": "75"
                    },
                    "distance": 5371.57915659,
                    "sims": 0.8493393300388887
                },
                {
                    "id": 12411663374,
                    "tags": {
                        "addr:street": "Dunstan Parade",
                        "addr:housenumber": "10"
                    },
                    "distance": 7624.47594139,
                    "sims": 0.8492691843395344
                }
            ]
        },
        "44": {
            "execution_time": 0.17840051651000977,
            "results": [
                {
                    "id": 9250342458,
                    "tags": {
                        "tourism": "artwork",
                        "artwork_type": "sculpture"
                    },
                    "distance": 8635.51154427,
                    "sims": 0.916341669770364
                },
                {
                    "id": 9250342461,
                    "tags": {
                        "tourism": "artwork",
                        "artwork_type": "sculpture"
                    },
                    "distance": 8640.34111514,
                    "sims": 0.916341669770364
                },
                {
                    "id": 9237368696,
                    "tags": {
                        "tourism": "artwork",
                        "material": "metal",
                        "artwork_type": "sculpture"
                    },
                    "distance": 7552.87635089,
                    "sims": 0.9062406523134172
                },
                {
                    "id": 9175656619,
                    "tags": {
                        "tourism": "artwork",
                        "artwork_type": "sculpture"
                    },
                    "distance": 10006.51829337,
                    "sims": 0.9054601506770363
                },
                {
                    "id": 9175656618,
                    "tags": {
                        "tourism": "artwork",
                        "artwork_type": "sculpture"
                    },
                    "distance": 10008.51479029,
                    "sims": 0.9054601506770363
                },
                {
                    "id": 9260723187,
                    "tags": {
                        "tourism": "artwork"
                    },
                    "distance": 16477.8723538,
                    "sims": 0.8856613891307931
                },
                {
                    "id": 6013955307,
                    "tags": {
                        "name": "B5"
                    },
                    "distance": 1213.23747875,
                    "sims": 0.8764362563003123
                },
                {
                    "id": 2987188735,
                    "tags": {
                        "tourism": "artwork"
                    },
                    "distance": 18611.50744947,
                    "sims": 0.8742204790242287
                },
                {
                    "id": 4144390889,
                    "tags": {
                        "name": "Wooden Snake",
                        "tourism": "artwork",
                        "artwork_type": "sculpture"
                    },
                    "distance": 14897.7443731,
                    "sims": 0.8685169165329127
                },
                {
                    "id": 9326536582,
                    "tags": {
                        "leisure": "picnic_table"
                    },
                    "distance": 3646.65111161,
                    "sims": 0.8679374400209787
                }
            ]
        },
        "45": {
            "execution_time": 0.18710923194885254,
            "results": [
                {
                    "id": 10247935043,
                    "tags": {
                        "name": "WHSmith",
                        "shop": "newsagent",
                        "brand": "WHSmith",
                        "wheelchair": "yes",
                        "brand:wikidata": "Q1548712"
                    },
                    "distance": 6412.05320964,
                    "sims": 0.8638089408191476
                },
                {
                    "id": 3423127160,
                    "tags": {
                        "amenity": "telephone",
                        "operator": "Telstra",
                        "check_date": "2021-01-18",
                        "payment:coins": "yes",
                        "operator:wikidata": "Q721162",
                        "payment:telephone_cards": "yes"
                    },
                    "distance": 7491.29885362,
                    "sims": 0.8185272868059303
                },
                {
                    "id": 11240542097,
                    "tags": {
                        "name": "Greyhound Adoption Program",
                        "phone": "+61 3 5799 0166",
                        "amenity": "animal_shelter",
                        "website": "https://gap.grv.org.au/",
                        "operator": "Greyhound Racing Victoria",
                        "opening_hours": "Mo-Sa 10:00-15:00",
                        "animal_shelter": "dog"
                    },
                    "distance": 4729.438467,
                    "sims": 0.8132982293660493
                },
                {
                    "id": 2526096018,
                    "tags": {
                        "amenity": "post_box",
                        "operator": "Australia Post",
                        "operator:wikidata": "Q1142936"
                    },
                    "distance": 1265.140282,
                    "sims": 0.8071776168770393
                },
                {
                    "id": 2674596332,
                    "tags": {
                        "amenity": "telephone"
                    },
                    "distance": 7618.74697219,
                    "sims": 0.80700105637347
                },
                {
                    "id": 6928763149,
                    "tags": {
                        "name": "Hot Pepper Massage",
                        "shop": "massage"
                    },
                    "distance": 9684.94716507,
                    "sims": 0.8027529724696553
                },
                {
                    "id": 12418987596,
                    "tags": {
                        "addr:unit": "3",
                        "addr:street": "Bell Street",
                        "addr:housenumber": "578"
                    },
                    "distance": 6552.15281654,
                    "sims": 0.8027520783997172
                },
                {
                    "id": 444334836,
                    "tags": {
                        "source": "survey",
                        "amenity": "telephone"
                    },
                    "distance": 3303.46492371,
                    "sims": 0.8000447392610639
                },
                {
                    "id": 12418987864,
                    "tags": {
                        "addr:unit": "2",
                        "addr:street": "Bell Street",
                        "addr:housenumber": "574"
                    },
                    "distance": 6586.13169516,
                    "sims": 0.799530136417222
                },
                {
                    "id": 6968130703,
                    "tags": {
                        "name": "Hungry Jack's",
                        "brand": "Hungry Jack's",
                        "amenity": "fast_food",
                        "cuisine": "burger",
                        "takeaway": "yes",
                        "brand:wikidata": "Q3036373",
                        "brand:wikipedia": "en:Hungry Jack's"
                    },
                    "distance": 7056.7001014,
                    "sims": 0.7995239018259326
                }
            ]
        },
        "46": {
            "execution_time": 0.17701196670532227,
            "results": [
                {
                    "id": 12413564884,
                    "tags": {
                        "addr:street": "Heatherleigh Court",
                        "addr:housenumber": "27"
                    },
                    "distance": 4804.05584876,
                    "sims": 0.8297685853836411
                },
                {
                    "id": 12413711922,
                    "tags": {
                        "addr:street": "James Mcfarlane Wynd",
                        "addr:housenumber": "6"
                    },
                    "distance": 7161.19367736,
                    "sims": 0.8290590511424446
                },
                {
                    "id": 12420049972,
                    "tags": {
                        "addr:street": "Reece Court",
                        "addr:housenumber": "6"
                    },
                    "distance": 6855.07558081,
                    "sims": 0.8230506108172022
                },
                {
                    "id": 12420099699,
                    "tags": {
                        "addr:street": "Borrowdale Court",
                        "addr:housenumber": "8"
                    },
                    "distance": 8875.33509958,
                    "sims": 0.8221126502502341
                },
                {
                    "id": 12413711929,
                    "tags": {
                        "addr:street": "Kerrie Anne Court",
                        "addr:housenumber": "4"
                    },
                    "distance": 6515.05829191,
                    "sims": 0.8207461743926339
                },
                {
                    "id": 12420099351,
                    "tags": {
                        "addr:street": "Borrowdale Court",
                        "addr:housenumber": "12"
                    },
                    "distance": 8901.97754153,
                    "sims": 0.8201759256298043
                },
                {
                    "id": 2095747354,
                    "tags": {
                        "addr:street": "Spinnaker Court",
                        "addr:postcode": "3195",
                        "addr:housenumber": "3"
                    },
                    "distance": 15875.95802311,
                    "sims": 0.8198011313330433
                },
                {
                    "id": 2095661623,
                    "tags": {
                        "addr:street": "Judith Court",
                        "addr:postcode": "3195",
                        "addr:housenumber": "6"
                    },
                    "distance": 16685.79413224,
                    "sims": 0.8195674213397863
                },
                {
                    "id": 12413711938,
                    "tags": {
                        "addr:street": "Kerrie Anne Court",
                        "addr:housenumber": "17"
                    },
                    "distance": 6568.26129555,
                    "sims": 0.8195301684079359
                },
                {
                    "id": 9447264137,
                    "tags": {
                        "amenity": "bench"
                    },
                    "distance": 7323.77932433,
                    "sims": 0.8191342740505748
                }
            ]
        },
        "47": {
            "execution_time": 0.17943620681762695,
            "results": [
                {
                    "id": 6017200213,
                    "tags": {
                        "amenity": "bicycle_parking"
                    },
                    "distance": 8265.60571685,
                    "sims": 0.9591928860398903
                },
                {
                    "id": 600674103,
                    "tags": {
                        "amenity": "bicycle_parking"
                    },
                    "distance": 14086.09984462,
                    "sims": 0.9323050178007156
                },
                {
                    "id": 9159664922,
                    "tags": {
                        "amenity": "bicycle_parking",
                        "covered": "no",
                        "bicycle_parking": "stands"
                    },
                    "distance": 6698.27071299,
                    "sims": 0.9313128900045707
                },
                {
                    "id": 2017402077,
                    "tags": {
                        "amenity": "bicycle_parking",
                        "capacity": "10"
                    },
                    "distance": 10713.22760703,
                    "sims": 0.9308053007622243
                },
                {
                    "id": 2375212278,
                    "tags": {
                        "amenity": "bicycle_parking",
                        "covered": "no",
                        "capacity": "6",
                        "bicycle_parking": "stands"
                    },
                    "distance": 4482.11398485,
                    "sims": 0.9289945663787518
                },
                {
                    "id": 6017200135,
                    "tags": {
                        "amenity": "bicycle_parking",
                        "covered": "no",
                        "bicycle_parking": "stands"
                    },
                    "distance": 8060.04642112,
                    "sims": 0.9222035129798691
                },
                {
                    "id": 11345589322,
                    "tags": {
                        "amenity": "bicycle_parking"
                    },
                    "distance": 15477.1327428,
                    "sims": 0.9209249928922024
                },
                {
                    "id": 9096630402,
                    "tags": {
                        "amenity": "parking_space",
                        "capacity": "1",
                        "parking_space": "disabled"
                    },
                    "distance": 5012.31918994,
                    "sims": 0.9196001003743165
                },
                {
                    "id": 5497849867,
                    "tags": {
                        "amenity": "bicycle_parking",
                        "capacity": "10"
                    },
                    "distance": 13838.17646851,
                    "sims": 0.9139820029671787
                },
                {
                    "id": 1211725097,
                    "tags": {
                        "amenity": "parking"
                    },
                    "distance": 8956.69072657,
                    "sims": 0.9129707502022673
                }
            ]
        },
        "48": {
            "execution_time": 0.18237686157226562,
            "results": [
                {
                    "id": 7405178945,
                    "tags": {
                        "building": "yes",
                        "addr:street": "Stanley Avenue",
                        "addr:housenumber": "70"
                    },
                    "distance": 6488.31045086,
                    "sims": 0.7950196869642182
                },
                {
                    "id": 12419329395,
                    "tags": {
                        "addr:unit": "1",
                        "addr:street": "Panorama Street",
                        "addr:housenumber": "52"
                    },
                    "distance": 9758.08108881,
                    "sims": 0.7902127518933063
                },
                {
                    "id": 8235890409,
                    "tags": {
                        "building": "yes",
                        "addr:unit": "16",
                        "addr:street": "Kingsley Crescent",
                        "addr:housenumber": "17"
                    },
                    "distance": 5214.97014945,
                    "sims": 0.7891959454546161
                },
                {
                    "id": 12418893635,
                    "tags": {
                        "name": "Coco Nail Spa",
                        "shop": "beauty",
                        "level": "0",
                        "beauty": "nails",
                        "wheelchair": "no",
                        "addr:street": "Union Road",
                        "addr:housenumber": "133"
                    },
                    "distance": 3594.66021035,
                    "sims": 0.7891363282556073
                },
                {
                    "id": 12418952837,
                    "tags": {
                        "addr:street": "St Georges Crescent",
                        "addr:housenumber": "65"
                    },
                    "distance": 2660.31713201,
                    "sims": 0.788500227600308
                },
                {
                    "id": 12254200511,
                    "tags": {
                        "building": "yes",
                        "addr:street": "Rosaline Avenue",
                        "addr:housenumber": "3"
                    },
                    "distance": 5815.85688453,
                    "sims": 0.7884501597076495
                },
                {
                    "id": 11342347629,
                    "tags": {
                        "building": "yes",
                        "addr:unit": "1",
                        "addr:street": "Winbirra Parade",
                        "addr:housenumber": "45"
                    },
                    "distance": 3686.52317705,
                    "sims": 0.7879313736125588
                },
                {
                    "id": 12418964044,
                    "tags": {
                        "addr:flats": "1-12",
                        "addr:street": "Rob Roy Road",
                        "addr:housenumber": "15-21"
                    },
                    "distance": 3753.37511974,
                    "sims": 0.7872422717972634
                },
                {
                    "id": 12419072200,
                    "tags": {
                        "addr:unit": "3",
                        "addr:street": "Cole Crescent",
                        "addr:housenumber": "8"
                    },
                    "distance": 4787.06768521,
                    "sims": 0.7872321390094634
                },
                {
                    "id": 12294735097,
                    "tags": {
                        "building": "yes",
                        "addr:street": "Batesford Road",
                        "addr:housenumber": "37"
                    },
                    "distance": 4069.49375042,
                    "sims": 0.7863122010864978
                }
            ]
        },
        "49": {
            "execution_time": 0.1802206039428711,
            "results": [
                {
                    "id": 12411535671,
                    "tags": {
                        "addr:street": "Braeside Drive",
                        "addr:housenumber": "25"
                    },
                    "distance": 2525.14596429,
                    "sims": 0.9426922866472923
                },
                {
                    "id": 12410838289,
                    "tags": {
                        "addr:street": "Arapilles Drive",
                        "addr:housenumber": "3"
                    },
                    "distance": 1157.02331431,
                    "sims": 0.941007351189205
                },
                {
                    "id": 12411533415,
                    "tags": {
                        "addr:street": "Verdi Court",
                        "addr:housenumber": "6"
                    },
                    "distance": 3877.10939312,
                    "sims": 0.9405072682642504
                },
                {
                    "id": 12418111999,
                    "tags": {
                        "addr:street": "Macedon Court",
                        "addr:housenumber": "17"
                    },
                    "distance": 503.60214793,
                    "sims": 0.9404925178894447
                },
                {
                    "id": 12418111884,
                    "tags": {
                        "addr:street": "Hazel Drive",
                        "addr:housenumber": "36"
                    },
                    "distance": 1419.11550729,
                    "sims": 0.9404222404705294
                },
                {
                    "id": 12418909131,
                    "tags": {
                        "addr:street": "Corona Court",
                        "addr:housenumber": "8"
                    },
                    "distance": 4937.73393844,
                    "sims": 0.9396159720878701
                },
                {
                    "id": 12410833149,
                    "tags": {
                        "addr:street": "Darrandaul Drive",
                        "addr:housenumber": "6"
                    },
                    "distance": 3200.66220182,
                    "sims": 0.9392725581581198
                },
                {
                    "id": 12410838287,
                    "tags": {
                        "addr:street": "Arapilles Drive",
                        "addr:housenumber": "1"
                    },
                    "distance": 1172.40114335,
                    "sims": 0.9392177571264957
                },
                {
                    "id": 12418092822,
                    "tags": {
                        "addr:street": "Tarcoola Drive",
                        "addr:housenumber": "4"
                    },
                    "distance": 4139.41011586,
                    "sims": 0.9390512777505848
                },
                {
                    "id": 12411495859,
                    "tags": {
                        "addr:street": "Bullanoo Court",
                        "addr:housenumber": "24"
                    },
                    "distance": 7878.58080974,
                    "sims": 0.9382383337786809
                }
            ]
        }
    }
}