{
    "insertion_time": 53.90156888961792,
    "index_creation": {
        "func": [
            "CREATE INDEX IF NOT EXISTS idx_pois_embedding ON PoIs USING hnsw (embedding vector_cosine_ops) WITH (m = 16, ef_construction = 64);"
        ],
        "time": 21.707355737686157
    },
    "query_results": {
        "0": {
            "execution_time": 0.1932077407836914,
            "results": [
                {
                    "id": 12411515329,
                    "tags": {
                        "addr:street": "Elgar Road",
                        "addr:housenumber": "571A"
                    },
                    "distance": 14557.63342553,
                    "sims": 0.8290517330169737
                },
                {
                    "id": 12411515146,
                    "tags": {
                        "addr:street": "Elgar Road",
                        "addr:housenumber": "573A"
                    },
                    "distance": 14587.18816912,
                    "sims": 0.8283023587375209
                },
                {
                    "id": 12418297579,
                    "tags": {
                        "addr:street": "Elgar Road",
                        "addr:housenumber": "421"
                    },
                    "distance": 13288.27211026,
                    "sims": 0.815097879463562
                },
                {
                    "id": 12418330744,
                    "tags": {
                        "addr:street": "Elgar Road",
                        "addr:housenumber": "582-584"
                    },
                    "distance": 14660.07062524,
                    "sims": 0.8102510201631761
                },
                {
                    "id": 12418891277,
                    "tags": {
                        "addr:street": "Elgar Road",
                        "addr:housenumber": "279-281"
                    },
                    "distance": 12246.50114226,
                    "sims": 0.8054234501467094
                },
                {
                    "id": 12418330336,
                    "tags": {
                        "addr:street": "Elgar Road",
                        "addr:housenumber": "594"
                    },
                    "distance": 14740.49749172,
                    "sims": 0.8005385517753048
                },
                {
                    "id": 12418324206,
                    "tags": {
                        "addr:street": "Elgar Road",
                        "addr:housenumber": "557"
                    },
                    "distance": 14474.7083703,
                    "sims": 0.7992091418255398
                },
                {
                    "id": 12411617646,
                    "tags": {
                        "addr:flats": "1-8",
                        "addr:street": "Elgar Road",
                        "addr:housenumber": "355"
                    },
                    "distance": 12817.45453548,
                    "sims": 0.7980979084968624
                },
                {
                    "id": 12418323312,
                    "tags": {
                        "addr:flats": "1-4",
                        "addr:street": "Elgar Road",
                        "addr:housenumber": "511"
                    },
                    "distance": 14100.28003676,
                    "sims": 0.7978240492553652
                },
                {
                    "id": 12418376938,
                    "tags": {
                        "addr:street": "Elgar Road",
                        "addr:housenumber": "794"
                    },
                    "distance": 15947.62818683,
                    "sims": 0.7974261762245802
                }
            ]
        },
        "1": {
            "execution_time": 0.1815471649169922,
            "results": [
                {
                    "id": 6403296362,
                    "tags": {
                        "amenity": "restaurant"
                    },
                    "distance": 20836.97779796,
                    "sims": 0.8729371438326708
                },
                {
                    "id": 6110271656,
                    "tags": {
                        "name": "Chef Lagenda",
                        "amenity": "restaurant"
                    },
                    "distance": 11411.08919776,
                    "sims": 0.8680384113629096
                },
                {
                    "id": 7023231436,
                    "tags": {
                        "name": "Pizza Hut",
                        "brand": "Pizza Hut",
                        "amenity": "restaurant",
                        "cuisine": "pizza",
                        "toilets": "no",
                        "delivery": "yes",
                        "takeaway": "yes",
                        "wheelchair": "yes",
                        "brand:wikidata": "Q191615",
                        "brand:wikipedia": "en:Pizza Hut"
                    },
                    "distance": 8904.62566558,
                    "sims": 0.8645495741459276
                },
                {
                    "id": 3276141237,
                    "tags": {
                        "name": "Plates On bourke",
                        "amenity": "restaurant"
                    },
                    "distance": 25676.50661746,
                    "sims": 0.8561201781654055
                },
                {
                    "id": 12221800066,
                    "tags": {
                        "amenity": "restaurant"
                    },
                    "distance": 65608.46477839,
                    "sims": 0.8542952723111621
                },
                {
                    "id": 4194557558,
                    "tags": {
                        "amenity": "cafe"
                    },
                    "distance": 9818.7306577,
                    "sims": 0.8517607726786378
                },
                {
                    "id": 4000564628,
                    "tags": {
                        "name": "Queensberry Lunchbar",
                        "amenity": "fast_food",
                        "cuisine": "coffee_shop",
                        "addr:street": "Queensberry Street",
                        "addr:housenumber": "682"
                    },
                    "distance": 25288.05569599,
                    "sims": 0.8498537064296758
                },
                {
                    "id": 2421608381,
                    "tags": {
                        "name": "Fidels",
                        "amenity": "restaurant"
                    },
                    "distance": 26260.4064085,
                    "sims": 0.8453349612546692
                },
                {
                    "id": 4192572937,
                    "tags": {
                        "name": "Michels",
                        "amenity": "cafe"
                    },
                    "distance": 9795.84699604,
                    "sims": 0.8418612042135757
                },
                {
                    "id": 12414319787,
                    "tags": {
                        "addr:street": "Bakery Square",
                        "addr:housenumber": "34"
                    },
                    "distance": 16510.40418977,
                    "sims": 0.8394123294071928
                }
            ]
        },
        "2": {
            "execution_time": 0.18392038345336914,
            "results": [
                {
                    "id": 12418140175,
                    "tags": {
                        "addr:street": "St Georges Road",
                        "addr:housenumber": "395-395B"
                    },
                    "distance": 65140.92599181,
                    "sims": 0.822122062624995
                },
                {
                    "id": 12412077165,
                    "tags": {
                        "addr:unit": "2",
                        "addr:street": "St Georges Avenue",
                        "addr:housenumber": "4"
                    },
                    "distance": 50612.53702314,
                    "sims": 0.8115538885868778
                },
                {
                    "id": 12418139968,
                    "tags": {
                        "addr:street": "St Georges Road",
                        "addr:housenumber": "251-255"
                    },
                    "distance": 64614.45287528,
                    "sims": 0.8066333262285548
                },
                {
                    "id": 12412077164,
                    "tags": {
                        "addr:unit": "3",
                        "addr:street": "St Georges Avenue",
                        "addr:housenumber": "4"
                    },
                    "distance": 50608.70006593,
                    "sims": 0.7996632816013857
                },
                {
                    "id": 12418130505,
                    "tags": {
                        "addr:street": "St Georges Road",
                        "addr:housenumber": "326-332"
                    },
                    "distance": 67259.16272344,
                    "sims": 0.7972687974323027
                },
                {
                    "id": 2334908581,
                    "tags": {
                        "addr:street": "White Street",
                        "addr:postcode": "3195",
                        "addr:housenumber": "83"
                    },
                    "distance": 43116.26649112,
                    "sims": 0.796061970681295
                },
                {
                    "id": 12418139936,
                    "tags": {
                        "addr:unit": "1",
                        "addr:street": "St Georges Road",
                        "addr:housenumber": "325"
                    },
                    "distance": 64922.16391399,
                    "sims": 0.7954149029661592
                },
                {
                    "id": 11552114668,
                    "tags": {
                        "building": "yes",
                        "addr:street": "St Georges Road",
                        "addr:housenumber": "67"
                    },
                    "distance": 54173.70296229,
                    "sims": 0.7930679115926158
                },
                {
                    "id": 2095715140,
                    "tags": {
                        "addr:street": "Sutherland Avenue",
                        "addr:postcode": "3195",
                        "addr:housenumber": "36"
                    },
                    "distance": 42143.10004612,
                    "sims": 0.7911534113153349
                },
                {
                    "id": 2120292539,
                    "tags": {
                        "addr:unit": "1",
                        "addr:street": "White Street",
                        "addr:postcode": "3195",
                        "addr:housenumber": "2"
                    },
                    "distance": 42934.56075676,
                    "sims": 0.788673167523917
                }
            ]
        },
        "3": {
            "execution_time": 0.18682026863098145,
            "results": [
                {
                    "id": 687164065,
                    "tags": {
                        "shop": "car_repair"
                    },
                    "distance": 30670.47503673,
                    "sims": 0.8472631846791787
                },
                {
                    "id": 5999385855,
                    "tags": {
                        "name": "Cirfe",
                        "shop": "car_repair"
                    },
                    "distance": 13707.40047121,
                    "sims": 0.8099380958154145
                },
                {
                    "id": 5999385864,
                    "tags": {
                        "name": "Sunny Auto",
                        "shop": "car_repair"
                    },
                    "distance": 14287.96812747,
                    "sims": 0.7919205079173492
                },
                {
                    "id": 5960549360,
                    "tags": {
                        "name": "Auto Repairs",
                        "shop": "car_repair"
                    },
                    "distance": 49299.74338741,
                    "sims": 0.7797577876069226
                },
                {
                    "id": 12076418809,
                    "tags": {
                        "name": "The Landy Place",
                        "shop": "car_repair"
                    },
                    "distance": 35456.02654117,
                    "sims": 0.7200649118346132
                },
                {
                    "id": 6017236248,
                    "tags": {
                        "name": "G&B Motors",
                        "shop": "car_repair"
                    },
                    "distance": 10375.7621939,
                    "sims": 0.7059044417199938
                },
                {
                    "id": 392643731,
                    "tags": {
                        "name": "DJS Auto Electrical",
                        "shop": "car_repair"
                    },
                    "distance": 22428.65630347,
                    "sims": 0.6704419451688668
                },
                {
                    "id": 1826198580,
                    "tags": {
                        "amenity": "car_wash"
                    },
                    "distance": 16500.96285011,
                    "sims": 0.6625053092831051
                },
                {
                    "id": 1742570819,
                    "tags": {
                        "name": "R. & A. Saunders Automotive Repairs",
                        "shop": "car_repair"
                    },
                    "distance": 25349.14180602,
                    "sims": 0.6599318790517045
                },
                {
                    "id": 1422961973,
                    "tags": {
                        "name": "Brilliant Car Wash",
                        "amenity": "car_wash",
                        "automated": "yes",
                        "self_service": "no"
                    },
                    "distance": 13109.06643956,
                    "sims": 0.6575921790136983
                }
            ]
        },
        "4": {
            "execution_time": 0.1811995506286621,
            "results": [
                {
                    "id": 666846442,
                    "tags": {
                        "name": "Kmart",
                        "shop": "department_store",
                        "brand": "Kmart",
                        "phone": "+61 3 9387 8233",
                        "website": "https://www.kmart.com.au/",
                        "opening_hours": "Mo-Su 08:00-22:00",
                        "brand:wikidata": "Q6421682",
                        "brand:wikipedia": "en:Kmart Australia"
                    },
                    "distance": 4155.94758706,
                    "sims": 0.7956586249485218
                },
                {
                    "id": 2235581456,
                    "tags": {
                        "name": "Kmart",
                        "shop": "department_store",
                        "brand": "Kmart",
                        "phone": "+61 3 9421 0100",
                        "branch": "Victoria Gardens",
                        "website": "https://www.kmart.com.au/",
                        "opening_hours": "Mo-We 8:00-22:00; Th 7:00-22:00; Fr 8:00-22:00; Sa 8:00-20:00",
                        "brand:wikidata": "Q6421682",
                        "brand:wikipedia": "en:Kmart Australia"
                    },
                    "distance": 10001.71619809,
                    "sims": 0.7753297954404819
                },
                {
                    "id": 6091285353,
                    "tags": {
                        "bus": "yes",
                        "name": "McNamara Avenue/Fullarton Road",
                        "network": "PTV - Metropolitan Buses",
                        "operator": "Kastoria Bus Lines",
                        "public_transport": "stop_position"
                    },
                    "distance": 4587.67421914,
                    "sims": 0.7424466031917141
                },
                {
                    "id": 1766341037,
                    "tags": {
                        "name": "Kmart",
                        "shop": "department_store",
                        "brand": "Kmart",
                        "website": "https://www.kmart.com.au/",
                        "addr:postcode": "3805",
                        "opening_hours": "24/7",
                        "brand:wikidata": "Q6421682",
                        "brand:wikipedia": "en:Kmart Australia"
                    },
                    "distance": 44327.45970622,
                    "sims": 0.7368061417091949
                },
                {
                    "id": 11684015535,
                    "tags": {
                        "bin": "no",
                        "bus": "yes",
                        "lit": "yes",
                        "name": "St Marys Coptic Orthodox College/Thorpdale Ave",
                        "bench": "yes",
                        "highway": "bus_stop",
                        "network": "PTV - Metropolitan Buses",
                        "shelter": "yes",
                        "operator": "Dysons",
                        "tactile_paving": "yes",
                        "departures_board": "timetable",
                        "public_transport": "platform"
                    },
                    "distance": 11401.50939141,
                    "sims": 0.7325152359857465
                },
                {
                    "id": 12408340475,
                    "tags": {
                        "name": "Inner West Swedish Bakery",
                        "shop": "bakery",
                        "website": "https://innerwestswedishbaker.com.au/",
                        "check_date": "2024-12-10",
                        "addr:street": "Barkly Street",
                        "payment:cash": "yes",
                        "opening_hours": "Mo off; Tu-Su 07:00-14:00",
                        "addr:housenumber": "549A",
                        "payment:debit_cards": "yes",
                        "payment:credit_cards": "yes"
                    },
                    "distance": 5809.54407142,
                    "sims": 0.7263374438379202
                },
                {
                    "id": 11703218832,
                    "tags": {
                        "bin": "no",
                        "bus": "yes",
                        "lit": "yes",
                        "ref": "ID.2733",
                        "name": "Moreton Cres/Greenwood Dr",
                        "bench": "yes",
                        "highway": "bus_stop",
                        "network": "PTV - Metropolitan Buses",
                        "shelter": "yes",
                        "operator": "Dysons",
                        "wheelchair": "yes",
                        "tactile_paving": "yes",
                        "departures_board": "timetable",
                        "public_transport": "platform"
                    },
                    "distance": 13052.24593968,
                    "sims": 0.725210569736193
                },
                {
                    "id": 6094096299,
                    "tags": {
                        "bus": "yes",
                        "name": "Fullarton Road/Fosters Road",
                        "network": "PTV - Metropolitan Buses",
                        "operator": "Kastoria Bus Lines;Ryans Bus Lines",
                        "public_transport": "stop_position"
                    },
                    "distance": 7028.92720815,
                    "sims": 0.7227142187697833
                },
                {
                    "id": 11684015534,
                    "tags": {
                        "bin": "no",
                        "bus": "yes",
                        "name": "St Marys Coptic Orthodox College/Thorpdale Ave",
                        "bench": "no",
                        "highway": "bus_stop",
                        "network": "PTV - Metropolitan Buses",
                        "shelter": "no",
                        "operator": "Dysons",
                        "tactile_paving": "yes",
                        "departures_board": "timetable",
                        "public_transport": "platform"
                    },
                    "distance": 11412.43218034,
                    "sims": 0.7213572165923443
                },
                {
                    "id": 4336666427,
                    "tags": {
                        "bin": "yes",
                        "bus": "yes",
                        "ref": "6918",
                        "name": "Matthews Avenue",
                        "bench": "yes",
                        "highway": "bus_stop",
                        "network": "PTV - Metropolitan Buses",
                        "shelter": "yes",
                        "operator": "Sunbury;Kastoria",
                        "route_ref": "476;483",
                        "tactile_paving": "no",
                        "public_transport": "platform"
                    },
                    "distance": 3750.09950639,
                    "sims": 0.7195658422034179
                }
            ]
        },
        "5": {
            "execution_time": 0.17886805534362793,
            "results": [
                {
                    "id": 6057027966,
                    "tags": {
                        "building": "yes"
                    },
                    "distance": 28600.70721439,
                    "sims": 0.426344633102417
                },
                {
                    "id": 6057027964,
                    "tags": {
                        "building": "yes"
                    },
                    "distance": 28725.23560346,
                    "sims": 0.426072895526886
                },
                {
                    "id": 6057027950,
                    "tags": {
                        "building": "yes"
                    },
                    "distance": 28638.18789961,
                    "sims": 0.42573022842407227
                },
                {
                    "id": 7903498955,
                    "tags": {
                        "building": "yes"
                    },
                    "distance": 29806.96896542,
                    "sims": 0.42516040802001953
                },
                {
                    "id": 919254737,
                    "tags": {
                        "name": "053",
                        "note_1": "18-SEP-10 3:15:55PM",
                        "_waypoint_": "yes",
                        "_description_": "18-SEP-10 3:15:55PM"
                    },
                    "distance": 70909.54142858,
                    "sims": 0.4221718735150063
                },
                {
                    "id": 8940301696,
                    "tags": {
                        "building": "yes"
                    },
                    "distance": 44258.63087102,
                    "sims": 0.420952707529068
                },
                {
                    "id": 10239585569,
                    "tags": {
                        "bus": "yes",
                        "name": "Lawson Way/John Fawkner Drive",
                        "highway": "bus_stop",
                        "public_transport": "platform"
                    },
                    "distance": 19905.38006069,
                    "sims": 0.3807000517845154
                },
                {
                    "id": 10241824137,
                    "tags": {
                        "bus": "yes",
                        "name": "Ern Barker Reserve/Saffron Drive",
                        "highway": "bus_stop",
                        "public_transport": "platform"
                    },
                    "distance": 18238.62487588,
                    "sims": 0.3763834834098816
                },
                {
                    "id": 5526680250,
                    "tags": {
                        "name": "Boat Launch Ramp No.4",
                        "lanes": "2",
                        "leisure": "slipway"
                    },
                    "distance": 6152.10123356,
                    "sims": 0.37587714195251465
                },
                {
                    "id": 2094263831,
                    "tags": {
                        "addr:street": "Jacinta Court",
                        "addr:postcode": "3195",
                        "addr:housenumber": "10"
                    },
                    "distance": 11133.56437169,
                    "sims": 0.371637761592865
                }
            ]
        },
        "6": {
            "execution_time": 0.18502306938171387,
            "results": [
                {
                    "id": 9260723033,
                    "tags": {
                        "amenity": "bench"
                    },
                    "distance": 21698.80654558,
                    "sims": 0.8410940549149621
                },
                {
                    "id": 9218324180,
                    "tags": {
                        "amenity": "bench"
                    },
                    "distance": 24973.51553968,
                    "sims": 0.8409659550847269
                },
                {
                    "id": 9218438975,
                    "tags": {
                        "amenity": "bench"
                    },
                    "distance": 25042.48397268,
                    "sims": 0.8409296653438652
                },
                {
                    "id": 9218558572,
                    "tags": {
                        "amenity": "bench"
                    },
                    "distance": 25399.40688015,
                    "sims": 0.8409245048025096
                },
                {
                    "id": 9195230348,
                    "tags": {
                        "amenity": "bench"
                    },
                    "distance": 26578.28319933,
                    "sims": 0.8408481763277112
                },
                {
                    "id": 9182113462,
                    "tags": {
                        "amenity": "bench"
                    },
                    "distance": 24953.28861743,
                    "sims": 0.8408311984941725
                },
                {
                    "id": 9195230385,
                    "tags": {
                        "amenity": "bench"
                    },
                    "distance": 26555.74770696,
                    "sims": 0.840778056220848
                },
                {
                    "id": 9195230378,
                    "tags": {
                        "amenity": "bench"
                    },
                    "distance": 26485.6701373,
                    "sims": 0.8407693884922771
                },
                {
                    "id": 9195230395,
                    "tags": {
                        "amenity": "bench"
                    },
                    "distance": 26573.69218374,
                    "sims": 0.840735592666747
                },
                {
                    "id": 9447264137,
                    "tags": {
                        "amenity": "bench"
                    },
                    "distance": 29220.2666809,
                    "sims": 0.8407007740675392
                }
            ]
        },
        "7": {
            "execution_time": 0.1869039535522461,
            "results": [
                {
                    "id": 919254737,
                    "tags": {
                        "name": "053",
                        "note_1": "18-SEP-10 3:15:55PM",
                        "_waypoint_": "yes",
                        "_description_": "18-SEP-10 3:15:55PM"
                    },
                    "distance": 56425.8117673,
                    "sims": 0.4402114844511289
                },
                {
                    "id": 8940301696,
                    "tags": {
                        "building": "yes"
                    },
                    "distance": 35002.38941013,
                    "sims": 0.43688284974592106
                },
                {
                    "id": 6057027966,
                    "tags": {
                        "building": "yes"
                    },
                    "distance": 28750.08403013,
                    "sims": 0.43049025121273177
                },
                {
                    "id": 6057027964,
                    "tags": {
                        "building": "yes"
                    },
                    "distance": 28876.61936503,
                    "sims": 0.43039938392635557
                },
                {
                    "id": 6057027950,
                    "tags": {
                        "building": "yes"
                    },
                    "distance": 28726.46633695,
                    "sims": 0.4302482265381955
                },
                {
                    "id": 7903498955,
                    "tags": {
                        "building": "yes"
                    },
                    "distance": 29939.19124316,
                    "sims": 0.42983135162778874
                },
                {
                    "id": 10239585569,
                    "tags": {
                        "bus": "yes",
                        "name": "Lawson Way/John Fawkner Drive",
                        "highway": "bus_stop",
                        "public_transport": "platform"
                    },
                    "distance": 12508.91863849,
                    "sims": 0.39126928992684495
                },
                {
                    "id": 6153096860,
                    "tags": {
                        "access": "yes",
                        "leisure": "playground"
                    },
                    "distance": 19207.35943171,
                    "sims": 0.3795713412506194
                },
                {
                    "id": 10241824137,
                    "tags": {
                        "bus": "yes",
                        "name": "Ern Barker Reserve/Saffron Drive",
                        "highway": "bus_stop",
                        "public_transport": "platform"
                    },
                    "distance": 9290.57274139,
                    "sims": 0.3713388664328383
                },
                {
                    "id": 5526680250,
                    "tags": {
                        "name": "Boat Launch Ramp No.4",
                        "lanes": "2",
                        "leisure": "slipway"
                    },
                    "distance": 16400.54022985,
                    "sims": 0.3708736819549616
                }
            ]
        },
        "8": {
            "execution_time": 0.18731117248535156,
            "results": [
                {
                    "id": 600674103,
                    "tags": {
                        "amenity": "bicycle_parking"
                    },
                    "distance": 1341.38951852,
                    "sims": 0.9332599918025734
                },
                {
                    "id": 6017200213,
                    "tags": {
                        "amenity": "bicycle_parking"
                    },
                    "distance": 5371.44137418,
                    "sims": 0.9317556301282538
                },
                {
                    "id": 11345589322,
                    "tags": {
                        "amenity": "bicycle_parking"
                    },
                    "distance": 4456.1555975,
                    "sims": 0.9311554113374777
                },
                {
                    "id": 11206955084,
                    "tags": {
                        "amenity": "bicycle_parking"
                    },
                    "distance": 7305.77643713,
                    "sims": 0.9301619806933997
                },
                {
                    "id": 940960187,
                    "tags": {
                        "amenity": "bicycle_parking"
                    },
                    "distance": 6480.19748586,
                    "sims": 0.9263295851251644
                },
                {
                    "id": 3494855069,
                    "tags": {
                        "amenity": "bicycle_parking"
                    },
                    "distance": 9150.3618947,
                    "sims": 0.9212589813029158
                },
                {
                    "id": 10836221699,
                    "tags": {
                        "amenity": "bicycle_parking"
                    },
                    "distance": 14877.60529941,
                    "sims": 0.9107708010307197
                },
                {
                    "id": 9203802330,
                    "tags": {
                        "amenity": "bicycle_parking"
                    },
                    "distance": 25737.53429256,
                    "sims": 0.9018287389925534
                },
                {
                    "id": 5497849867,
                    "tags": {
                        "amenity": "bicycle_parking",
                        "capacity": "10"
                    },
                    "distance": 2278.59748451,
                    "sims": 0.8985004692822839
                },
                {
                    "id": 2017402077,
                    "tags": {
                        "amenity": "bicycle_parking",
                        "capacity": "10"
                    },
                    "distance": 2997.7355918,
                    "sims": 0.8984878270466177
                }
            ]
        },
        "9": {
            "execution_time": 0.1841270923614502,
            "results": [
                {
                    "id": 11135649033,
                    "tags": {
                        "name": "Pure Physio",
                        "healthcare": "physiotherapist",
                        "wheelchair": "designated"
                    },
                    "distance": 7516.52580445,
                    "sims": 0.6950495141567982
                },
                {
                    "id": 11646821581,
                    "tags": {
                        "name": "Pinnacle People",
                        "office": "company"
                    },
                    "distance": 8348.52801209,
                    "sims": 0.682980829603419
                },
                {
                    "id": 9771030887,
                    "tags": {
                        "name": "Professionals",
                        "office": "estate_agent"
                    },
                    "distance": 17156.37840492,
                    "sims": 0.6798165202688212
                },
                {
                    "id": 10264356527,
                    "tags": {
                        "name": "Victoria Coaches",
                        "office": "company"
                    },
                    "distance": 7207.15832286,
                    "sims": 0.6671693323245479
                },
                {
                    "id": 5068040813,
                    "tags": {
                        "name": "The Athlete's Foot",
                        "shop": "shoes",
                        "brand": "The Athlete's Foot",
                        "level": "0",
                        "wheelchair": "yes",
                        "second_hand": "no",
                        "brand:wikidata": "Q7714792",
                        "opening_hours:signed": "no",
                        "check_date:opening_hours": "2024-09-25"
                    },
                    "distance": 7915.06789361,
                    "sims": 0.6649961477532284
                },
                {
                    "id": 5313055446,
                    "tags": {
                        "amenity": "doctors",
                        "healthcare": "doctor"
                    },
                    "distance": 8368.76571236,
                    "sims": 0.6613158804648714
                },
                {
                    "id": 5519973739,
                    "tags": {
                        "name": "Chaffey International Supplies Equipment",
                        "building": "retail"
                    },
                    "distance": 15835.35401986,
                    "sims": 0.6610208567915369
                },
                {
                    "id": 6017200139,
                    "tags": {
                        "name": "Professionals Omni",
                        "office": "estate_agent"
                    },
                    "distance": 1256.91415539,
                    "sims": 0.660389187196826
                },
                {
                    "id": 4120677338,
                    "tags": {
                        "name": "Sir Redmond Barry",
                        "tourism": "artwork",
                        "artwork_type": "statue"
                    },
                    "distance": 7306.30729509,
                    "sims": 0.6584214597625702
                },
                {
                    "id": 6573488928,
                    "tags": {
                        "fee": "no",
                        "brand": "Fixation Public Work Stand",
                        "amenity": "bicycle_repair_station",
                        "operator": "Darebin City Council",
                        "opening_hours": "24/7",
                        "service:bicycle:pump": "yes",
                        "service:bicycle:stand": "yes",
                        "service:bicycle:tools": "yes"
                    },
                    "distance": 1439.69167829,
                    "sims": 0.65790848198286
                }
            ]
        },
        "10": {
            "execution_time": 0.19826149940490723,
            "results": [
                {
                    "id": 8063999187,
                    "tags": {
                        "amenity": "waste_basket"
                    },
                    "distance": 3059.52457872,
                    "sims": 0.9151500373185044
                },
                {
                    "id": 11866465670,
                    "tags": {
                        "amenity": "waste_basket"
                    },
                    "distance": 24478.17356712,
                    "sims": 0.9125416748002922
                },
                {
                    "id": 5824859952,
                    "tags": {
                        "amenity": "waste_basket"
                    },
                    "distance": 21651.88506033,
                    "sims": 0.9095353969444487
                },
                {
                    "id": 10292558212,
                    "tags": {
                        "amenity": "waste_basket"
                    },
                    "distance": 19805.8466425,
                    "sims": 0.9075692140727054
                },
                {
                    "id": 11396048950,
                    "tags": {
                        "amenity": "waste_basket"
                    },
                    "distance": 22729.99133002,
                    "sims": 0.9044088041974355
                },
                {
                    "id": 2674646672,
                    "tags": {
                        "amenity": "waste_basket"
                    },
                    "distance": 28089.4149069,
                    "sims": 0.9042775164795264
                },
                {
                    "id": 4678134785,
                    "tags": {
                        "amenity": "waste_basket"
                    },
                    "distance": 29536.99166308,
                    "sims": 0.9022168983379921
                },
                {
                    "id": 2673996715,
                    "tags": {
                        "amenity": "waste_basket"
                    },
                    "distance": 27973.8169567,
                    "sims": 0.8996566684589936
                },
                {
                    "id": 2631959414,
                    "tags": {
                        "amenity": "waste_basket"
                    },
                    "distance": 25694.11255897,
                    "sims": 0.897612408870987
                },
                {
                    "id": 10003595031,
                    "tags": {
                        "amenity": "waste_basket"
                    },
                    "distance": 26304.43519381,
                    "sims": 0.8969953551315588
                }
            ]
        },
        "11": {
            "execution_time": 0.20327258110046387,
            "results": [
                {
                    "id": 2668328167,
                    "tags": {
                        "amenity": "post_box"
                    },
                    "distance": 2442.19156173,
                    "sims": 0.8349049392172719
                },
                {
                    "id": 4725096904,
                    "tags": {
                        "amenity": "post_box"
                    },
                    "distance": 4708.56860969,
                    "sims": 0.8346570336001059
                },
                {
                    "id": 281341565,
                    "tags": {
                        "amenity": "post_box"
                    },
                    "distance": 4009.86948725,
                    "sims": 0.8339513740423676
                },
                {
                    "id": 1808548934,
                    "tags": {
                        "amenity": "post_box"
                    },
                    "distance": 6097.54777485,
                    "sims": 0.8333436797084233
                },
                {
                    "id": 286459149,
                    "tags": {
                        "amenity": "post_box"
                    },
                    "distance": 10309.08835738,
                    "sims": 0.8316469983213003
                },
                {
                    "id": 3721456593,
                    "tags": {
                        "amenity": "post_box"
                    },
                    "distance": 13966.3096258,
                    "sims": 0.8299488818584776
                },
                {
                    "id": 550880137,
                    "tags": {
                        "amenity": "post_box"
                    },
                    "distance": 16704.79166041,
                    "sims": 0.824479061240932
                },
                {
                    "id": 520954652,
                    "tags": {
                        "amenity": "post_box"
                    },
                    "distance": 19140.73148733,
                    "sims": 0.817936637155632
                },
                {
                    "id": 6019082644,
                    "tags": {
                        "amenity": "post_box"
                    },
                    "distance": 23885.82243926,
                    "sims": 0.8069729700330225
                },
                {
                    "id": 1930547940,
                    "tags": {
                        "amenity": "post_box"
                    },
                    "distance": 23384.90653141,
                    "sims": 0.8024888877550888
                }
            ]
        },
        "12": {
            "execution_time": 0.2950904369354248,
            "results": [
                {
                    "id": 4064857411,
                    "tags": {
                        "bin": "yes",
                        "bus": "yes",
                        "lit": "yes",
                        "ref": "ID.1277",
                        "name": "Fairfield Station/Wingrove Street",
                        "bench": "yes",
                        "highway": "bus_stop",
                        "network": "PTV - Metropolitan Buses",
                        "shelter": "yes",
                        "operator": "Dysons",
                        "route_ref": "567",
                        "tactile_paving": "yes",
                        "network:wikidata": "Q7257648",
                        "public_transport": "platform",
                        "network:wikipedia": "en:Public Transport Victoria"
                    },
                    "distance": 13192.03546639,
                    "sims": 0.8418903539311703
                },
                {
                    "id": 5819367905,
                    "tags": {
                        "bus": "yes",
                        "name": "Fairfield Station/Wingrove Street",
                        "network": "PTV - Metropolitan Buses",
                        "operator": "Dysons",
                        "public_transport": "stop_position"
                    },
                    "distance": 13200.80561357,
                    "sims": 0.8264893111016067
                },
                {
                    "id": 12410867341,
                    "tags": {
                        "addr:street": "Station Street",
                        "addr:housenumber": "464"
                    },
                    "distance": 13344.0076241,
                    "sims": 0.8241135442087912
                },
                {
                    "id": 12418127605,
                    "tags": {
                        "addr:street": "Station Street",
                        "addr:housenumber": "107-111A"
                    },
                    "distance": 13289.01905981,
                    "sims": 0.8221519907441287
                },
                {
                    "id": 12418152479,
                    "tags": {
                        "addr:street": "Station Street",
                        "addr:housenumber": "277"
                    },
                    "distance": 12882.33960936,
                    "sims": 0.8213430611278204
                },
                {
                    "id": 12410867356,
                    "tags": {
                        "addr:street": "Station Street",
                        "addr:housenumber": "495"
                    },
                    "distance": 13440.85157167,
                    "sims": 0.8205610834549051
                },
                {
                    "id": 12410867318,
                    "tags": {
                        "addr:street": "Station Street",
                        "addr:housenumber": "412"
                    },
                    "distance": 13205.61120677,
                    "sims": 0.8195917577159945
                },
                {
                    "id": 12418922177,
                    "tags": {
                        "addr:street": "Station Street",
                        "addr:housenumber": "119"
                    },
                    "distance": 3273.01843761,
                    "sims": 0.8176963059253276
                },
                {
                    "id": 12410867287,
                    "tags": {
                        "addr:street": "Station Street",
                        "addr:housenumber": "331"
                    },
                    "distance": 13029.64971907,
                    "sims": 0.8171557514985183
                },
                {
                    "id": 12410867368,
                    "tags": {
                        "addr:street": "Station Street",
                        "addr:housenumber": "510"
                    },
                    "distance": 13453.99342301,
                    "sims": 0.8163070411133228
                }
            ]
        },
        "13": {
            "execution_time": 0.3316609859466553,
            "results": [
                {
                    "id": 5960549366,
                    "tags": {
                        "bus": "yes",
                        "name": "Hampton Park SC/Fordholm Rd",
                        "highway": "bus_stop",
                        "shelter": "yes",
                        "public_transport": "platform"
                    },
                    "distance": 18596.13614419,
                    "sims": 0.809434774349564
                },
                {
                    "id": 4492164948,
                    "tags": {
                        "bus": "yes",
                        "name": "York Rd/Princes Hwy",
                        "highway": "bus_stop",
                        "network": "828 - Hampton Station, 926/828 - Fountain Gate SC",
                        "operator": "Ventura Bus Lines",
                        "public_transport": "platform"
                    },
                    "distance": 23992.67087813,
                    "sims": 0.7638591842483718
                },
                {
                    "id": 347280908,
                    "tags": {
                        "amenity": "parking",
                        "parking": "surface"
                    },
                    "distance": 8363.25533863,
                    "sims": 0.7538444702440082
                },
                {
                    "id": 1851043115,
                    "tags": {
                        "amenity": "parking"
                    },
                    "distance": 26109.8435621,
                    "sims": 0.7525247117183584
                },
                {
                    "id": 469770575,
                    "tags": {
                        "amenity": "parking"
                    },
                    "distance": 19078.35928847,
                    "sims": 0.7496020196919542
                },
                {
                    "id": 1901510142,
                    "tags": {
                        "amenity": "parking"
                    },
                    "distance": 32479.23857335,
                    "sims": 0.746611013402536
                },
                {
                    "id": 12419354349,
                    "tags": {
                        "addr:street": "Hampton Street",
                        "addr:housenumber": "716B"
                    },
                    "distance": 27717.49969904,
                    "sims": 0.7393975387926587
                },
                {
                    "id": 12412085431,
                    "tags": {
                        "addr:street": "Hampton Street",
                        "addr:housenumber": "686A"
                    },
                    "distance": 27456.91346948,
                    "sims": 0.7392143581424666
                },
                {
                    "id": 1711297593,
                    "tags": {
                        "access": "yes",
                        "amenity": "parking",
                        "parking": "surface"
                    },
                    "distance": 14047.47143741,
                    "sims": 0.7370784408590507
                },
                {
                    "id": 10150915444,
                    "tags": {
                        "amenity": "parking"
                    },
                    "distance": 21833.53927906,
                    "sims": 0.7359577164561835
                }
            ]
        },
        "14": {
            "execution_time": 0.20538854598999023,
            "results": [
                {
                    "id": 2889038871,
                    "tags": {
                        "bus": "yes",
                        "name": "Verona Drive/Melton Highway",
                        "highway": "bus_stop",
                        "shelter": "no",
                        "operator": "PTV - Metropolitan Buses",
                        "public_transport": "platform"
                    },
                    "distance": 21524.66026273,
                    "sims": 0.3681547124293677
                },
                {
                    "id": 2637878180,
                    "tags": {
                        "access": "yes",
                        "leisure": "playground"
                    },
                    "distance": 16679.17566541,
                    "sims": 0.36734205180329027
                },
                {
                    "id": 7248901077,
                    "tags": {
                        "bin": "yes",
                        "bus": "yes",
                        "lit": "no",
                        "ref": "ID.344",
                        "name": "Victoria Street/Rathdowne Street",
                        "bench": "yes",
                        "image": "https://storage12.openstreetcam.org/files/photo/2019/10/2/lth/2030257_75de9_5d946664b444b.jpg",
                        "highway": "bus_stop",
                        "network": "PTV - Metropolitan Buses",
                        "shelter": "yes",
                        "route_ref": "250;251;402",
                        "survey:date": "2019-10-02",
                        "tactile_paving": "yes",
                        "network:wikidata": "Q7257648",
                        "public_transport": "platform",
                        "network:wikipedia": "en:Public Transport Victoria"
                    },
                    "distance": 31941.92624339,
                    "sims": 0.3569965533022246
                },
                {
                    "id": 8381850673,
                    "tags": {
                        "bus": "yes",
                        "ref": "ID.4561",
                        "name": "Elizabeth Drive/Heysen Drive",
                        "highway": "bus_stop",
                        "network": "PTV - Metropolitan Buses",
                        "public_transport": "platform"
                    },
                    "distance": 17644.43708314,
                    "sims": 0.3552231961222678
                },
                {
                    "id": 2483459545,
                    "tags": {
                        "access": "yes",
                        "leisure": "playground"
                    },
                    "distance": 38986.0735656,
                    "sims": 0.35053288782839376
                },
                {
                    "id": 9929031671,
                    "tags": {
                        "bus": "yes",
                        "name": "Overton Lea Boulevard/Melton Highway",
                        "highway": "bus_stop",
                        "shelter": "yes",
                        "public_transport": "platform"
                    },
                    "distance": 22222.91400215,
                    "sims": 0.34823601266908744
                },
                {
                    "id": 1427015790,
                    "tags": {
                        "access": "yes",
                        "leisure": "playground"
                    },
                    "distance": 30902.86395401,
                    "sims": 0.34821303508126566
                },
                {
                    "id": 385026726,
                    "tags": {
                        "access": "yes",
                        "leisure": "playground"
                    },
                    "distance": 32050.31974268,
                    "sims": 0.3464849269715089
                },
                {
                    "id": 6487196134,
                    "tags": {
                        "fee": "no",
                        "access": "yes",
                        "unisex": "yes",
                        "amenity": "toilets",
                        "wheelchair": "yes",
                        "changing_table": "yes",
                        "toilets:disposal": "flush",
                        "toilets:position": "seated"
                    },
                    "distance": 29233.11613167,
                    "sims": 0.34646799010420204
                },
                {
                    "id": 11445879313,
                    "tags": {
                        "bus": "yes",
                        "ref": "21650",
                        "name": "Abbotswood Drive/Tarneit Road",
                        "highway": "bus_stop",
                        "public_transport": "platform"
                    },
                    "distance": 41347.86661093,
                    "sims": 0.3461542610938262
                }
            ]
        },
        "15": {
            "execution_time": 0.18867754936218262,
            "results": [
                {
                    "id": 5809744853,
                    "tags": {
                        "bus": "yes",
                        "name": "Plum Street/Power Road",
                        "highway": "bus_stop",
                        "public_transport": "platform"
                    },
                    "distance": 25945.32164551,
                    "sims": 0.7901061383238486
                },
                {
                    "id": 3579989921,
                    "tags": {
                        "name": "Power Street Milk Bar",
                        "shop": "convenience"
                    },
                    "distance": 13453.87205165,
                    "sims": 0.7880327052024603
                },
                {
                    "id": 4041771037,
                    "tags": {
                        "ref": "64",
                        "name": "Stop 64: Mernda Avenue",
                        "tram": "yes",
                        "network": "PTV - Metropolitan Trams",
                        "operator": "Yarra Trams",
                        "route_ref": "67",
                        "wheelchair": "no",
                        "public_transport": "platform"
                    },
                    "distance": 8401.00060085,
                    "sims": 0.7539367167146924
                },
                {
                    "id": 4324937208,
                    "tags": {
                        "ref": "30",
                        "name": "Stop 30: The Avenue",
                        "tram": "yes",
                        "network": "PTV - Metropolitan Trams",
                        "operator": "Yarra Trams",
                        "route_ref": "19",
                        "wheelchair": "no",
                        "public_transport": "platform"
                    },
                    "distance": 9337.17555049,
                    "sims": 0.7529061597790674
                },
                {
                    "id": 12418341171,
                    "tags": {
                        "addr:street": "Power Street",
                        "addr:housenumber": "93"
                    },
                    "distance": 805.61986633,
                    "sims": 0.7522921944971166
                },
                {
                    "id": 2277849596,
                    "tags": {
                        "ref": "62",
                        "name": "Stop 62: Gardenvale Road",
                        "tram": "yes",
                        "network": "PTV - Metropolitan Trams",
                        "railway": "tram_stop",
                        "operator": "Keolis Downer",
                        "network:wikidata": "Q7257648",
                        "public_transport": "stop_position",
                        "operator:wikidata": "Q6328065"
                    },
                    "distance": 9417.59149456,
                    "sims": 0.7514993031768458
                },
                {
                    "id": 4122894829,
                    "tags": {
                        "ref": "53",
                        "name": "Stop 53: Faircroft Avenue",
                        "tram": "yes",
                        "bench": "no",
                        "network": "PTV - Metropolitan Trams",
                        "shelter": "no",
                        "operator": "Yarra Trams",
                        "route_ref": "72",
                        "wheelchair": "no",
                        "removed:public_transport": "platform"
                    },
                    "distance": 3997.7503671,
                    "sims": 0.7498525902058352
                },
                {
                    "id": 4315827350,
                    "tags": {
                        "ref": "59",
                        "name": "Stop 59: St Ignatius Church",
                        "tram": "yes",
                        "network": "PTV - Metropolitan Trams",
                        "operator": "Yarra Trams",
                        "route_ref": "78",
                        "wheelchair": "no",
                        "public_transport": "platform"
                    },
                    "distance": 3223.58957039,
                    "sims": 0.7485566805042623
                },
                {
                    "id": 5819367894,
                    "tags": {
                        "bus": "yes",
                        "name": "Grandview Grove/Bastings Street",
                        "network": "PTV - Metropolitan Buses",
                        "operator": "Dysons",
                        "public_transport": "stop_position"
                    },
                    "distance": 4713.68650326,
                    "sims": 0.7473506246674062
                },
                {
                    "id": 2264456760,
                    "tags": {
                        "ref": "119",
                        "name": "Stop 119: Wells Street",
                        "tram": "yes",
                        "network": "PTV - Metropolitan Trams",
                        "railway": "tram_stop",
                        "ref:ptv": "18219",
                        "operator": "Keolis Downer",
                        "network:wikidata": "Q7257648",
                        "public_transport": "stop_position",
                        "operator:wikidata": "Q6328065"
                    },
                    "distance": 5978.57660429,
                    "sims": 0.7469662492463364
                }
            ]
        },
        "16": {
            "execution_time": 0.18415141105651855,
            "results": [
                {
                    "id": 711750998,
                    "tags": {
                        "amenity": "cafe"
                    },
                    "distance": 2144.50377129,
                    "sims": 0.9268578247343345
                },
                {
                    "id": 3079502040,
                    "tags": {
                        "name": "Cafe Piccolina",
                        "amenity": "cafe"
                    },
                    "distance": 3941.18607418,
                    "sims": 0.9172101518166311
                },
                {
                    "id": 4194557558,
                    "tags": {
                        "amenity": "cafe"
                    },
                    "distance": 20151.3375218,
                    "sims": 0.9159788066117214
                },
                {
                    "id": 7824640912,
                    "tags": {
                        "amenity": "cafe"
                    },
                    "distance": 9053.4824356,
                    "sims": 0.9101984936353867
                },
                {
                    "id": 3928348519,
                    "tags": {
                        "name": "Joe's Eatery",
                        "amenity": "cafe"
                    },
                    "distance": 3475.26478517,
                    "sims": 0.9095400463986517
                },
                {
                    "id": 11607743505,
                    "tags": {
                        "name": "18 Pence Lane",
                        "amenity": "cafe"
                    },
                    "distance": 1141.46685001,
                    "sims": 0.9060721555459768
                },
                {
                    "id": 6332562985,
                    "tags": {
                        "amenity": "cafe"
                    },
                    "distance": 18549.10243702,
                    "sims": 0.904479161572335
                },
                {
                    "id": 6471919806,
                    "tags": {
                        "name": "Espresso Bar",
                        "amenity": "cafe"
                    },
                    "distance": 6158.04371501,
                    "sims": 0.8967260656789724
                },
                {
                    "id": 6033562238,
                    "tags": {
                        "name": "Upsize",
                        "amenity": "cafe"
                    },
                    "distance": 6266.27192519,
                    "sims": 0.8957099790227452
                },
                {
                    "id": 3840434935,
                    "tags": {
                        "name": "Cafe Alfretti",
                        "amenity": "cafe"
                    },
                    "distance": 3052.11156356,
                    "sims": 0.895450036904224
                }
            ]
        },
        "17": {
            "execution_time": 0.18451309204101562,
            "results": [
                {
                    "id": 6057027966,
                    "tags": {
                        "building": "yes"
                    },
                    "distance": 7531.30716309,
                    "sims": 0.45536844033316914
                },
                {
                    "id": 6057027964,
                    "tags": {
                        "building": "yes"
                    },
                    "distance": 7628.94997315,
                    "sims": 0.4553020407529528
                },
                {
                    "id": 6057027950,
                    "tags": {
                        "building": "yes"
                    },
                    "distance": 7607.72618995,
                    "sims": 0.45493240251532996
                },
                {
                    "id": 7903498955,
                    "tags": {
                        "building": "yes"
                    },
                    "distance": 8535.6647142,
                    "sims": 0.45490850105063807
                },
                {
                    "id": 8940301696,
                    "tags": {
                        "building": "yes"
                    },
                    "distance": 29631.17579526,
                    "sims": 0.4498305424896385
                },
                {
                    "id": 919254737,
                    "tags": {
                        "name": "053",
                        "note_1": "18-SEP-10 3:15:55PM",
                        "_waypoint_": "yes",
                        "_description_": "18-SEP-10 3:15:55PM"
                    },
                    "distance": 62663.48655471,
                    "sims": 0.41756807775116966
                },
                {
                    "id": 10241824137,
                    "tags": {
                        "bus": "yes",
                        "name": "Ern Barker Reserve/Saffron Drive",
                        "highway": "bus_stop",
                        "public_transport": "platform"
                    },
                    "distance": 17836.41129469,
                    "sims": 0.3925423377045114
                },
                {
                    "id": 10239585569,
                    "tags": {
                        "bus": "yes",
                        "name": "Lawson Way/John Fawkner Drive",
                        "highway": "bus_stop",
                        "public_transport": "platform"
                    },
                    "distance": 15594.36205742,
                    "sims": 0.3890450646619572
                },
                {
                    "id": 9186243207,
                    "tags": {
                        "bus": "yes",
                        "name": "Thomas Mitchell Drive/Hallam North Road",
                        "highway": "bus_stop",
                        "public_transport": "platform"
                    },
                    "distance": 16386.75937085,
                    "sims": 0.385989998518528
                },
                {
                    "id": 9187640530,
                    "tags": {
                        "bus": "yes",
                        "name": "Bradman Drive",
                        "highway": "bus_stop",
                        "shelter": "no",
                        "public_transport": "platform"
                    },
                    "distance": 23293.3056593,
                    "sims": 0.38509623826697403
                }
            ]
        },
        "18": {
            "execution_time": 0.18501639366149902,
            "results": [
                {
                    "id": 12420135466,
                    "tags": {
                        "addr:street": "Wheeler Court",
                        "addr:housenumber": "9"
                    },
                    "distance": 21070.59216559,
                    "sims": 0.8039975061407936
                },
                {
                    "id": 12412330409,
                    "tags": {
                        "addr:street": "Urquhart Court",
                        "addr:housenumber": "6"
                    },
                    "distance": 4288.77857475,
                    "sims": 0.793891428080662
                },
                {
                    "id": 12419604020,
                    "tags": {
                        "addr:street": "Palamino Valley Court",
                        "addr:housenumber": "30"
                    },
                    "distance": 2690.75479513,
                    "sims": 0.7923245643249501
                },
                {
                    "id": 12419604431,
                    "tags": {
                        "addr:street": "Palamino Valley Court",
                        "addr:housenumber": "24"
                    },
                    "distance": 2699.16042398,
                    "sims": 0.7917359322557432
                },
                {
                    "id": 12411651106,
                    "tags": {
                        "addr:street": "Greenfields Drive",
                        "addr:housenumber": "6"
                    },
                    "distance": 12781.29761674,
                    "sims": 0.7898178070240989
                },
                {
                    "id": 12412089036,
                    "tags": {
                        "addr:street": "Fairview Drive",
                        "addr:housenumber": "12"
                    },
                    "distance": 8159.00006072,
                    "sims": 0.7896689381110451
                },
                {
                    "id": 12417670784,
                    "tags": {
                        "addr:street": "Highpark Drive",
                        "addr:housenumber": "195"
                    },
                    "distance": 14110.32263566,
                    "sims": 0.7894488667128273
                },
                {
                    "id": 12412101999,
                    "tags": {
                        "addr:street": "Hesse Court",
                        "addr:housenumber": "18"
                    },
                    "distance": 1600.29440866,
                    "sims": 0.789042469573792
                },
                {
                    "id": 12417669509,
                    "tags": {
                        "addr:street": "Highpark Drive",
                        "addr:housenumber": "115"
                    },
                    "distance": 13356.73510658,
                    "sims": 0.7890267087928756
                },
                {
                    "id": 12411644451,
                    "tags": {
                        "addr:street": "Greenfields Drive",
                        "addr:housenumber": "20"
                    },
                    "distance": 12681.80290106,
                    "sims": 0.7883584464664948
                }
            ]
        },
        "19": {
            "execution_time": 0.18476605415344238,
            "results": [
                {
                    "id": 2395180465,
                    "tags": {
                        "amenity": "library"
                    },
                    "distance": 8520.11003093,
                    "sims": 0.7296199798583984
                },
                {
                    "id": 1084607401,
                    "tags": {
                        "name": "Law Library",
                        "amenity": "library"
                    },
                    "distance": 30814.40882286,
                    "sims": 0.6565828118671675
                },
                {
                    "id": 323995797,
                    "tags": {
                        "name": "Coburg Library",
                        "phone": "+61 3 9353 4000",
                        "amenity": "library",
                        "website": "https://www.moreland.vic.gov.au/libraries/location-and-hours/coburg-library-location-hours/",
                        "operator": "Moreland City Council",
                        "wheelchair": "yes",
                        "opening_hours": "Mo-Fr 10:00-20:00; Sa 09:00-16:00; Su 13:00-17:00"
                    },
                    "distance": 7792.28444389,
                    "sims": 0.6402203440666199
                },
                {
                    "id": 6237887803,
                    "tags": {
                        "name": "Readings",
                        "shop": "books"
                    },
                    "distance": 12537.79547023,
                    "sims": 0.6250486969947815
                },
                {
                    "id": 1742583319,
                    "tags": {
                        "name": "Hurstbridge Books, CDs and Videos",
                        "shop": "books",
                        "second_hand": "only"
                    },
                    "distance": 29090.93986661,
                    "sims": 0.6235827207565308
                },
                {
                    "id": 296846628,
                    "tags": {
                        "fee": "no",
                        "amenity": "toilets",
                        "check_date": "2022-11-11",
                        "wheelchair": "yes"
                    },
                    "distance": 8234.60021147,
                    "sims": 0.6229325904209977
                },
                {
                    "id": 11162131778,
                    "tags": {
                        "name": "Vintage Replayground",
                        "shop": "clothes",
                        "clothes": "women;men",
                        "wheelchair": "designated",
                        "second_hand": "only"
                    },
                    "distance": 11889.40804055,
                    "sims": 0.6215659750441309
                },
                {
                    "id": 7816638923,
                    "tags": {
                        "bin": "yes",
                        "bus": "yes",
                        "lit": "no",
                        "ref": "ID.119",
                        "name": "Rotherwood Road/Lower Heidelberg Road",
                        "bench": "yes",
                        "highway": "bus_stop",
                        "network": "PTV - Metropolitan Buses",
                        "shelter": "yes",
                        "route_ref": "546;548",
                        "tactile_paving": "yes",
                        "departures_board": "timetable",
                        "public_transport": "platform"
                    },
                    "distance": 15852.03798624,
                    "sims": 0.620529294013977
                },
                {
                    "id": 11684015535,
                    "tags": {
                        "bin": "no",
                        "bus": "yes",
                        "lit": "yes",
                        "name": "St Marys Coptic Orthodox College/Thorpdale Ave",
                        "bench": "yes",
                        "highway": "bus_stop",
                        "network": "PTV - Metropolitan Buses",
                        "shelter": "yes",
                        "operator": "Dysons",
                        "tactile_paving": "yes",
                        "departures_board": "timetable",
                        "public_transport": "platform"
                    },
                    "distance": 8121.60162393,
                    "sims": 0.6193800426268571
                },
                {
                    "id": 9660864976,
                    "tags": {
                        "bus": "yes",
                        "name": "Ryefield Court",
                        "highway": "bus_stop",
                        "network": "PTV - Metropolitan Buses",
                        "network:wikidata": "Q7257648",
                        "public_transport": "platform",
                        "network:wikipedia": "en:Public Transport Victoria"
                    },
                    "distance": 25250.96617892,
                    "sims": 0.6169372429289088
                }
            ]
        },
        "20": {
            "execution_time": 0.18453335762023926,
            "results": [
                {
                    "id": 12420297354,
                    "tags": {
                        "addr:street": "Wattle Avenue",
                        "addr:housenumber": "242B"
                    },
                    "distance": 8453.45328412,
                    "sims": 0.811459563796578
                },
                {
                    "id": 12420292124,
                    "tags": {
                        "addr:street": "Wattle Avenue",
                        "addr:housenumber": "119"
                    },
                    "distance": 9243.16952111,
                    "sims": 0.8098641860647037
                },
                {
                    "id": 12420292238,
                    "tags": {
                        "addr:street": "Wattle Avenue",
                        "addr:housenumber": "224"
                    },
                    "distance": 8520.57444593,
                    "sims": 0.8093063689931943
                },
                {
                    "id": 12417723792,
                    "tags": {
                        "addr:street": "Storrington Avenue",
                        "addr:housenumber": "27"
                    },
                    "distance": 8804.90717343,
                    "sims": 0.8054076905184159
                },
                {
                    "id": 12419671910,
                    "tags": {
                        "addr:street": "Cameron Avenue",
                        "addr:housenumber": "62"
                    },
                    "distance": 5569.19017331,
                    "sims": 0.8046236750707949
                },
                {
                    "id": 12412478273,
                    "tags": {
                        "addr:street": "James Avenue",
                        "addr:housenumber": "14"
                    },
                    "distance": 8348.72293095,
                    "sims": 0.8044961211385784
                },
                {
                    "id": 12420528632,
                    "tags": {
                        "addr:street": "Kirwood Street",
                        "addr:housenumber": "24"
                    },
                    "distance": 50171.80936789,
                    "sims": 0.8032169342041244
                },
                {
                    "id": 12419669914,
                    "tags": {
                        "addr:street": "Danglow Avenue",
                        "addr:housenumber": "L499"
                    },
                    "distance": 6606.29792354,
                    "sims": 0.8030876155987301
                },
                {
                    "id": 12415016305,
                    "tags": {
                        "addr:street": "Staughton Avenue",
                        "addr:housenumber": "2"
                    },
                    "distance": 50516.74389648,
                    "sims": 0.802875065460799
                },
                {
                    "id": 12412516876,
                    "tags": {
                        "addr:street": "Briggs Street",
                        "addr:housenumber": "14"
                    },
                    "distance": 7216.42027716,
                    "sims": 0.8025673863211467
                }
            ]
        },
        "21": {
            "execution_time": 0.18930888175964355,
            "results": [
                {
                    "id": 6403296362,
                    "tags": {
                        "amenity": "restaurant"
                    },
                    "distance": 9182.44988309,
                    "sims": 0.8966560322104108
                },
                {
                    "id": 3276141237,
                    "tags": {
                        "name": "Plates On bourke",
                        "amenity": "restaurant"
                    },
                    "distance": 5869.25232,
                    "sims": 0.8907624473058745
                },
                {
                    "id": 4000564628,
                    "tags": {
                        "name": "Queensberry Lunchbar",
                        "amenity": "fast_food",
                        "cuisine": "coffee_shop",
                        "addr:street": "Queensberry Street",
                        "addr:housenumber": "682"
                    },
                    "distance": 5115.35433526,
                    "sims": 0.8854321259923076
                },
                {
                    "id": 2971088133,
                    "tags": {
                        "name": "Rue de Cr\u00eaperie",
                        "amenity": "restaurant",
                        "cuisine": "crepe"
                    },
                    "distance": 2377.25895269,
                    "sims": 0.8852633784946597
                },
                {
                    "id": 2421608381,
                    "tags": {
                        "name": "Fidels",
                        "amenity": "restaurant"
                    },
                    "distance": 5973.9421487,
                    "sims": 0.8811563294884158
                },
                {
                    "id": 3840017767,
                    "tags": {
                        "amenity": "restaurant"
                    },
                    "distance": 10411.82129016,
                    "sims": 0.8789320163097535
                },
                {
                    "id": 3928348519,
                    "tags": {
                        "name": "Joe's Eatery",
                        "amenity": "cafe"
                    },
                    "distance": 4228.19410402,
                    "sims": 0.870932759793972
                },
                {
                    "id": 6656704241,
                    "tags": {
                        "name": "Mr Wednesday",
                        "amenity": "cafe",
                        "cuisine": "coffee_shop"
                    },
                    "distance": 2581.78607277,
                    "sims": 0.8677358661958412
                },
                {
                    "id": 6110271656,
                    "tags": {
                        "name": "Chef Lagenda",
                        "amenity": "restaurant"
                    },
                    "distance": 19696.26479663,
                    "sims": 0.8634510691400227
                },
                {
                    "id": 12221800066,
                    "tags": {
                        "amenity": "restaurant"
                    },
                    "distance": 69336.37900235,
                    "sims": 0.8630156737473124
                }
            ]
        },
        "22": {
            "execution_time": 0.18269658088684082,
            "results": [
                {
                    "id": 7645068817,
                    "tags": {
                        "amenity": "restaurant"
                    },
                    "distance": 45619.75679354,
                    "sims": 0.8777917623519897
                },
                {
                    "id": 1948991020,
                    "tags": {
                        "amenity": "restaurant"
                    },
                    "distance": 45678.72146589,
                    "sims": 0.877747788697751
                },
                {
                    "id": 3840017767,
                    "tags": {
                        "amenity": "restaurant"
                    },
                    "distance": 29085.3139179,
                    "sims": 0.8711084906257864
                },
                {
                    "id": 1955893247,
                    "tags": {
                        "name": "The Main Cafe Bar & Restaurant",
                        "amenity": "restaurant"
                    },
                    "distance": 3364.34832906,
                    "sims": 0.8653454860838974
                },
                {
                    "id": 4224608822,
                    "tags": {
                        "name": "Carnival",
                        "amenity": "restaurant"
                    },
                    "distance": 25606.06620711,
                    "sims": 0.8621017254651636
                },
                {
                    "id": 8221440823,
                    "tags": {
                        "name": "La Cucina",
                        "amenity": "restaurant"
                    },
                    "distance": 27297.11070022,
                    "sims": 0.8592318976383285
                },
                {
                    "id": 5201667157,
                    "tags": {
                        "name": "Baba Chef Takeaway",
                        "amenity": "restaurant"
                    },
                    "distance": 17725.32907175,
                    "sims": 0.8582951342043376
                },
                {
                    "id": 11620054949,
                    "tags": {
                        "name": "Biddy Martha's Caf\u00e9",
                        "amenity": "cafe"
                    },
                    "distance": 34641.80120866,
                    "sims": 0.8538755687401053
                },
                {
                    "id": 12221800066,
                    "tags": {
                        "amenity": "restaurant"
                    },
                    "distance": 61719.21340781,
                    "sims": 0.8531648095649769
                },
                {
                    "id": 6656704241,
                    "tags": {
                        "name": "Mr Wednesday",
                        "amenity": "cafe",
                        "cuisine": "coffee_shop"
                    },
                    "distance": 37377.78480454,
                    "sims": 0.8525421619415283
                }
            ]
        },
        "23": {
            "execution_time": 0.18259263038635254,
            "results": [
                {
                    "id": 9546217620,
                    "tags": {
                        "amenity": "bench"
                    },
                    "distance": 7318.19269103,
                    "sims": 0.8295602727427708
                },
                {
                    "id": 9029466712,
                    "tags": {
                        "amenity": "bench"
                    },
                    "distance": 9626.41990705,
                    "sims": 0.8285616908703576
                },
                {
                    "id": 9687083040,
                    "tags": {
                        "amenity": "bench",
                        "backrest": "no"
                    },
                    "distance": 3507.13099728,
                    "sims": 0.8243455540604577
                },
                {
                    "id": 7838610674,
                    "tags": {
                        "amenity": "bench"
                    },
                    "distance": 21079.95210587,
                    "sims": 0.8228343020038391
                },
                {
                    "id": 5980632269,
                    "tags": {
                        "amenity": "bench"
                    },
                    "distance": 20892.7827215,
                    "sims": 0.8202379084769316
                },
                {
                    "id": 5980632046,
                    "tags": {
                        "amenity": "bench"
                    },
                    "distance": 21030.09310423,
                    "sims": 0.8201514113762786
                },
                {
                    "id": 5824764005,
                    "tags": {
                        "amenity": "bench"
                    },
                    "distance": 19775.14845936,
                    "sims": 0.81969671172622
                },
                {
                    "id": 9761453233,
                    "tags": {
                        "amenity": "bench"
                    },
                    "distance": 24301.91045817,
                    "sims": 0.8178538895062792
                },
                {
                    "id": 9921613443,
                    "tags": {
                        "amenity": "bench"
                    },
                    "distance": 24435.34210136,
                    "sims": 0.8162161914079006
                },
                {
                    "id": 2676312410,
                    "tags": {
                        "amenity": "bench"
                    },
                    "distance": 23435.64532402,
                    "sims": 0.8142703967354021
                }
            ]
        },
        "24": {
            "execution_time": 0.18229269981384277,
            "results": [
                {
                    "id": 11206955084,
                    "tags": {
                        "amenity": "bicycle_parking"
                    },
                    "distance": 1305.01047756,
                    "sims": 0.9334661364555359
                },
                {
                    "id": 600674103,
                    "tags": {
                        "amenity": "bicycle_parking"
                    },
                    "distance": 4894.61819377,
                    "sims": 0.9330698251724243
                },
                {
                    "id": 11345589322,
                    "tags": {
                        "amenity": "bicycle_parking"
                    },
                    "distance": 5576.5717949,
                    "sims": 0.9311798810958862
                },
                {
                    "id": 6017200213,
                    "tags": {
                        "amenity": "bicycle_parking"
                    },
                    "distance": 11159.10588917,
                    "sims": 0.9282424449920654
                },
                {
                    "id": 940960187,
                    "tags": {
                        "amenity": "bicycle_parking"
                    },
                    "distance": 6847.77018236,
                    "sims": 0.9277001066386653
                },
                {
                    "id": 3494855069,
                    "tags": {
                        "amenity": "bicycle_parking"
                    },
                    "distance": 8791.76100343,
                    "sims": 0.923387197357035
                },
                {
                    "id": 10836221699,
                    "tags": {
                        "amenity": "bicycle_parking"
                    },
                    "distance": 14053.66948395,
                    "sims": 0.9136656522750854
                },
                {
                    "id": 9203802330,
                    "tags": {
                        "amenity": "bicycle_parking"
                    },
                    "distance": 21006.49169046,
                    "sims": 0.9100337678173935
                },
                {
                    "id": 10133912158,
                    "tags": {
                        "amenity": "bicycle_parking"
                    },
                    "distance": 25607.72195759,
                    "sims": 0.9043009877204895
                },
                {
                    "id": 5497849867,
                    "tags": {
                        "amenity": "bicycle_parking",
                        "capacity": "10"
                    },
                    "distance": 5665.84961629,
                    "sims": 0.8979781270027161
                }
            ]
        },
        "25": {
            "execution_time": 0.18414711952209473,
            "results": [
                {
                    "id": 7645068817,
                    "tags": {
                        "amenity": "restaurant"
                    },
                    "distance": 26440.01520178,
                    "sims": 0.8984977542458642
                },
                {
                    "id": 1948991020,
                    "tags": {
                        "amenity": "restaurant"
                    },
                    "distance": 26491.44829791,
                    "sims": 0.8984801233720849
                },
                {
                    "id": 12221800066,
                    "tags": {
                        "amenity": "restaurant"
                    },
                    "distance": 37697.66480124,
                    "sims": 0.889139480046079
                },
                {
                    "id": 8221440823,
                    "tags": {
                        "name": "La Cucina",
                        "amenity": "restaurant"
                    },
                    "distance": 18300.16846517,
                    "sims": 0.8752862811088624
                },
                {
                    "id": 4224608822,
                    "tags": {
                        "name": "Carnival",
                        "amenity": "restaurant"
                    },
                    "distance": 19536.62019439,
                    "sims": 0.8746886103974116
                },
                {
                    "id": 3840017767,
                    "tags": {
                        "amenity": "restaurant"
                    },
                    "distance": 32106.54781513,
                    "sims": 0.8737040867960586
                },
                {
                    "id": 3276141237,
                    "tags": {
                        "name": "Plates On bourke",
                        "amenity": "restaurant"
                    },
                    "distance": 38326.40191706,
                    "sims": 0.8623948693275513
                },
                {
                    "id": 2421608381,
                    "tags": {
                        "name": "Fidels",
                        "amenity": "restaurant"
                    },
                    "distance": 37550.27757963,
                    "sims": 0.8610932826995911
                },
                {
                    "id": 6403296362,
                    "tags": {
                        "amenity": "restaurant"
                    },
                    "distance": 43883.31735664,
                    "sims": 0.8600484132766785
                },
                {
                    "id": 1955893247,
                    "tags": {
                        "name": "The Main Cafe Bar & Restaurant",
                        "amenity": "restaurant"
                    },
                    "distance": 22721.3756185,
                    "sims": 0.8597873449325623
                }
            ]
        },
        "26": {
            "execution_time": 0.18422627449035645,
            "results": [
                {
                    "id": 6057027966,
                    "tags": {
                        "building": "yes"
                    },
                    "distance": 18702.86856069,
                    "sims": 0.44158464670181274
                },
                {
                    "id": 6057027964,
                    "tags": {
                        "building": "yes"
                    },
                    "distance": 18823.10203946,
                    "sims": 0.44137710332870483
                },
                {
                    "id": 6057027950,
                    "tags": {
                        "building": "yes"
                    },
                    "distance": 18749.92222691,
                    "sims": 0.4410136342048645
                },
                {
                    "id": 7903498955,
                    "tags": {
                        "building": "yes"
                    },
                    "distance": 19876.6670129,
                    "sims": 0.44062602519989014
                },
                {
                    "id": 8940301696,
                    "tags": {
                        "building": "yes"
                    },
                    "distance": 36856.60623983,
                    "sims": 0.4352245330810547
                },
                {
                    "id": 919254737,
                    "tags": {
                        "name": "053",
                        "note_1": "18-SEP-10 3:15:55PM",
                        "_waypoint_": "yes",
                        "_description_": "18-SEP-10 3:15:55PM"
                    },
                    "distance": 66648.60922346,
                    "sims": 0.420378995549053
                },
                {
                    "id": 10241824137,
                    "tags": {
                        "bus": "yes",
                        "name": "Ern Barker Reserve/Saffron Drive",
                        "highway": "bus_stop",
                        "public_transport": "platform"
                    },
                    "distance": 14702.41550221,
                    "sims": 0.3851277828216553
                },
                {
                    "id": 10239585569,
                    "tags": {
                        "bus": "yes",
                        "name": "Lawson Way/John Fawkner Drive",
                        "highway": "bus_stop",
                        "public_transport": "platform"
                    },
                    "distance": 14675.36977008,
                    "sims": 0.38431644439697266
                },
                {
                    "id": 9187640530,
                    "tags": {
                        "bus": "yes",
                        "name": "Bradman Drive",
                        "highway": "bus_stop",
                        "shelter": "no",
                        "public_transport": "platform"
                    },
                    "distance": 13466.24010533,
                    "sims": 0.37510896846976793
                },
                {
                    "id": 10239585579,
                    "tags": {
                        "bus": "yes",
                        "name": "James Cook Drive/Ravenhill Crescent",
                        "highway": "bus_stop",
                        "public_transport": "platform"
                    },
                    "distance": 13220.08925095,
                    "sims": 0.3740098849529103
                }
            ]
        },
        "27": {
            "execution_time": 0.1835775375366211,
            "results": [
                {
                    "id": 11436852061,
                    "tags": {
                        "bus": "yes",
                        "ref": "50233",
                        "name": "Evergreen Drive/Ballan Road",
                        "highway": "bus_stop",
                        "public_transport": "platform"
                    },
                    "distance": 21802.15772619,
                    "sims": 0.3763722178048675
                },
                {
                    "id": 11445879313,
                    "tags": {
                        "bus": "yes",
                        "ref": "21650",
                        "name": "Abbotswood Drive/Tarneit Road",
                        "highway": "bus_stop",
                        "public_transport": "platform"
                    },
                    "distance": 17328.43235567,
                    "sims": 0.36407193802073134
                },
                {
                    "id": 2889038871,
                    "tags": {
                        "bus": "yes",
                        "name": "Verona Drive/Melton Highway",
                        "highway": "bus_stop",
                        "shelter": "no",
                        "operator": "PTV - Metropolitan Buses",
                        "public_transport": "platform"
                    },
                    "distance": 17685.8776927,
                    "sims": 0.3638079111919723
                },
                {
                    "id": 6176046755,
                    "tags": {
                        "name": "Berth 3",
                        "bench": "yes",
                        "ferry": "yes",
                        "shelter": "yes",
                        "tactile_paving": "yes",
                        "public_transport": "platform"
                    },
                    "distance": 9505.04304012,
                    "sims": 0.36214841797833186
                },
                {
                    "id": 6822003747,
                    "tags": {
                        "shop": "newsagent",
                        "wheelchair": "yes",
                        "toilets:wheelchair": "yes"
                    },
                    "distance": 10186.49814019,
                    "sims": 0.36048198924005925
                },
                {
                    "id": 7248901077,
                    "tags": {
                        "bin": "yes",
                        "bus": "yes",
                        "lit": "no",
                        "ref": "ID.344",
                        "name": "Victoria Street/Rathdowne Street",
                        "bench": "yes",
                        "image": "https://storage12.openstreetcam.org/files/photo/2019/10/2/lth/2030257_75de9_5d946664b444b.jpg",
                        "highway": "bus_stop",
                        "network": "PTV - Metropolitan Buses",
                        "shelter": "yes",
                        "route_ref": "250;251;402",
                        "survey:date": "2019-10-02",
                        "tactile_paving": "yes",
                        "network:wikidata": "Q7257648",
                        "public_transport": "platform",
                        "network:wikipedia": "en:Public Transport Victoria"
                    },
                    "distance": 10268.71272133,
                    "sims": 0.3595357574139322
                },
                {
                    "id": 10292525080,
                    "tags": {
                        "bin": "no",
                        "name": "Conquest Drive",
                        "bench": "no",
                        "covered": "no",
                        "highway": "bus_stop",
                        "route_ref": "170",
                        "tactile_paving": "yes",
                        "public_transport": "platform"
                    },
                    "distance": 17917.39612314,
                    "sims": 0.35951091065678265
                },
                {
                    "id": 11435401810,
                    "tags": {
                        "bus": "yes",
                        "ref": "51888",
                        "name": "Memory Crescent/Welcome Parade",
                        "highway": "bus_stop",
                        "public_transport": "platform"
                    },
                    "distance": 24146.95298094,
                    "sims": 0.35912162674643144
                },
                {
                    "id": 2483459545,
                    "tags": {
                        "access": "yes",
                        "leisure": "playground"
                    },
                    "distance": 8582.68204403,
                    "sims": 0.3565803618412584
                },
                {
                    "id": 11436851973,
                    "tags": {
                        "bus": "yes",
                        "ref": "50156",
                        "name": "Eppalock Drive/Manor Lakes Boulevard",
                        "highway": "bus_stop",
                        "public_transport": "platform"
                    },
                    "distance": 22556.95240704,
                    "sims": 0.3560045917026097
                }
            ]
        },
        "28": {
            "execution_time": 0.1852109432220459,
            "results": [
                {
                    "id": 9204956682,
                    "tags": {
                        "amenity": "shelter"
                    },
                    "distance": 12548.74167494,
                    "sims": 0.7928833220781264
                },
                {
                    "id": 7513185096,
                    "tags": {
                        "amenity": "shelter"
                    },
                    "distance": 9687.00216409,
                    "sims": 0.7923996054648372
                },
                {
                    "id": 514497633,
                    "tags": {
                        "amenity": "shelter"
                    },
                    "distance": 8755.55393689,
                    "sims": 0.7915652120684621
                },
                {
                    "id": 1665511217,
                    "tags": {
                        "amenity": "shelter"
                    },
                    "distance": 12477.70765985,
                    "sims": 0.7913858491831006
                },
                {
                    "id": 1665467233,
                    "tags": {
                        "amenity": "shelter"
                    },
                    "distance": 13131.64039515,
                    "sims": 0.7910619213597571
                },
                {
                    "id": 1634785575,
                    "tags": {
                        "amenity": "shelter"
                    },
                    "distance": 16156.12558033,
                    "sims": 0.7904999449253718
                },
                {
                    "id": 8918639632,
                    "tags": {
                        "amenity": "shelter"
                    },
                    "distance": 15637.3048169,
                    "sims": 0.7887581771652056
                },
                {
                    "id": 9157809794,
                    "tags": {
                        "amenity": "shelter"
                    },
                    "distance": 11784.91868469,
                    "sims": 0.7871349269538044
                },
                {
                    "id": 3801660338,
                    "tags": {
                        "amenity": "shelter"
                    },
                    "distance": 20215.22311753,
                    "sims": 0.7858009977465944
                },
                {
                    "id": 7868727988,
                    "tags": {
                        "amenity": "shelter"
                    },
                    "distance": 10669.74234625,
                    "sims": 0.7855434715036271
                }
            ]
        },
        "29": {
            "execution_time": 0.1823897361755371,
            "results": [
                {
                    "id": 7682779791,
                    "tags": {
                        "leisure": "playground"
                    },
                    "distance": 13348.17330248,
                    "sims": 0.8544122912428961
                },
                {
                    "id": 3861731075,
                    "tags": {
                        "leisure": "playground"
                    },
                    "distance": 23837.61628632,
                    "sims": 0.8543110657612628
                },
                {
                    "id": 7074530119,
                    "tags": {
                        "leisure": "playground"
                    },
                    "distance": 13182.62360985,
                    "sims": 0.8524718616852573
                },
                {
                    "id": 8995652993,
                    "tags": {
                        "leisure": "playground"
                    },
                    "distance": 26486.62776863,
                    "sims": 0.8495987727640325
                },
                {
                    "id": 7701566970,
                    "tags": {
                        "leisure": "playground"
                    },
                    "distance": 26697.55884584,
                    "sims": 0.8484984112528674
                },
                {
                    "id": 8989572925,
                    "tags": {
                        "leisure": "playground"
                    },
                    "distance": 24364.50088114,
                    "sims": 0.8441071576039821
                },
                {
                    "id": 8410144399,
                    "tags": {
                        "leisure": "playground"
                    },
                    "distance": 32394.2385736,
                    "sims": 0.8427079477347272
                },
                {
                    "id": 1553673655,
                    "tags": {
                        "leisure": "playground"
                    },
                    "distance": 33176.03588654,
                    "sims": 0.8418006959260641
                },
                {
                    "id": 541421515,
                    "tags": {
                        "leisure": "playground"
                    },
                    "distance": 28641.71923869,
                    "sims": 0.8412167491341846
                },
                {
                    "id": 11180440652,
                    "tags": {
                        "leisure": "playground"
                    },
                    "distance": 34058.57049251,
                    "sims": 0.8411593593203631
                }
            ]
        },
        "30": {
            "execution_time": 0.18306970596313477,
            "results": [
                {
                    "id": 1954089127,
                    "tags": {
                        "shop": "alcohol"
                    },
                    "distance": 17903.44164993,
                    "sims": 0.7861186520911926
                },
                {
                    "id": 5517711116,
                    "tags": {
                        "name": "Cellarbrations",
                        "shop": "alcohol",
                        "brand": "Cellarbrations",
                        "drive_through": "no",
                        "brand:wikidata": "Q109807592"
                    },
                    "distance": 20168.54586081,
                    "sims": 0.659730594190293
                },
                {
                    "id": 3949661294,
                    "tags": {
                        "name": "Topaz House",
                        "shop": "alcohol"
                    },
                    "distance": 38399.48391941,
                    "sims": 0.6579832638512202
                },
                {
                    "id": 2274624950,
                    "tags": {
                        "name": "Baron's Wine & Spirits",
                        "shop": "alcohol"
                    },
                    "distance": 37130.52865039,
                    "sims": 0.6351626732848583
                },
                {
                    "id": 12413689895,
                    "tags": {
                        "addr:street": "White Gum Way",
                        "addr:housenumber": "12"
                    },
                    "distance": 8612.68122644,
                    "sims": 0.6234324876230984
                },
                {
                    "id": 12413691199,
                    "tags": {
                        "addr:street": "White Gum Way",
                        "addr:housenumber": "1"
                    },
                    "distance": 8681.05867784,
                    "sims": 0.6229711028371971
                },
                {
                    "id": 12420042942,
                    "tags": {
                        "addr:street": "Schooner Bay Drive",
                        "addr:housenumber": "42"
                    },
                    "distance": 5310.09620798,
                    "sims": 0.6188749713711534
                },
                {
                    "id": 12413696073,
                    "tags": {
                        "addr:street": "Black Gum Crescent",
                        "addr:housenumber": "16"
                    },
                    "distance": 5541.88474403,
                    "sims": 0.6108945475942479
                },
                {
                    "id": 12413677612,
                    "tags": {
                        "addr:street": "Flowering Gum Lane",
                        "addr:housenumber": "3"
                    },
                    "distance": 305.19074943,
                    "sims": 0.6104796993160649
                },
                {
                    "id": 12420353239,
                    "tags": {
                        "addr:street": "Stringy Bark Circuit",
                        "addr:housenumber": "42"
                    },
                    "distance": 21823.08289725,
                    "sims": 0.6081737150938894
                }
            ]
        },
        "31": {
            "execution_time": 0.18278026580810547,
            "results": [
                {
                    "id": 11974364525,
                    "tags": {
                        "tourism": "viewpoint"
                    },
                    "distance": 34480.52080984,
                    "sims": 0.6327411434826108
                },
                {
                    "id": 7612393485,
                    "tags": {
                        "tourism": "viewpoint"
                    },
                    "distance": 66901.55794208,
                    "sims": 0.625696092678088
                },
                {
                    "id": 11936008385,
                    "tags": {
                        "tourism": "viewpoint"
                    },
                    "distance": 43942.17632281,
                    "sims": 0.622302741455418
                },
                {
                    "id": 11876605631,
                    "tags": {
                        "tourism": "viewpoint"
                    },
                    "distance": 62483.02180411,
                    "sims": 0.6220154882032194
                },
                {
                    "id": 1940758992,
                    "tags": {
                        "tourism": "viewpoint"
                    },
                    "distance": 44084.38711555,
                    "sims": 0.6201156913889649
                },
                {
                    "id": 9317703937,
                    "tags": {
                        "tourism": "viewpoint"
                    },
                    "distance": 60840.64973144,
                    "sims": 0.6023581020957195
                },
                {
                    "id": 2491089770,
                    "tags": {
                        "name": "Lookout",
                        "tourism": "viewpoint"
                    },
                    "distance": 63322.80477146,
                    "sims": 0.5555064810793405
                },
                {
                    "id": 10831716418,
                    "tags": {
                        "tourism": "viewpoint"
                    },
                    "distance": 40479.43301491,
                    "sims": 0.5544801490068237
                },
                {
                    "id": 832432259,
                    "tags": {
                        "name": "Lookout",
                        "tourism": "viewpoint"
                    },
                    "distance": 85059.74940793,
                    "sims": 0.5385496088908343
                },
                {
                    "id": 7745862796,
                    "tags": {
                        "amenity": "bench",
                        "tourism": "viewpoint",
                        "backrest": "yes"
                    },
                    "distance": 62832.87662011,
                    "sims": 0.5302648314123592
                }
            ]
        },
        "32": {
            "execution_time": 0.1840677261352539,
            "results": [
                {
                    "id": 8940301696,
                    "tags": {
                        "building": "yes"
                    },
                    "distance": 36394.31226385,
                    "sims": 0.3934423053849756
                },
                {
                    "id": 7903498955,
                    "tags": {
                        "building": "yes"
                    },
                    "distance": 29511.01388113,
                    "sims": 0.38768178159814903
                },
                {
                    "id": 6057027964,
                    "tags": {
                        "building": "yes"
                    },
                    "distance": 30622.26654644,
                    "sims": 0.3864423917521511
                },
                {
                    "id": 6057027950,
                    "tags": {
                        "building": "yes"
                    },
                    "distance": 30752.05568885,
                    "sims": 0.38609278052067497
                },
                {
                    "id": 6057027966,
                    "tags": {
                        "building": "yes"
                    },
                    "distance": 30753.0341502,
                    "sims": 0.3859068437315538
                },
                {
                    "id": 6187393732,
                    "tags": {
                        "access": "yes",
                        "leisure": "playground"
                    },
                    "distance": 19280.23464146,
                    "sims": 0.375999674796907
                },
                {
                    "id": 1427015790,
                    "tags": {
                        "access": "yes",
                        "leisure": "playground"
                    },
                    "distance": 20440.40476854,
                    "sims": 0.37237038322295835
                },
                {
                    "id": 919254737,
                    "tags": {
                        "name": "053",
                        "note_1": "18-SEP-10 3:15:55PM",
                        "_waypoint_": "yes",
                        "_description_": "18-SEP-10 3:15:55PM"
                    },
                    "distance": 66919.11937695,
                    "sims": 0.3719098289694891
                },
                {
                    "id": 3238971772,
                    "tags": {
                        "access": "yes",
                        "leisure": "playground"
                    },
                    "distance": 24651.21863794,
                    "sims": 0.37134200160128583
                },
                {
                    "id": 2637878180,
                    "tags": {
                        "access": "yes",
                        "leisure": "playground"
                    },
                    "distance": 13844.99519478,
                    "sims": 0.3703086088855614
                }
            ]
        },
        "33": {
            "execution_time": 0.18191814422607422,
            "results": [
                {
                    "id": 9204956682,
                    "tags": {
                        "amenity": "shelter"
                    },
                    "distance": 40586.22186638,
                    "sims": 0.7739001320779101
                },
                {
                    "id": 1634785575,
                    "tags": {
                        "amenity": "shelter"
                    },
                    "distance": 47172.70514107,
                    "sims": 0.7707236545846682
                },
                {
                    "id": 1665511217,
                    "tags": {
                        "amenity": "shelter"
                    },
                    "distance": 49438.05802663,
                    "sims": 0.7673458595665791
                },
                {
                    "id": 1665467233,
                    "tags": {
                        "amenity": "shelter"
                    },
                    "distance": 49338.68512001,
                    "sims": 0.7673291931352291
                },
                {
                    "id": 8918639632,
                    "tags": {
                        "amenity": "shelter"
                    },
                    "distance": 54618.34671466,
                    "sims": 0.7620883725828916
                },
                {
                    "id": 3801660338,
                    "tags": {
                        "amenity": "shelter"
                    },
                    "distance": 60138.03122221,
                    "sims": 0.757795870304113
                },
                {
                    "id": 2354674478,
                    "tags": {
                        "amenity": "shelter"
                    },
                    "distance": 66327.03181525,
                    "sims": 0.7575218451761679
                },
                {
                    "id": 7513185096,
                    "tags": {
                        "amenity": "shelter"
                    },
                    "distance": 58703.13177978,
                    "sims": 0.754944041076659
                },
                {
                    "id": 514497633,
                    "tags": {
                        "amenity": "shelter"
                    },
                    "distance": 58571.06243112,
                    "sims": 0.7527143057925336
                },
                {
                    "id": 9157809794,
                    "tags": {
                        "amenity": "shelter"
                    },
                    "distance": 61725.14497356,
                    "sims": 0.7442033069073198
                }
            ]
        },
        "34": {
            "execution_time": 0.18604183197021484,
            "results": [
                {
                    "id": 9243492475,
                    "tags": {
                        "amenity": "bench"
                    },
                    "distance": 23679.27362161,
                    "sims": 0.8411274803020803
                },
                {
                    "id": 9242991246,
                    "tags": {
                        "amenity": "bench"
                    },
                    "distance": 22354.48848918,
                    "sims": 0.8410851108704508
                },
                {
                    "id": 9237369183,
                    "tags": {
                        "amenity": "bench"
                    },
                    "distance": 22589.0901621,
                    "sims": 0.8409960080380464
                },
                {
                    "id": 9195230348,
                    "tags": {
                        "amenity": "bench"
                    },
                    "distance": 24980.97165445,
                    "sims": 0.8409826911374356
                },
                {
                    "id": 12479911729,
                    "tags": {
                        "amenity": "bench"
                    },
                    "distance": 20036.30120939,
                    "sims": 0.8409690166097293
                },
                {
                    "id": 12479911731,
                    "tags": {
                        "amenity": "bench"
                    },
                    "distance": 20047.57048614,
                    "sims": 0.8409690166097293
                },
                {
                    "id": 12479911734,
                    "tags": {
                        "amenity": "bench"
                    },
                    "distance": 19966.02766627,
                    "sims": 0.8409672034075026
                },
                {
                    "id": 9256129185,
                    "tags": {
                        "amenity": "bench"
                    },
                    "distance": 24344.44831242,
                    "sims": 0.840953877029054
                },
                {
                    "id": 9256129186,
                    "tags": {
                        "amenity": "bench"
                    },
                    "distance": 24349.08385207,
                    "sims": 0.840953877029054
                },
                {
                    "id": 9832413287,
                    "tags": {
                        "amenity": "bench"
                    },
                    "distance": 28154.60919296,
                    "sims": 0.8409451496882785
                }
            ]
        },
        "35": {
            "execution_time": 0.18619847297668457,
            "results": [
                {
                    "id": 10989437110,
                    "tags": {
                        "amenity": "bench"
                    },
                    "distance": 18476.29105621,
                    "sims": 0.8375261425971985
                },
                {
                    "id": 9447264137,
                    "tags": {
                        "amenity": "bench"
                    },
                    "distance": 7040.29190187,
                    "sims": 0.8367128870912142
                },
                {
                    "id": 9832413287,
                    "tags": {
                        "amenity": "bench"
                    },
                    "distance": 8219.36969442,
                    "sims": 0.8364168405532837
                },
                {
                    "id": 9832413286,
                    "tags": {
                        "amenity": "bench"
                    },
                    "distance": 8199.17579733,
                    "sims": 0.8363982439041138
                },
                {
                    "id": 9195230348,
                    "tags": {
                        "amenity": "bench"
                    },
                    "distance": 4204.78243328,
                    "sims": 0.8361479542343604
                },
                {
                    "id": 9195230395,
                    "tags": {
                        "amenity": "bench"
                    },
                    "distance": 4199.39971802,
                    "sims": 0.8361016511917114
                },
                {
                    "id": 9195230385,
                    "tags": {
                        "amenity": "bench"
                    },
                    "distance": 4177.74545316,
                    "sims": 0.8360500584855697
                },
                {
                    "id": 9195230378,
                    "tags": {
                        "amenity": "bench"
                    },
                    "distance": 4106.64815634,
                    "sims": 0.8359833359718323
                },
                {
                    "id": 9218558572,
                    "tags": {
                        "amenity": "bench"
                    },
                    "distance": 3583.52443338,
                    "sims": 0.8358999739855524
                },
                {
                    "id": 9218438975,
                    "tags": {
                        "amenity": "bench"
                    },
                    "distance": 3110.02826027,
                    "sims": 0.835791826248169
                }
            ]
        },
        "36": {
            "execution_time": 0.18265676498413086,
            "results": [
                {
                    "id": 6403353733,
                    "tags": {
                        "shop": "hairdresser"
                    },
                    "distance": 66170.9459796,
                    "sims": 0.8476488136198697
                },
                {
                    "id": 5824764078,
                    "tags": {
                        "name": "The Beauty Of Hair",
                        "shop": "hairdresser"
                    },
                    "distance": 65820.31424227,
                    "sims": 0.8017846112269785
                },
                {
                    "id": 2296939870,
                    "tags": {
                        "name": "Innovation",
                        "shop": "hairdresser"
                    },
                    "distance": 58470.09269164,
                    "sims": 0.7782597477018206
                },
                {
                    "id": 5389620826,
                    "tags": {
                        "name": "Mops Hairdressing",
                        "shop": "hairdresser"
                    },
                    "distance": 50271.78055619,
                    "sims": 0.7740697552749026
                },
                {
                    "id": 5824763971,
                    "tags": {
                        "name": "National Hair Design",
                        "shop": "hairdresser"
                    },
                    "distance": 65946.29620215,
                    "sims": 0.7738389429662311
                },
                {
                    "id": 6165387338,
                    "tags": {
                        "name": "New Sensation Hairstyling",
                        "shop": "hairdresser"
                    },
                    "distance": 58063.94257942,
                    "sims": 0.7688092038176764
                },
                {
                    "id": 5824763977,
                    "tags": {
                        "name": "Lindy Hair Beauty",
                        "shop": "hairdresser"
                    },
                    "distance": 66356.78792895,
                    "sims": 0.755606354619609
                },
                {
                    "id": 10026346571,
                    "tags": {
                        "name": "Fantasy Hair Studio",
                        "shop": "hairdresser"
                    },
                    "distance": 64351.22455179,
                    "sims": 0.7524075366281202
                },
                {
                    "id": 6040815783,
                    "tags": {
                        "name": "Julijana",
                        "shop": "hairdresser"
                    },
                    "distance": 55721.12557045,
                    "sims": 0.7154139793906366
                },
                {
                    "id": 7176810598,
                    "tags": {
                        "name": "Essa Hairdressing",
                        "shop": "hairdresser"
                    },
                    "distance": 73050.52646407,
                    "sims": 0.7143197570609671
                }
            ]
        },
        "37": {
            "execution_time": 0.18396997451782227,
            "results": [
                {
                    "id": 2646549667,
                    "tags": {
                        "tourism": "picnic_site"
                    },
                    "distance": 19801.97342291,
                    "sims": 0.9340263965224851
                },
                {
                    "id": 2646549691,
                    "tags": {
                        "tourism": "picnic_site"
                    },
                    "distance": 19690.40766298,
                    "sims": 0.934014654403265
                },
                {
                    "id": 2707962813,
                    "tags": {
                        "tourism": "picnic_site"
                    },
                    "distance": 25160.21362881,
                    "sims": 0.9304831971466649
                },
                {
                    "id": 2653268010,
                    "tags": {
                        "tourism": "picnic_site"
                    },
                    "distance": 23451.30765478,
                    "sims": 0.9304067202119669
                },
                {
                    "id": 9181967095,
                    "tags": {
                        "tourism": "picnic_site"
                    },
                    "distance": 30527.481,
                    "sims": 0.9289326413629558
                },
                {
                    "id": 2640309311,
                    "tags": {
                        "tourism": "picnic_site"
                    },
                    "distance": 23856.53085336,
                    "sims": 0.927928903081767
                },
                {
                    "id": 617905377,
                    "tags": {
                        "tourism": "picnic_site"
                    },
                    "distance": 29799.67848468,
                    "sims": 0.92711251696017
                },
                {
                    "id": 617905595,
                    "tags": {
                        "tourism": "picnic_site"
                    },
                    "distance": 29718.45603366,
                    "sims": 0.9265411829500253
                },
                {
                    "id": 1299188310,
                    "tags": {
                        "tourism": "picnic_site"
                    },
                    "distance": 28569.35729399,
                    "sims": 0.9160224444960233
                },
                {
                    "id": 1940739963,
                    "tags": {
                        "tourism": "picnic_site"
                    },
                    "distance": 47516.96955333,
                    "sims": 0.8929690931925486
                }
            ]
        },
        "38": {
            "execution_time": 0.18372392654418945,
            "results": [
                {
                    "id": 9262216551,
                    "tags": {
                        "name": "wonguim wilam",
                        "leisure": "park",
                        "name:woi wurrung": "wonguim wilam"
                    },
                    "distance": 28264.83856309,
                    "sims": 0.7475856687281851
                },
                {
                    "id": 12420515321,
                    "tags": {
                        "addr:street": "Wonga Grove",
                        "addr:housenumber": "10"
                    },
                    "distance": 48317.55306903,
                    "sims": 0.6617434410437252
                },
                {
                    "id": 12419605466,
                    "tags": {
                        "addr:street": "Centre Dandenong Road",
                        "addr:housenumber": "69"
                    },
                    "distance": 14992.96427966,
                    "sims": 0.6610457887135472
                },
                {
                    "id": 12412394523,
                    "tags": {
                        "addr:street": "Centre Dandenong Road",
                        "addr:housenumber": "17"
                    },
                    "distance": 15584.27674031,
                    "sims": 0.6593515460330566
                },
                {
                    "id": 12412254541,
                    "tags": {
                        "addr:street": "Centre Dandenong Road",
                        "addr:housenumber": "214"
                    },
                    "distance": 10149.48313694,
                    "sims": 0.6590133891725746
                },
                {
                    "id": 12419150566,
                    "tags": {
                        "addr:street": "Wonga Road",
                        "addr:housenumber": "214-218"
                    },
                    "distance": 27358.22580413,
                    "sims": 0.6560654025194873
                },
                {
                    "id": 12419343619,
                    "tags": {
                        "addr:street": "Wonga Mews",
                        "addr:housenumber": "17"
                    },
                    "distance": 31546.72193205,
                    "sims": 0.6546183802995275
                },
                {
                    "id": 12419589359,
                    "tags": {
                        "addr:street": "Centre Dandenong Road",
                        "addr:housenumber": "162"
                    },
                    "distance": 9759.29485131,
                    "sims": 0.6539887557002962
                },
                {
                    "id": 12419132038,
                    "tags": {
                        "addr:street": "Wonga Road",
                        "addr:housenumber": "57-59"
                    },
                    "distance": 25915.89594192,
                    "sims": 0.6536319232521024
                },
                {
                    "id": 12419590942,
                    "tags": {
                        "addr:street": "Centre Dandenong Road",
                        "addr:housenumber": "73"
                    },
                    "distance": 8903.97106184,
                    "sims": 0.6485040155358446
                }
            ]
        },
        "39": {
            "execution_time": 0.18678832054138184,
            "results": [
                {
                    "id": 9546217620,
                    "tags": {
                        "amenity": "bench"
                    },
                    "distance": 17373.54764312,
                    "sims": 0.8277386221574109
                },
                {
                    "id": 7838610674,
                    "tags": {
                        "amenity": "bench"
                    },
                    "distance": 14094.77515204,
                    "sims": 0.8250968247767493
                },
                {
                    "id": 9029466712,
                    "tags": {
                        "amenity": "bench"
                    },
                    "distance": 23069.51127072,
                    "sims": 0.8250918530009886
                },
                {
                    "id": 9687083040,
                    "tags": {
                        "amenity": "bench",
                        "backrest": "no"
                    },
                    "distance": 17545.72393666,
                    "sims": 0.8217219848980327
                },
                {
                    "id": 5980632269,
                    "tags": {
                        "amenity": "bench"
                    },
                    "distance": 20844.44082747,
                    "sims": 0.8211364990811588
                },
                {
                    "id": 5980632046,
                    "tags": {
                        "amenity": "bench"
                    },
                    "distance": 20831.15206972,
                    "sims": 0.8210672874212853
                },
                {
                    "id": 9761453233,
                    "tags": {
                        "amenity": "bench"
                    },
                    "distance": 19666.27518959,
                    "sims": 0.8205841917321887
                },
                {
                    "id": 8891789109,
                    "tags": {
                        "amenity": "bench"
                    },
                    "distance": 21178.50340351,
                    "sims": 0.8190799735879881
                },
                {
                    "id": 8891789106,
                    "tags": {
                        "amenity": "bench"
                    },
                    "distance": 21188.55805939,
                    "sims": 0.8190799735879881
                },
                {
                    "id": 8891789104,
                    "tags": {
                        "amenity": "bench"
                    },
                    "distance": 21194.48463682,
                    "sims": 0.8190799735879881
                }
            ]
        },
        "40": {
            "execution_time": 0.1862790584564209,
            "results": [
                {
                    "id": 10836221699,
                    "tags": {
                        "amenity": "bicycle_parking"
                    },
                    "distance": 2317.61624088,
                    "sims": 0.9304751795247107
                },
                {
                    "id": 3494855069,
                    "tags": {
                        "amenity": "bicycle_parking"
                    },
                    "distance": 3895.65535952,
                    "sims": 0.9303064665107029
                },
                {
                    "id": 940960187,
                    "tags": {
                        "amenity": "bicycle_parking"
                    },
                    "distance": 6444.34446889,
                    "sims": 0.9287685836829443
                },
                {
                    "id": 9203802330,
                    "tags": {
                        "amenity": "bicycle_parking"
                    },
                    "distance": 18077.74403169,
                    "sims": 0.9221478197398401
                },
                {
                    "id": 6017200213,
                    "tags": {
                        "amenity": "bicycle_parking"
                    },
                    "distance": 13162.52416384,
                    "sims": 0.9192336249808313
                },
                {
                    "id": 10133912158,
                    "tags": {
                        "amenity": "bicycle_parking"
                    },
                    "distance": 21857.09045153,
                    "sims": 0.9188842225739839
                },
                {
                    "id": 11206955084,
                    "tags": {
                        "amenity": "bicycle_parking"
                    },
                    "distance": 13190.37472812,
                    "sims": 0.9159560849692787
                },
                {
                    "id": 600674103,
                    "tags": {
                        "amenity": "bicycle_parking"
                    },
                    "distance": 13168.39294154,
                    "sims": 0.9147601774477869
                },
                {
                    "id": 11345589322,
                    "tags": {
                        "amenity": "bicycle_parking"
                    },
                    "distance": 16323.17450512,
                    "sims": 0.9041141924790045
                },
                {
                    "id": 6297092472,
                    "tags": {
                        "amenity": "bicycle_parking",
                        "capacity": "6"
                    },
                    "distance": 11371.29533264,
                    "sims": 0.8863473074022165
                }
            ]
        },
        "41": {
            "execution_time": 0.1873478889465332,
            "results": [
                {
                    "id": 5313055446,
                    "tags": {
                        "amenity": "doctors",
                        "healthcare": "doctor"
                    },
                    "distance": 27109.87222968,
                    "sims": 0.6176614945430078
                },
                {
                    "id": 12264997826,
                    "tags": {
                        "name": "Mister Minit",
                        "shop": "locksmith",
                        "brand": "Mister Minit",
                        "wheelchair": "yes",
                        "brand:wikidata": "Q1939269",
                        "opening_hours:signed": "no",
                        "check_date:opening_hours": "2024-10-19"
                    },
                    "distance": 29265.04811675,
                    "sims": 0.6065514629976294
                },
                {
                    "id": 9202609022,
                    "tags": {
                        "name": "Casey Myotherapy and Health",
                        "healthcare": "alternative"
                    },
                    "distance": 16198.1211518,
                    "sims": 0.5952694352212067
                },
                {
                    "id": 12031429091,
                    "tags": {
                        "name": "Narre Warren Medical Centre",
                        "amenity": "doctors",
                        "healthcare": "doctor",
                        "addr:street": "Malcolm Court",
                        "addr:housenumber": "2"
                    },
                    "distance": 14826.88763134,
                    "sims": 0.591560178240556
                },
                {
                    "id": 9026307748,
                    "tags": {
                        "name": "Diskin Life",
                        "healthcare": "alternative",
                        "healthcare:speciality": "chiropractic"
                    },
                    "distance": 23431.87473245,
                    "sims": 0.5841110274891007
                },
                {
                    "id": 6741632383,
                    "tags": {
                        "name": "Mediattion",
                        "shop": "massage"
                    },
                    "distance": 24646.46723691,
                    "sims": 0.577060120614181
                },
                {
                    "id": 6018946121,
                    "tags": {
                        "name": "Sue Writing Breast Imaging",
                        "healthcare": "yes"
                    },
                    "distance": 10821.39829586,
                    "sims": 0.5756811418248267
                },
                {
                    "id": 12420086976,
                    "tags": {
                        "addr:street": "St Bernards Crescent",
                        "addr:housenumber": "16"
                    },
                    "distance": 13289.47609608,
                    "sims": 0.5753439836306631
                },
                {
                    "id": 5519973633,
                    "tags": {
                        "name": "Solar Heart Healing House",
                        "office": "physician",
                        "addr:street": "Waverley Road",
                        "addr:housenumber": "440"
                    },
                    "distance": 12645.42741736,
                    "sims": 0.5751275338346564
                },
                {
                    "id": 12420289148,
                    "tags": {
                        "addr:street": "Alexandra Mews",
                        "addr:housenumber": "26"
                    },
                    "distance": 21903.47486295,
                    "sims": 0.5748383320723496
                }
            ]
        },
        "42": {
            "execution_time": 0.18445563316345215,
            "results": [
                {
                    "id": 4696830494,
                    "tags": {
                        "amenity": "drinking_water"
                    },
                    "distance": 26532.72250194,
                    "sims": 0.765994635044117
                },
                {
                    "id": 4059759249,
                    "tags": {
                        "amenity": "drinking_water"
                    },
                    "distance": 41479.82372102,
                    "sims": 0.7627614994303707
                },
                {
                    "id": 9789744819,
                    "tags": {
                        "amenity": "drinking_water"
                    },
                    "distance": 28341.03210299,
                    "sims": 0.7611545662240744
                },
                {
                    "id": 9789737812,
                    "tags": {
                        "amenity": "drinking_water"
                    },
                    "distance": 29204.52803586,
                    "sims": 0.7596482883940789
                },
                {
                    "id": 10292348700,
                    "tags": {
                        "amenity": "drinking_water"
                    },
                    "distance": 32200.779907,
                    "sims": 0.7561344744328017
                },
                {
                    "id": 5999588617,
                    "tags": {
                        "amenity": "drinking_water"
                    },
                    "distance": 31903.43092885,
                    "sims": 0.755429589714623
                },
                {
                    "id": 6923586315,
                    "tags": {
                        "amenity": "drinking_water"
                    },
                    "distance": 28613.02828576,
                    "sims": 0.7535029433525193
                },
                {
                    "id": 5551530322,
                    "tags": {
                        "amenity": "drinking_water"
                    },
                    "distance": 32042.74746438,
                    "sims": 0.7488194328360498
                },
                {
                    "id": 5425877105,
                    "tags": {
                        "amenity": "drinking_water"
                    },
                    "distance": 33104.45794896,
                    "sims": 0.746211512747879
                },
                {
                    "id": 4914753864,
                    "tags": {
                        "amenity": "drinking_water"
                    },
                    "distance": 33005.08922018,
                    "sims": 0.7458164459680457
                }
            ]
        },
        "43": {
            "execution_time": 0.1863994598388672,
            "results": [
                {
                    "id": 11024197015,
                    "tags": {
                        "leisure": "picnic_table"
                    },
                    "distance": 5017.95485713,
                    "sims": 0.9467959530840637
                },
                {
                    "id": 5259788318,
                    "tags": {
                        "leisure": "picnic_table"
                    },
                    "distance": 1906.69336331,
                    "sims": 0.9466236988831884
                },
                {
                    "id": 5213728799,
                    "tags": {
                        "leisure": "picnic_table"
                    },
                    "distance": 1068.26682587,
                    "sims": 0.9466037909377665
                },
                {
                    "id": 9202783893,
                    "tags": {
                        "leisure": "picnic_table"
                    },
                    "distance": 3606.39085691,
                    "sims": 0.9464944728626683
                },
                {
                    "id": 6052186561,
                    "tags": {
                        "leisure": "picnic_table"
                    },
                    "distance": 11306.01961427,
                    "sims": 0.9464870818884783
                },
                {
                    "id": 11047961296,
                    "tags": {
                        "leisure": "picnic_table"
                    },
                    "distance": 4728.9120138,
                    "sims": 0.946277424201515
                },
                {
                    "id": 11078360987,
                    "tags": {
                        "leisure": "picnic_table"
                    },
                    "distance": 8988.64431747,
                    "sims": 0.9461287420604821
                },
                {
                    "id": 12480202145,
                    "tags": {
                        "leisure": "picnic_table"
                    },
                    "distance": 1859.75798612,
                    "sims": 0.9460734885712422
                },
                {
                    "id": 11078361042,
                    "tags": {
                        "leisure": "picnic_table"
                    },
                    "distance": 9372.8932069,
                    "sims": 0.9456564946006675
                },
                {
                    "id": 12117689201,
                    "tags": {
                        "leisure": "picnic_table"
                    },
                    "distance": 8937.99309743,
                    "sims": 0.9454364624939424
                }
            ]
        },
        "44": {
            "execution_time": 0.18603301048278809,
            "results": [
                {
                    "id": 9159690700,
                    "tags": {
                        "amenity": "loading_dock"
                    },
                    "distance": 13994.40576661,
                    "sims": 0.8361252624019745
                },
                {
                    "id": 12141508213,
                    "tags": {
                        "amenity": "loading_dock"
                    },
                    "distance": 19976.4755262,
                    "sims": 0.8291989100228048
                },
                {
                    "id": 9923775005,
                    "tags": {
                        "ref": "3",
                        "amenity": "loading_dock"
                    },
                    "distance": 22320.66330371,
                    "sims": 0.7869124979084693
                },
                {
                    "id": 9923789358,
                    "tags": {
                        "ref": "97",
                        "amenity": "loading_dock"
                    },
                    "distance": 22185.05482915,
                    "sims": 0.7824213868943879
                },
                {
                    "id": 10779406192,
                    "tags": {
                        "access": "private",
                        "amenity": "loading_dock"
                    },
                    "distance": 19353.83148759,
                    "sims": 0.7762672846632063
                },
                {
                    "id": 9991737653,
                    "tags": {
                        "name": "Receiving Dock",
                        "building": "yes"
                    },
                    "distance": 37645.28254487,
                    "sims": 0.6178844692274302
                },
                {
                    "id": 354163710,
                    "tags": {
                        "amenity": "toilets",
                        "created_by": "Potlatch 0.10f"
                    },
                    "distance": 12385.25322788,
                    "sims": 0.5824772125647038
                },
                {
                    "id": 11844575715,
                    "tags": {
                        "addr:state": "VIC",
                        "addr:street": "Waterside Place",
                        "addr:suburb": "Docklands",
                        "addr:country": "AU",
                        "addr:postcode": "3008",
                        "addr:housenumber": "2-14"
                    },
                    "distance": 20684.04045205,
                    "sims": 0.5637827395434799
                },
                {
                    "id": 327998111,
                    "tags": {
                        "amenity": "parking_entrance",
                        "parking": "underground"
                    },
                    "distance": 693.66649718,
                    "sims": 0.5471014639606941
                },
                {
                    "id": 12462506456,
                    "tags": {
                        "amenity": "parking_entrance",
                        "parking": "underground"
                    },
                    "distance": 30154.30962436,
                    "sims": 0.5459663864596187
                }
            ]
        },
        "45": {
            "execution_time": 0.18472599983215332,
            "results": [
                {
                    "id": 9454849796,
                    "tags": {
                        "amenity": "bench"
                    },
                    "distance": 3166.47118356,
                    "sims": 0.834540506060069
                },
                {
                    "id": 6017238586,
                    "tags": {
                        "amenity": "bench"
                    },
                    "distance": 4498.89553565,
                    "sims": 0.8338360289433
                },
                {
                    "id": 11497393044,
                    "tags": {
                        "amenity": "bench"
                    },
                    "distance": 7254.67897044,
                    "sims": 0.8336139569763532
                },
                {
                    "id": 11652038334,
                    "tags": {
                        "amenity": "bench"
                    },
                    "distance": 4358.96458753,
                    "sims": 0.8332193394434073
                },
                {
                    "id": 2120443412,
                    "tags": {
                        "amenity": "bench"
                    },
                    "distance": 7831.20864858,
                    "sims": 0.8332130710140611
                },
                {
                    "id": 2158531876,
                    "tags": {
                        "amenity": "bench"
                    },
                    "distance": 9839.4159277,
                    "sims": 0.8324507971078647
                },
                {
                    "id": 9398447276,
                    "tags": {
                        "amenity": "bench"
                    },
                    "distance": 10053.95962775,
                    "sims": 0.8322498998344123
                },
                {
                    "id": 5222791644,
                    "tags": {
                        "amenity": "bench"
                    },
                    "distance": 4579.49910418,
                    "sims": 0.8321921825408936
                },
                {
                    "id": 12176802627,
                    "tags": {
                        "amenity": "bench"
                    },
                    "distance": 10366.80680326,
                    "sims": 0.8320970039309872
                },
                {
                    "id": 10727228975,
                    "tags": {
                        "amenity": "bench"
                    },
                    "distance": 10518.5581439,
                    "sims": 0.831987212181855
                }
            ]
        },
        "46": {
            "execution_time": 0.18663978576660156,
            "results": [
                {
                    "id": 5776644658,
                    "tags": {
                        "tourism": "artwork"
                    },
                    "distance": 19434.87997488,
                    "sims": 0.5422949690115679
                },
                {
                    "id": 6741639490,
                    "tags": {
                        "tourism": "artwork"
                    },
                    "distance": 21153.45020038,
                    "sims": 0.5390855623382005
                },
                {
                    "id": 9679144752,
                    "tags": {
                        "name": "Fresh Flowers",
                        "shop": "florist"
                    },
                    "distance": 27862.93737921,
                    "sims": 0.5350000220537502
                },
                {
                    "id": 11012132472,
                    "tags": {
                        "tourism": "artwork",
                        "artwork_type": "graffiti"
                    },
                    "distance": 16045.22267466,
                    "sims": 0.5249410808227019
                },
                {
                    "id": 10694344553,
                    "tags": {
                        "name": "New Order",
                        "tourism": "artwork",
                        "start_date": "2009",
                        "artist_name": "Louise Lavarack",
                        "artwork_type": "sculpture"
                    },
                    "distance": 15244.91624981,
                    "sims": 0.522864828704203
                },
                {
                    "id": 9260723187,
                    "tags": {
                        "tourism": "artwork"
                    },
                    "distance": 56100.49618784,
                    "sims": 0.5049965965756091
                },
                {
                    "id": 2987188735,
                    "tags": {
                        "tourism": "artwork"
                    },
                    "distance": 54899.22645479,
                    "sims": 0.502976834064299
                },
                {
                    "id": 6737599903,
                    "tags": {
                        "tourism": "artwork",
                        "artwork_type": "mural"
                    },
                    "distance": 13875.48958746,
                    "sims": 0.4991569818573849
                },
                {
                    "id": 9141341453,
                    "tags": {
                        "tourism": "artwork",
                        "artwork_type": "sculpture"
                    },
                    "distance": 20512.10306771,
                    "sims": 0.47847709701148533
                },
                {
                    "id": 2720130561,
                    "tags": {
                        "tourism": "artwork",
                        "artwork_type": "stone"
                    },
                    "distance": 19093.83882819,
                    "sims": 0.4764339085975047
                }
            ]
        },
        "47": {
            "execution_time": 0.1849970817565918,
            "results": [
                {
                    "id": 12419767431,
                    "tags": {
                        "amenity": "post_box"
                    },
                    "distance": 27938.52663183,
                    "sims": 0.8323534830526611
                },
                {
                    "id": 246923339,
                    "tags": {
                        "amenity": "post_box"
                    },
                    "distance": 22334.03119577,
                    "sims": 0.8282643923928045
                },
                {
                    "id": 1930547940,
                    "tags": {
                        "amenity": "post_box"
                    },
                    "distance": 19149.25800477,
                    "sims": 0.8254506720212996
                },
                {
                    "id": 261307255,
                    "tags": {
                        "amenity": "post_box"
                    },
                    "distance": 25262.63987223,
                    "sims": 0.8204109821989729
                },
                {
                    "id": 6019082644,
                    "tags": {
                        "amenity": "post_box"
                    },
                    "distance": 22884.76516031,
                    "sims": 0.8170580082609842
                },
                {
                    "id": 520954652,
                    "tags": {
                        "amenity": "post_box"
                    },
                    "distance": 21864.90602278,
                    "sims": 0.8098271799912112
                },
                {
                    "id": 9228923884,
                    "tags": {
                        "amenity": "post_box"
                    },
                    "distance": 47878.83300742,
                    "sims": 0.8097825957381787
                },
                {
                    "id": 550880137,
                    "tags": {
                        "amenity": "post_box"
                    },
                    "distance": 22642.33448802,
                    "sims": 0.8015936130547434
                },
                {
                    "id": 1808548934,
                    "tags": {
                        "amenity": "post_box"
                    },
                    "distance": 19128.05351317,
                    "sims": 0.7993101361087236
                },
                {
                    "id": 281341565,
                    "tags": {
                        "amenity": "post_box"
                    },
                    "distance": 19110.93947125,
                    "sims": 0.7992141964862552
                }
            ]
        },
        "48": {
            "execution_time": 0.18614959716796875,
            "results": [
                {
                    "id": 12418980612,
                    "tags": {
                        "addr:street": "Robinson Drive",
                        "addr:housenumber": "51"
                    },
                    "distance": 21835.06111479,
                    "sims": 0.7607795537679807
                },
                {
                    "id": 10794717670,
                    "tags": {
                        "addr:street": "Ritchie Drive",
                        "addr:housenumber": "29"
                    },
                    "distance": 10477.66977985,
                    "sims": 0.7471910191051245
                },
                {
                    "id": 12414300665,
                    "tags": {
                        "addr:street": "Smithfield Drive",
                        "addr:housenumber": "29"
                    },
                    "distance": 10168.64319453,
                    "sims": 0.7453933721111329
                },
                {
                    "id": 12420090385,
                    "tags": {
                        "addr:street": "Robinsons Road",
                        "addr:housenumber": "7"
                    },
                    "distance": 13750.00604361,
                    "sims": 0.7410901255390322
                },
                {
                    "id": 12413608333,
                    "tags": {
                        "addr:street": "Robinson Crescent",
                        "addr:housenumber": "12"
                    },
                    "distance": 751.38619833,
                    "sims": 0.7393564646860937
                },
                {
                    "id": 12414345393,
                    "tags": {
                        "addr:street": "Robinsons Road",
                        "addr:housenumber": "955"
                    },
                    "distance": 16565.77464166,
                    "sims": 0.7388381711205034
                },
                {
                    "id": 12421171375,
                    "tags": {
                        "addr:street": "Somerford Drive",
                        "addr:housenumber": "34"
                    },
                    "distance": 9285.58935441,
                    "sims": 0.737816920551207
                },
                {
                    "id": 12419750867,
                    "tags": {
                        "addr:street": "Simpson Drive",
                        "addr:housenumber": "60"
                    },
                    "distance": 8995.26007769,
                    "sims": 0.7370237614249909
                },
                {
                    "id": 12419144204,
                    "tags": {
                        "addr:street": "Great Western Drive",
                        "addr:housenumber": "35"
                    },
                    "distance": 21273.35753922,
                    "sims": 0.7365572797030525
                },
                {
                    "id": 12420360276,
                    "tags": {
                        "addr:street": "Cannons Creek Road",
                        "addr:housenumber": "26"
                    },
                    "distance": 19844.83730776,
                    "sims": 0.7355637892766781
                }
            ]
        },
        "49": {
            "execution_time": 0.18703055381774902,
            "results": [
                {
                    "id": 10133912158,
                    "tags": {
                        "amenity": "bicycle_parking"
                    },
                    "distance": 26292.91262766,
                    "sims": 0.9281376218386044
                },
                {
                    "id": 9203802330,
                    "tags": {
                        "amenity": "bicycle_parking"
                    },
                    "distance": 30273.30533106,
                    "sims": 0.9278227348961849
                },
                {
                    "id": 10836221699,
                    "tags": {
                        "amenity": "bicycle_parking"
                    },
                    "distance": 46231.07963762,
                    "sims": 0.9185720328772378
                },
                {
                    "id": 3494855069,
                    "tags": {
                        "amenity": "bicycle_parking"
                    },
                    "distance": 49047.17240817,
                    "sims": 0.9154093790446889
                },
                {
                    "id": 940960187,
                    "tags": {
                        "amenity": "bicycle_parking"
                    },
                    "distance": 50747.83966209,
                    "sims": 0.9119596200133988
                },
                {
                    "id": 11206955084,
                    "tags": {
                        "amenity": "bicycle_parking"
                    },
                    "distance": 49037.28597471,
                    "sims": 0.9068081060624209
                },
                {
                    "id": 600674103,
                    "tags": {
                        "amenity": "bicycle_parking"
                    },
                    "distance": 54651.0280076,
                    "sims": 0.8973493881972866
                },
                {
                    "id": 6017200213,
                    "tags": {
                        "amenity": "bicycle_parking"
                    },
                    "distance": 59135.23587542,
                    "sims": 0.8928773722418429
                },
                {
                    "id": 11345589322,
                    "tags": {
                        "amenity": "bicycle_parking"
                    },
                    "distance": 55384.65249937,
                    "sims": 0.8903057902140445
                },
                {
                    "id": 12611717733,
                    "tags": {
                        "amenity": "bicycle_parking",
                        "capacity": "3"
                    },
                    "distance": 25055.42695361,
                    "sims": 0.8846264298106339
                }
            ]
        }
    }
}