{
    "insertion_time": 121.04043817520142,
    "index_creation": {
        "func": [
            "CREATE INDEX IF NOT EXISTS idx_pois_embedding ON PoIs USING hnsw (embedding vector_cosine_ops) WITH (m = 16, ef_construction = 64);"
        ],
        "time": 43.9570837020874
    },
    "query_results": {
        "0": {
            "execution_time": 0.2553722858428955,
            "results": [
                {
                    "id": 12411515978,
                    "distance": 4624.44937798,
                    "tags": {
                        "addr:street": "Ashted Road",
                        "addr:housenumber": "30"
                    },
                    "sims": 0.5429384708404541
                },
                {
                    "id": 12411515924,
                    "distance": 4705.11531846,
                    "tags": {
                        "addr:flats": "1-14",
                        "addr:street": "Ashted Road",
                        "addr:housenumber": "18"
                    },
                    "sims": 0.4870949693265585
                },
                {
                    "id": 12411670972,
                    "distance": 984.49945761,
                    "tags": {
                        "addr:street": "Ashmore Road",
                        "addr:housenumber": "19"
                    },
                    "sims": 0.4398390126420275
                },
                {
                    "id": 12418966900,
                    "distance": 872.88905828,
                    "tags": {
                        "addr:street": "Ashmore Road",
                        "addr:housenumber": "6"
                    },
                    "sims": 0.42983242869377136
                },
                {
                    "id": 12418966875,
                    "distance": 965.21110275,
                    "tags": {
                        "addr:street": "Ashmore Road",
                        "addr:housenumber": "20"
                    },
                    "sims": 0.42818278074264526
                },
                {
                    "id": 12418966876,
                    "distance": 950.47033693,
                    "tags": {
                        "addr:street": "Ashmore Road",
                        "addr:housenumber": "18"
                    },
                    "sims": 0.42730438709259033
                },
                {
                    "id": 12411516146,
                    "distance": 4627.15630558,
                    "tags": {
                        "addr:unit": "6",
                        "addr:street": "Ashted Road",
                        "addr:housenumber": "30"
                    },
                    "sims": 0.42555123123832006
                },
                {
                    "id": 12411516138,
                    "distance": 4778.7207151,
                    "tags": {
                        "addr:unit": "1",
                        "addr:street": "Ashted Road",
                        "addr:housenumber": "10"
                    },
                    "sims": 0.4201849400997162
                },
                {
                    "id": 12411516182,
                    "distance": 4766.93378322,
                    "tags": {
                        "addr:unit": "9",
                        "addr:street": "Ashted Road",
                        "addr:housenumber": "12"
                    },
                    "sims": 0.4101975804685112
                },
                {
                    "id": 12418896468,
                    "distance": 3923.5065536,
                    "tags": {
                        "addr:street": "Shafer Road",
                        "addr:housenumber": "39"
                    },
                    "sims": 0.4083712100982666
                }
            ]
        },
        "1": {
            "execution_time": 0.17726683616638184,
            "results": [
                {
                    "id": 12419636351,
                    "distance": 1639.63523227,
                    "tags": {
                        "addr:street": "Narcissus Avenue",
                        "addr:housenumber": "12"
                    },
                    "sims": 0.49705800396549815
                },
                {
                    "id": 10088089312,
                    "distance": 4382.19481397,
                    "tags": {
                        "name": "Kilsyth outdoor store",
                        "shop": "outdoor",
                        "addr:street": "Canterbury Road",
                        "addr:housenumber": "121"
                    },
                    "sims": 0.47746270626338794
                },
                {
                    "id": 12419412081,
                    "distance": 2713.01113176,
                    "tags": {
                        "addr:street": "Sasses Avenue",
                        "addr:housenumber": "71"
                    },
                    "sims": 0.47630308356610707
                },
                {
                    "id": 12419652070,
                    "distance": 2524.93806409,
                    "tags": {
                        "addr:street": "Handasyde Avenue",
                        "addr:housenumber": "14"
                    },
                    "sims": 0.4676918070132625
                },
                {
                    "id": 12419626799,
                    "distance": 2940.31676396,
                    "tags": {
                        "addr:street": "Chandra Avenue",
                        "addr:housenumber": "76"
                    },
                    "sims": 0.4667247533798251
                },
                {
                    "id": 12419370184,
                    "distance": 4416.16945629,
                    "tags": {
                        "addr:street": "Hume Street",
                        "addr:housenumber": "79"
                    },
                    "sims": 0.46626323461532926
                },
                {
                    "id": 12419408147,
                    "distance": 2577.07373888,
                    "tags": {
                        "addr:street": "Sasses Avenue",
                        "addr:housenumber": "43"
                    },
                    "sims": 0.46567296777206546
                },
                {
                    "id": 12419370587,
                    "distance": 4391.37667634,
                    "tags": {
                        "addr:street": "Lester Avenue",
                        "addr:housenumber": "28"
                    },
                    "sims": 0.46543337095678217
                },
                {
                    "id": 12419370586,
                    "distance": 4379.65781661,
                    "tags": {
                        "addr:street": "Lester Avenue",
                        "addr:housenumber": "26"
                    },
                    "sims": 0.4647697764360639
                },
                {
                    "id": 12419651787,
                    "distance": 2566.61433273,
                    "tags": {
                        "addr:street": "Handasyde Avenue",
                        "addr:housenumber": "8"
                    },
                    "sims": 0.46470161851663816
                }
            ]
        },
        "2": {
            "execution_time": 0.18233227729797363,
            "results": [
                {
                    "id": 12417769725,
                    "distance": 2567.5254164,
                    "tags": {
                        "addr:street": "Monaro Street",
                        "addr:housenumber": "26"
                    },
                    "sims": 0.5402806079220496
                },
                {
                    "id": 12417716564,
                    "distance": 2738.5880343,
                    "tags": {
                        "addr:street": "Moorillah Street",
                        "addr:housenumber": "19"
                    },
                    "sims": 0.4756228611244485
                },
                {
                    "id": 12417717892,
                    "distance": 2698.97802342,
                    "tags": {
                        "addr:street": "Moorillah Street",
                        "addr:housenumber": "13"
                    },
                    "sims": 0.47430288791656827
                },
                {
                    "id": 12417784164,
                    "distance": 1896.2055205,
                    "tags": {
                        "addr:street": "Montvale Road",
                        "addr:housenumber": "14"
                    },
                    "sims": 0.47069279587502466
                },
                {
                    "id": 12417778261,
                    "distance": 2604.72751625,
                    "tags": {
                        "addr:street": "Alcock Road",
                        "addr:housenumber": "69"
                    },
                    "sims": 0.4687782805429872
                },
                {
                    "id": 12417718862,
                    "distance": 1941.43645303,
                    "tags": {
                        "addr:street": "McKellar Avenue",
                        "addr:housenumber": "22"
                    },
                    "sims": 0.4658770977744848
                },
                {
                    "id": 12417723090,
                    "distance": 1536.02302037,
                    "tags": {
                        "addr:street": "Hogans Road",
                        "addr:housenumber": "10"
                    },
                    "sims": 0.4631631054379415
                },
                {
                    "id": 12417744639,
                    "distance": 2908.75625212,
                    "tags": {
                        "addr:street": "Tahlee Road",
                        "addr:housenumber": "11"
                    },
                    "sims": 0.4631043374538455
                },
                {
                    "id": 12417740394,
                    "distance": 2970.68689461,
                    "tags": {
                        "addr:street": "Tahlee Road",
                        "addr:housenumber": "6"
                    },
                    "sims": 0.4630263723746768
                },
                {
                    "id": 12417742385,
                    "distance": 4877.14954725,
                    "tags": {
                        "addr:street": "Stanhope Road",
                        "addr:housenumber": "57"
                    },
                    "sims": 0.4626332156598365
                }
            ]
        },
        "3": {
            "execution_time": 0.18261456489562988,
            "results": [
                {
                    "id": 12417665523,
                    "distance": 2827.25456323,
                    "tags": {
                        "addr:street": "Birchmore Road",
                        "addr:housenumber": "26"
                    },
                    "sims": 0.5239194319296231
                },
                {
                    "id": 12417665620,
                    "distance": 3129.5656586,
                    "tags": {
                        "addr:street": "Lehmanns Road",
                        "addr:housenumber": "30"
                    },
                    "sims": 0.5033413617807241
                },
                {
                    "id": 12411646281,
                    "distance": 4276.45538241,
                    "tags": {
                        "addr:street": "McDonalds Road",
                        "addr:housenumber": "249W"
                    },
                    "sims": 0.4957231285737089
                },
                {
                    "id": 12417665528,
                    "distance": 2864.52916664,
                    "tags": {
                        "addr:street": "Birchmore Road",
                        "addr:housenumber": "16"
                    },
                    "sims": 0.49396753383069825
                },
                {
                    "id": 12417674582,
                    "distance": 3794.72032747,
                    "tags": {
                        "addr:street": "Kesenay Road",
                        "addr:housenumber": "28"
                    },
                    "sims": 0.49296644371948073
                },
                {
                    "id": 12417671607,
                    "distance": 1470.82224438,
                    "tags": {
                        "addr:street": "Edenvale Boulevard",
                        "addr:housenumber": "76"
                    },
                    "sims": 0.49179315615933294
                },
                {
                    "id": 12411645202,
                    "distance": 2663.82995116,
                    "tags": {
                        "addr:street": "McDonalds Road",
                        "addr:housenumber": "21"
                    },
                    "sims": 0.48967392773408114
                },
                {
                    "id": 12411650807,
                    "distance": 4205.17902899,
                    "tags": {
                        "addr:street": "McDonalds Road",
                        "addr:housenumber": "231W"
                    },
                    "sims": 0.4891699108728813
                },
                {
                    "id": 12411651430,
                    "distance": 2915.77210794,
                    "tags": {
                        "addr:street": "McDonalds Road",
                        "addr:housenumber": "37"
                    },
                    "sims": 0.48757371454552234
                },
                {
                    "id": 12417668434,
                    "distance": 1318.70434896,
                    "tags": {
                        "addr:street": "Edenvale Boulevard",
                        "addr:housenumber": "35"
                    },
                    "sims": 0.48662698268890725
                }
            ]
        },
        "4": {
            "execution_time": 0.18006634712219238,
            "results": [
                {
                    "id": 12411964557,
                    "distance": 4693.26823106,
                    "tags": {
                        "addr:street": "Morton Street",
                        "addr:housenumber": "5A"
                    },
                    "sims": 0.6222644262831108
                },
                {
                    "id": 12411949020,
                    "distance": 4740.67684057,
                    "tags": {
                        "addr:unit": "1",
                        "addr:street": "Morton Street",
                        "addr:housenumber": "15"
                    },
                    "sims": 0.558841347694401
                },
                {
                    "id": 12412232816,
                    "distance": 679.57787769,
                    "tags": {
                        "addr:street": "Groves Street",
                        "addr:housenumber": "15"
                    },
                    "sims": 0.5344931760732436
                },
                {
                    "id": 12412230574,
                    "distance": 663.6333147,
                    "tags": {
                        "addr:street": "Groves Street",
                        "addr:housenumber": "18"
                    },
                    "sims": 0.532754747107343
                },
                {
                    "id": 12412233361,
                    "distance": 4294.54556895,
                    "tags": {
                        "addr:street": "Hopkins Avenue",
                        "addr:housenumber": "14"
                    },
                    "sims": 0.5299597662711292
                },
                {
                    "id": 12412233370,
                    "distance": 4363.21785134,
                    "tags": {
                        "addr:street": "Hopkins Avenue",
                        "addr:housenumber": "32"
                    },
                    "sims": 0.5259827375412025
                },
                {
                    "id": 12419085272,
                    "distance": 2928.28252796,
                    "tags": {
                        "addr:street": "Roberts Street",
                        "addr:housenumber": "67"
                    },
                    "sims": 0.52571272850037
                },
                {
                    "id": 12412231389,
                    "distance": 655.40617922,
                    "tags": {
                        "addr:street": "Groves Street",
                        "addr:housenumber": "16"
                    },
                    "sims": 0.524538545338003
                },
                {
                    "id": 12419424165,
                    "distance": 1287.15226762,
                    "tags": {
                        "addr:street": "Roberts Street",
                        "addr:housenumber": "13"
                    },
                    "sims": 0.5241769396013954
                },
                {
                    "id": 12411962920,
                    "distance": 3082.98833454,
                    "tags": {
                        "addr:street": "Roberts Street",
                        "addr:housenumber": "13"
                    },
                    "sims": 0.5241769396013954
                }
            ]
        },
        "5": {
            "execution_time": 0.19402122497558594,
            "results": [
                {
                    "id": 620493458,
                    "distance": 4480.26913413,
                    "tags": {
                        "building": "retail",
                        "addr:state": "VIC",
                        "addr:street": "Coleman Parade",
                        "addr:suburb": "Glen Waverley",
                        "addr:country": "AU",
                        "addr:postcode": "3150",
                        "addr:housenumber": "177"
                    },
                    "sims": 0.4986546039581299
                },
                {
                    "id": 620493457,
                    "distance": 4484.55485596,
                    "tags": {
                        "building": "retail",
                        "addr:state": "VIC",
                        "addr:street": "Coleman Parade",
                        "addr:suburb": "Glen Waverley",
                        "addr:country": "AU",
                        "addr:postcode": "3150",
                        "addr:housenumber": "175"
                    },
                    "sims": 0.49342891573905945
                },
                {
                    "id": 12419752151,
                    "distance": 3732.87250544,
                    "tags": {
                        "addr:street": "Fillmore Road",
                        "addr:housenumber": "14"
                    },
                    "sims": 0.4769411412547693
                },
                {
                    "id": 12412373158,
                    "distance": 4994.71296606,
                    "tags": {
                        "addr:street": "Lightwood Road",
                        "addr:housenumber": "141"
                    },
                    "sims": 0.4735008493959405
                },
                {
                    "id": 12414146265,
                    "distance": 3805.55700247,
                    "tags": {
                        "addr:street": "Lewis Street",
                        "addr:housenumber": "35"
                    },
                    "sims": 0.4725795702588822
                },
                {
                    "id": 620486604,
                    "distance": 4750.10896212,
                    "tags": {
                        "addr:unit": "12",
                        "addr:state": "VIC",
                        "addr:street": "Coleman Parade",
                        "addr:suburb": "Glen Waverley",
                        "addr:country": "AU",
                        "addr:postcode": "3150",
                        "addr:housenumber": "143-149"
                    },
                    "sims": 0.46873459219932556
                },
                {
                    "id": 10052773673,
                    "distance": 4671.82976233,
                    "tags": {
                        "name": "Tyre Smart",
                        "shop": "tyres",
                        "addr:street": "Gilby Road",
                        "addr:housenumber": "26"
                    },
                    "sims": 0.46535368160467416
                },
                {
                    "id": 12419577188,
                    "distance": 4526.59098764,
                    "tags": {
                        "addr:street": "Lightwood Road",
                        "addr:housenumber": "39"
                    },
                    "sims": 0.46500229835510254
                },
                {
                    "id": 630504357,
                    "distance": 3447.27474095,
                    "tags": {
                        "addr:street": "Ferntree Gully Road",
                        "addr:suburb": "Glen Waverley",
                        "addr:postcode": "3150",
                        "addr:housenumber": "507"
                    },
                    "sims": 0.4644792079925537
                },
                {
                    "id": 12419328316,
                    "distance": 3679.18043781,
                    "tags": {
                        "addr:street": "Murdo Road",
                        "addr:housenumber": "26"
                    },
                    "sims": 0.46321651558777677
                }
            ]
        },
        "6": {
            "execution_time": 0.18066120147705078,
            "results": [
                {
                    "id": 12419821246,
                    "distance": 1240.65956147,
                    "tags": {
                        "addr:street": "Bruce Street",
                        "addr:housenumber": "26"
                    },
                    "sims": 0.5471075177192688
                },
                {
                    "id": 12412476994,
                    "distance": 1726.43303802,
                    "tags": {
                        "addr:street": "Rodwell Street",
                        "addr:housenumber": "19"
                    },
                    "sims": 0.5428978477181297
                },
                {
                    "id": 12419818759,
                    "distance": 1393.89595026,
                    "tags": {
                        "addr:street": "Bruce Street",
                        "addr:housenumber": "42"
                    },
                    "sims": 0.5378317993233146
                },
                {
                    "id": 12412476785,
                    "distance": 2706.34263037,
                    "tags": {
                        "addr:street": "Frederick Street",
                        "addr:housenumber": "27"
                    },
                    "sims": 0.5367976907012804
                },
                {
                    "id": 12419623162,
                    "distance": 3267.76681745,
                    "tags": {
                        "addr:street": "Henry Street",
                        "addr:housenumber": "27"
                    },
                    "sims": 0.5360842304129364
                },
                {
                    "id": 12412469955,
                    "distance": 1896.73754431,
                    "tags": {
                        "addr:street": "Darwin Street",
                        "addr:housenumber": "17"
                    },
                    "sims": 0.529175965239051
                },
                {
                    "id": 12419821205,
                    "distance": 1381.27011384,
                    "tags": {
                        "addr:street": "Bruce Street",
                        "addr:housenumber": "40"
                    },
                    "sims": 0.5270381130885518
                },
                {
                    "id": 12412468541,
                    "distance": 1803.07526158,
                    "tags": {
                        "addr:street": "Fraser Street",
                        "addr:housenumber": "8"
                    },
                    "sims": 0.5239711716157905
                },
                {
                    "id": 12412473121,
                    "distance": 969.68193933,
                    "tags": {
                        "addr:street": "Stanley Street",
                        "addr:housenumber": "7"
                    },
                    "sims": 0.5223410129547119
                },
                {
                    "id": 12419818811,
                    "distance": 1864.26127905,
                    "tags": {
                        "addr:street": "Cornelius Street",
                        "addr:housenumber": "13"
                    },
                    "sims": 0.5216559171676636
                }
            ]
        },
        "7": {
            "execution_time": 0.1870872974395752,
            "results": [
                {
                    "id": 3093453132,
                    "distance": 2966.93743373,
                    "tags": {
                        "name": "Burma Lane",
                        "amenity": "restaurant"
                    },
                    "sims": 0.45300081652398094
                },
                {
                    "id": 11607743505,
                    "distance": 3909.35766942,
                    "tags": {
                        "name": "18 Pence Lane",
                        "amenity": "cafe"
                    },
                    "sims": 0.44389018750845355
                },
                {
                    "id": 12418300924,
                    "distance": 4706.36589244,
                    "tags": {
                        "addr:street": "Studley Park Road",
                        "addr:housenumber": "19"
                    },
                    "sims": 0.4353735148906708
                },
                {
                    "id": 12418143718,
                    "distance": 3295.1913362,
                    "tags": {
                        "addr:street": "Langridge Street",
                        "addr:housenumber": "114-118"
                    },
                    "sims": 0.432442843914032
                },
                {
                    "id": 12419106819,
                    "distance": 4757.22076077,
                    "tags": {
                        "addr:street": "Caravel Lane",
                        "addr:housenumber": "18-26"
                    },
                    "sims": 0.4306216239929199
                },
                {
                    "id": 12411499262,
                    "distance": 4417.87540469,
                    "tags": {
                        "addr:street": "Studley Park Road",
                        "addr:housenumber": "61-61A"
                    },
                    "sims": 0.4299972653388977
                },
                {
                    "id": 12418154337,
                    "distance": 3263.15872995,
                    "tags": {
                        "addr:street": "Corrs Lane",
                        "addr:housenumber": "22-26"
                    },
                    "sims": 0.42994782746149207
                },
                {
                    "id": 12418154884,
                    "distance": 3466.50970105,
                    "tags": {
                        "addr:street": "Bennetts Lane",
                        "addr:housenumber": "11-21"
                    },
                    "sims": 0.429470956325531
                },
                {
                    "id": 12418144555,
                    "distance": 3302.64364797,
                    "tags": {
                        "addr:street": "Langridge Street",
                        "addr:housenumber": "15"
                    },
                    "sims": 0.4275901360756085
                },
                {
                    "id": 12418154739,
                    "distance": 3399.81839265,
                    "tags": {
                        "addr:street": "Hardware Lane",
                        "addr:housenumber": "46"
                    },
                    "sims": 0.4250776171684265
                }
            ]
        },
        "8": {
            "execution_time": 0.18223047256469727,
            "results": [
                {
                    "id": 12410610698,
                    "distance": 1613.63375583,
                    "tags": {
                        "addr:street": "Coliseum Avenue",
                        "addr:housenumber": "23"
                    },
                    "sims": 0.3759614527225521
                },
                {
                    "id": 12417945341,
                    "distance": 685.31072626,
                    "tags": {
                        "addr:street": "Keppels Road",
                        "addr:housenumber": "14"
                    },
                    "sims": 0.36128155223837255
                },
                {
                    "id": 12417945342,
                    "distance": 648.53507309,
                    "tags": {
                        "addr:street": "Keppels Road",
                        "addr:housenumber": "10"
                    },
                    "sims": 0.3499135166458186
                },
                {
                    "id": 12410610357,
                    "distance": 4943.86233883,
                    "tags": {
                        "addr:street": "Awbridge Drive",
                        "addr:housenumber": "3"
                    },
                    "sims": 0.34883657998820716
                },
                {
                    "id": 12410610328,
                    "distance": 4917.9541299,
                    "tags": {
                        "addr:street": "Awbridge Drive",
                        "addr:housenumber": "7"
                    },
                    "sims": 0.3479917645454431
                },
                {
                    "id": 12417945304,
                    "distance": 660.35367901,
                    "tags": {
                        "addr:street": "Keppels Road",
                        "addr:housenumber": "9"
                    },
                    "sims": 0.34781519485621537
                },
                {
                    "id": 12417674255,
                    "distance": 4266.88946364,
                    "tags": {
                        "addr:street": "Davis Circuit",
                        "addr:housenumber": "10"
                    },
                    "sims": 0.34289177144863947
                },
                {
                    "id": 12417455702,
                    "distance": 4978.28761363,
                    "tags": {
                        "addr:street": "Kelberg Road",
                        "addr:housenumber": "71"
                    },
                    "sims": 0.3413671647687462
                },
                {
                    "id": 12417674265,
                    "distance": 4227.21410217,
                    "tags": {
                        "addr:street": "Davis Circuit",
                        "addr:housenumber": "1"
                    },
                    "sims": 0.3402772342993483
                },
                {
                    "id": 12417674243,
                    "distance": 4298.59660735,
                    "tags": {
                        "addr:street": "Davis Circuit",
                        "addr:housenumber": "32"
                    },
                    "sims": 0.33956770065023356
                }
            ]
        },
        "9": {
            "execution_time": 0.1799757480621338,
            "results": [
                {
                    "id": 12419751014,
                    "distance": 3996.26221211,
                    "tags": {
                        "addr:street": "Isobella Court",
                        "addr:housenumber": "6"
                    },
                    "sims": 0.262472003698349
                },
                {
                    "id": 301497518,
                    "distance": 3381.71106614,
                    "tags": {
                        "leisure": "slipway"
                    },
                    "sims": 0.2588835656642914
                },
                {
                    "id": 12419423195,
                    "distance": 4700.23317424,
                    "tags": {
                        "addr:street": "Nardu Court",
                        "addr:housenumber": "2"
                    },
                    "sims": 0.2551331374128547
                },
                {
                    "id": 12419750783,
                    "distance": 4014.84059631,
                    "tags": {
                        "addr:street": "Isobella Court",
                        "addr:housenumber": "9"
                    },
                    "sims": 0.25280728902730054
                },
                {
                    "id": 12412469717,
                    "distance": 4249.3972441,
                    "tags": {
                        "addr:street": "Chifley Crescent",
                        "addr:housenumber": "6"
                    },
                    "sims": 0.25090728705568877
                },
                {
                    "id": 12419750218,
                    "distance": 1945.34881275,
                    "tags": {
                        "addr:street": "Hennessy Way",
                        "addr:housenumber": "76"
                    },
                    "sims": 0.24299684208650385
                },
                {
                    "id": 12412259281,
                    "distance": 2763.29185307,
                    "tags": {
                        "addr:street": "Anora Crescent",
                        "addr:housenumber": "18"
                    },
                    "sims": 0.24001203417849792
                },
                {
                    "id": 12419750249,
                    "distance": 1927.4036957,
                    "tags": {
                        "addr:street": "Hennessy Way",
                        "addr:housenumber": "52"
                    },
                    "sims": 0.23988023400306702
                },
                {
                    "id": 12419750244,
                    "distance": 2103.6532722,
                    "tags": {
                        "addr:street": "Hennessy Way",
                        "addr:housenumber": "30"
                    },
                    "sims": 0.2375852756253054
                },
                {
                    "id": 12419601481,
                    "distance": 282.48371529,
                    "tags": {
                        "addr:street": "Cicada Court",
                        "addr:housenumber": "3"
                    },
                    "sims": 0.2364712506532669
                }
            ]
        },
        "10": {
            "execution_time": 0.18876147270202637,
            "results": [
                {
                    "id": 12417835394,
                    "distance": 3224.90352709,
                    "tags": {
                        "addr:street": "Aldridge Drive",
                        "addr:housenumber": "3-5"
                    },
                    "sims": 0.4255434274673462
                },
                {
                    "id": 12420132948,
                    "distance": 506.7630466,
                    "tags": {
                        "addr:street": "Gleneagles Drive",
                        "addr:housenumber": "46"
                    },
                    "sims": 0.42331838150730094
                },
                {
                    "id": 12417835333,
                    "distance": 3263.9185521,
                    "tags": {
                        "addr:street": "Aldridge Drive",
                        "addr:housenumber": "43"
                    },
                    "sims": 0.4219709634780884
                },
                {
                    "id": 12417839613,
                    "distance": 879.06363681,
                    "tags": {
                        "addr:street": "Muirfield Drive",
                        "addr:housenumber": "43"
                    },
                    "sims": 0.41421961784362793
                },
                {
                    "id": 12417835406,
                    "distance": 3243.22943127,
                    "tags": {
                        "addr:street": "Aldridge Drive",
                        "addr:housenumber": "1"
                    },
                    "sims": 0.41359108686447144
                },
                {
                    "id": 12417835404,
                    "distance": 3211.55200937,
                    "tags": {
                        "addr:street": "Aldridge Drive",
                        "addr:housenumber": "9"
                    },
                    "sims": 0.41297713440793027
                },
                {
                    "id": 12417834921,
                    "distance": 3416.03537429,
                    "tags": {
                        "addr:street": "Aldridge Drive",
                        "addr:housenumber": "61"
                    },
                    "sims": 0.41133355565867236
                },
                {
                    "id": 12417839574,
                    "distance": 904.67367012,
                    "tags": {
                        "addr:street": "Muirfield Drive",
                        "addr:housenumber": "79"
                    },
                    "sims": 0.4113166630268097
                },
                {
                    "id": 12417831791,
                    "distance": 686.19824422,
                    "tags": {
                        "addr:street": "Gleneagles Drive",
                        "addr:housenumber": "29A"
                    },
                    "sims": 0.41104739904403687
                },
                {
                    "id": 12417834922,
                    "distance": 3435.18049004,
                    "tags": {
                        "addr:street": "Aldridge Drive",
                        "addr:housenumber": "63"
                    },
                    "sims": 0.40852088953616905
                }
            ]
        },
        "11": {
            "execution_time": 0.1806626319885254,
            "results": [
                {
                    "id": 12420216341,
                    "distance": 2345.10576231,
                    "tags": {
                        "addr:street": "Clematis Park Road",
                        "addr:housenumber": "22"
                    },
                    "sims": 0.44883662462234497
                },
                {
                    "id": 12420216742,
                    "distance": 2335.53549306,
                    "tags": {
                        "addr:street": "Cloverleigh Avenue",
                        "addr:housenumber": "4"
                    },
                    "sims": 0.44788092374801636
                },
                {
                    "id": 12420217327,
                    "distance": 3485.28899635,
                    "tags": {
                        "addr:street": "Ozone Avenue",
                        "addr:housenumber": "9"
                    },
                    "sims": 0.4477810263633728
                },
                {
                    "id": 12420332431,
                    "distance": 4840.15832767,
                    "tags": {
                        "addr:street": "Springs Street",
                        "addr:housenumber": "40"
                    },
                    "sims": 0.44754236623897437
                },
                {
                    "id": 12414286458,
                    "distance": 2698.12613902,
                    "tags": {
                        "addr:street": "Johnson Street",
                        "addr:housenumber": "2"
                    },
                    "sims": 0.4469028476592516
                },
                {
                    "id": 12414255667,
                    "distance": 2213.09238511,
                    "tags": {
                        "addr:street": "Fairway Road",
                        "addr:housenumber": "26"
                    },
                    "sims": 0.4460267722606659
                },
                {
                    "id": 12414286460,
                    "distance": 2722.70808765,
                    "tags": {
                        "addr:street": "Johnson Street",
                        "addr:housenumber": "10"
                    },
                    "sims": 0.44527679681777954
                },
                {
                    "id": 12420217471,
                    "distance": 728.35712702,
                    "tags": {
                        "addr:street": "Sydney Avenue",
                        "addr:housenumber": "29"
                    },
                    "sims": 0.4445697069168091
                },
                {
                    "id": 12420217585,
                    "distance": 2161.72358958,
                    "tags": {
                        "addr:street": "Boundary Road East",
                        "addr:housenumber": "39"
                    },
                    "sims": 0.4436109330422251
                },
                {
                    "id": 12420216318,
                    "distance": 468.77604174,
                    "tags": {
                        "addr:street": "Sydney Avenue",
                        "addr:housenumber": "22"
                    },
                    "sims": 0.44243546977254644
                }
            ]
        },
        "12": {
            "execution_time": 0.18336009979248047,
            "results": [
                {
                    "id": 12410868307,
                    "distance": 4249.68309387,
                    "tags": {
                        "addr:street": "The Boulevard",
                        "addr:housenumber": "26"
                    },
                    "sims": 0.4856530717404528
                },
                {
                    "id": 12418155423,
                    "distance": 4185.96392838,
                    "tags": {
                        "addr:street": "The Boulevard",
                        "addr:housenumber": "37"
                    },
                    "sims": 0.4803732478729861
                },
                {
                    "id": 12411520991,
                    "distance": 850.7381918,
                    "tags": {
                        "addr:street": "The Boulevard",
                        "addr:housenumber": "65"
                    },
                    "sims": 0.4782790684187137
                },
                {
                    "id": 12410869771,
                    "distance": 4259.54700775,
                    "tags": {
                        "addr:street": "The Boulevard",
                        "addr:housenumber": "21"
                    },
                    "sims": 0.47597314345756625
                },
                {
                    "id": 12418109556,
                    "distance": 4755.20775557,
                    "tags": {
                        "addr:street": "The Boulevard",
                        "addr:housenumber": "340-680"
                    },
                    "sims": 0.47420961924281313
                },
                {
                    "id": 12410871277,
                    "distance": 4045.48584115,
                    "tags": {
                        "addr:street": "The Boulevard",
                        "addr:housenumber": "53"
                    },
                    "sims": 0.46939414557183656
                },
                {
                    "id": 12410835979,
                    "distance": 4976.74833003,
                    "tags": {
                        "addr:street": "The Boulevard",
                        "addr:housenumber": "228"
                    },
                    "sims": 0.46888735704942686
                },
                {
                    "id": 12410871289,
                    "distance": 4229.97338804,
                    "tags": {
                        "addr:street": "The Boulevard",
                        "addr:housenumber": "15"
                    },
                    "sims": 0.4673917134818948
                },
                {
                    "id": 12410869897,
                    "distance": 4198.85598967,
                    "tags": {
                        "addr:street": "The Boulevard",
                        "addr:housenumber": "12"
                    },
                    "sims": 0.4622157055799876
                },
                {
                    "id": 12418341383,
                    "distance": 1218.38689084,
                    "tags": {
                        "addr:street": "The Boulevard",
                        "addr:housenumber": "8"
                    },
                    "sims": 0.4615044135303623
                }
            ]
        },
        "13": {
            "execution_time": 0.1801919937133789,
            "results": [
                {
                    "id": 12420373538,
                    "distance": 4082.04769484,
                    "tags": {
                        "addr:street": "Stalwart Avenue",
                        "addr:housenumber": "1"
                    },
                    "sims": 0.5107833299274301
                },
                {
                    "id": 12414952977,
                    "distance": 3567.2529485,
                    "tags": {
                        "addr:street": "New Street",
                        "addr:housenumber": "13-13A"
                    },
                    "sims": 0.5077805519104039
                },
                {
                    "id": 12414955355,
                    "distance": 199.51355474,
                    "tags": {
                        "addr:street": "Gerald Street",
                        "addr:housenumber": "1A"
                    },
                    "sims": 0.5041828005259414
                },
                {
                    "id": 12420355882,
                    "distance": 4310.51080283,
                    "tags": {
                        "addr:street": "Simcock Street",
                        "addr:housenumber": "1"
                    },
                    "sims": 0.49877315766971453
                },
                {
                    "id": 12420358409,
                    "distance": 3879.902897,
                    "tags": {
                        "addr:street": "George Street",
                        "addr:housenumber": "14"
                    },
                    "sims": 0.49768525375811823
                },
                {
                    "id": 12420355763,
                    "distance": 4690.34268263,
                    "tags": {
                        "addr:street": "Speedwell Street",
                        "addr:housenumber": "22"
                    },
                    "sims": 0.4930251840934057
                },
                {
                    "id": 12414953685,
                    "distance": 3064.91600315,
                    "tags": {
                        "addr:street": "Robert Street",
                        "addr:housenumber": "17"
                    },
                    "sims": 0.4927505855112928
                },
                {
                    "id": 12420357395,
                    "distance": 2998.51752362,
                    "tags": {
                        "addr:street": "Robert Street",
                        "addr:housenumber": "28"
                    },
                    "sims": 0.49133950523498715
                },
                {
                    "id": 12420375259,
                    "distance": 3990.90718845,
                    "tags": {
                        "addr:street": "Stalwart Avenue",
                        "addr:housenumber": "4"
                    },
                    "sims": 0.4908654397210226
                },
                {
                    "id": 12420375265,
                    "distance": 4169.30628992,
                    "tags": {
                        "addr:street": "Stalwart Avenue",
                        "addr:housenumber": "13"
                    },
                    "sims": 0.48809424113665667
                }
            ]
        },
        "14": {
            "execution_time": 0.18298125267028809,
            "results": [
                {
                    "id": 12412070590,
                    "distance": 1163.15388221,
                    "tags": {
                        "addr:street": "Koonalda Road",
                        "addr:housenumber": "17"
                    },
                    "sims": 0.4871014952659607
                },
                {
                    "id": 12412070591,
                    "distance": 1178.14355497,
                    "tags": {
                        "addr:street": "Koonalda Road",
                        "addr:housenumber": "19"
                    },
                    "sims": 0.485026091337204
                },
                {
                    "id": 12412071609,
                    "distance": 1076.61753443,
                    "tags": {
                        "addr:street": "Koonalda Road",
                        "addr:housenumber": "14"
                    },
                    "sims": 0.47550180554389954
                },
                {
                    "id": 12411982154,
                    "distance": 1400.19085381,
                    "tags": {
                        "addr:street": "Kadana Street",
                        "addr:housenumber": "6"
                    },
                    "sims": 0.4679446816444397
                },
                {
                    "id": 12419027956,
                    "distance": 4300.47516019,
                    "tags": {
                        "addr:street": "Kent Road",
                        "addr:housenumber": "66"
                    },
                    "sims": 0.46674376329705614
                },
                {
                    "id": 12412053184,
                    "distance": 4592.36365375,
                    "tags": {
                        "addr:street": "Parwan Court",
                        "addr:housenumber": "13"
                    },
                    "sims": 0.4659607986188419
                },
                {
                    "id": 12411992115,
                    "distance": 4066.8242405,
                    "tags": {
                        "addr:street": "Tawonga Street",
                        "addr:housenumber": "26"
                    },
                    "sims": 0.454095485562356
                },
                {
                    "id": 12411981096,
                    "distance": 2067.65313737,
                    "tags": {
                        "addr:street": "Kalang Road",
                        "addr:housenumber": "6"
                    },
                    "sims": 0.44878866963319086
                },
                {
                    "id": 12411983314,
                    "distance": 1321.8807709,
                    "tags": {
                        "addr:street": "Kadana Street",
                        "addr:housenumber": "8B"
                    },
                    "sims": 0.4485947921453357
                },
                {
                    "id": 12419361301,
                    "distance": 4163.77806627,
                    "tags": {
                        "addr:street": "Haldane Road",
                        "addr:housenumber": "76"
                    },
                    "sims": 0.4466619922716022
                }
            ]
        },
        "15": {
            "execution_time": 0.18709182739257812,
            "results": [
                {
                    "id": 12418149949,
                    "distance": 3198.89109392,
                    "tags": {
                        "addr:street": "Henkel Street",
                        "addr:housenumber": "78"
                    },
                    "sims": 0.6793934893969614
                },
                {
                    "id": 12418149766,
                    "distance": 3280.72268762,
                    "tags": {
                        "addr:street": "Henkel Street",
                        "addr:housenumber": "54"
                    },
                    "sims": 0.6710548600868842
                },
                {
                    "id": 12418148827,
                    "distance": 3164.81181955,
                    "tags": {
                        "addr:street": "Henkel Street",
                        "addr:housenumber": "86"
                    },
                    "sims": 0.6443424608911562
                },
                {
                    "id": 12419117280,
                    "distance": 4175.03371514,
                    "tags": {
                        "addr:street": "Henshall Road",
                        "addr:housenumber": "19"
                    },
                    "sims": 0.5654391309357217
                },
                {
                    "id": 12412209500,
                    "distance": 3784.48216809,
                    "tags": {
                        "addr:street": "Inkerman Street",
                        "addr:housenumber": "19"
                    },
                    "sims": 0.5426545688325719
                },
                {
                    "id": 12412211296,
                    "distance": 3836.69399358,
                    "tags": {
                        "addr:street": "Inkerman Street",
                        "addr:housenumber": "28"
                    },
                    "sims": 0.5405787825584412
                },
                {
                    "id": 12411960727,
                    "distance": 2504.04734621,
                    "tags": {
                        "addr:street": "Shaftesbury Street",
                        "addr:housenumber": "10"
                    },
                    "sims": 0.5356578709773328
                },
                {
                    "id": 12412211299,
                    "distance": 3869.22616253,
                    "tags": {
                        "addr:street": "Inkerman Street",
                        "addr:housenumber": "34"
                    },
                    "sims": 0.5346832275390625
                },
                {
                    "id": 12411960729,
                    "distance": 2603.69367119,
                    "tags": {
                        "addr:street": "Shaftesbury Street",
                        "addr:housenumber": "22"
                    },
                    "sims": 0.5333554426815852
                },
                {
                    "id": 12412210021,
                    "distance": 3872.61826113,
                    "tags": {
                        "addr:street": "Inkerman Street",
                        "addr:housenumber": "33"
                    },
                    "sims": 0.5318382978439331
                }
            ]
        },
        "16": {
            "execution_time": 0.18326449394226074,
            "results": [
                {
                    "id": 12412083321,
                    "distance": 4400.2194496,
                    "tags": {
                        "addr:street": "Avonbury Court",
                        "addr:housenumber": "1"
                    },
                    "sims": 0.37124032888532676
                },
                {
                    "id": 12419367753,
                    "distance": 4225.45397998,
                    "tags": {
                        "addr:street": "Edgecombe Court",
                        "addr:housenumber": "10-12"
                    },
                    "sims": 0.3710858225822449
                },
                {
                    "id": 12419354406,
                    "distance": 4663.98178566,
                    "tags": {
                        "addr:street": "Tynefield Court",
                        "addr:housenumber": "1"
                    },
                    "sims": 0.37091708952682745
                },
                {
                    "id": 12412063677,
                    "distance": 1462.08095077,
                    "tags": {
                        "addr:street": "Roberts Court",
                        "addr:housenumber": "13"
                    },
                    "sims": 0.3658975471823678
                },
                {
                    "id": 12412063942,
                    "distance": 2314.26817667,
                    "tags": {
                        "addr:street": "Holmhurst Court",
                        "addr:housenumber": "13"
                    },
                    "sims": 0.3636559031214779
                },
                {
                    "id": 12412002926,
                    "distance": 2746.2090126,
                    "tags": {
                        "addr:street": "Latrobe Court",
                        "addr:housenumber": "43"
                    },
                    "sims": 0.35417333245277405
                },
                {
                    "id": 12419346413,
                    "distance": 3411.13313747,
                    "tags": {
                        "addr:street": "Sherlowe Court",
                        "addr:housenumber": "16"
                    },
                    "sims": 0.35377057515207444
                },
                {
                    "id": 12419101635,
                    "distance": 4379.43970867,
                    "tags": {
                        "addr:street": "Montrose Court",
                        "addr:housenumber": "1"
                    },
                    "sims": 0.35366199292767153
                },
                {
                    "id": 12412059343,
                    "distance": 1942.76145591,
                    "tags": {
                        "addr:street": "Dunloe Court",
                        "addr:housenumber": "1"
                    },
                    "sims": 0.35302988570750504
                },
                {
                    "id": 12419588792,
                    "distance": 4872.69146176,
                    "tags": {
                        "addr:street": "Lauriston Court",
                        "addr:housenumber": "11"
                    },
                    "sims": 0.34971516135750524
                }
            ]
        },
        "17": {
            "execution_time": 0.18373823165893555,
            "results": [
                {
                    "id": 12419599934,
                    "distance": 4212.15678852,
                    "tags": {
                        "addr:street": "Waverley Park Drive",
                        "addr:housenumber": "34"
                    },
                    "sims": 0.39708115423693113
                },
                {
                    "id": 12419600579,
                    "distance": 3870.53054206,
                    "tags": {
                        "addr:street": "Grovelands Drive",
                        "addr:housenumber": "27"
                    },
                    "sims": 0.3892448776510291
                },
                {
                    "id": 2567269482,
                    "distance": 2490.79171074,
                    "tags": {
                        "bus": "yes",
                        "name": "Reilly St/Princes Hwy",
                        "source": "Bing",
                        "highway": "bus_stop",
                        "network": "800 - Dandenong Station",
                        "operator": "Ventura Bus Lines",
                        "public_transport": "platform"
                    },
                    "sims": 0.3775747755981782
                },
                {
                    "id": 612700175,
                    "distance": 3584.19908259,
                    "tags": {
                        "addr:state": "VIC",
                        "addr:street": "Pinewood Drive",
                        "addr:suburb": "Mount Waverley",
                        "addr:country": "AU",
                        "addr:postcode": "3149",
                        "addr:housenumber": "3"
                    },
                    "sims": 0.365061424080219
                },
                {
                    "id": 850509942,
                    "distance": 3513.32712473,
                    "tags": {
                        "addr:unit": "2",
                        "addr:state": "VIC",
                        "addr:street": "Pinewood Drive",
                        "addr:suburb": "Mount Waverley",
                        "addr:country": "AU",
                        "addr:postcode": "3149",
                        "addr:housenumber": "12"
                    },
                    "sims": 0.35608103013521675
                },
                {
                    "id": 12412245404,
                    "distance": 4773.53655851,
                    "tags": {
                        "addr:street": "Goodwood Drive",
                        "addr:housenumber": "19"
                    },
                    "sims": 0.35593446230497794
                },
                {
                    "id": 612700140,
                    "distance": 3558.14823911,
                    "tags": {
                        "addr:unit": "2",
                        "addr:state": "VIC",
                        "addr:street": "Pinewood Drive",
                        "addr:suburb": "Mount Waverley",
                        "addr:country": "AU",
                        "addr:postcode": "3149",
                        "addr:housenumber": "4"
                    },
                    "sims": 0.3524482477379216
                },
                {
                    "id": 12419339673,
                    "distance": 4831.38324196,
                    "tags": {
                        "addr:street": "Sandalwood Drive",
                        "addr:housenumber": "7"
                    },
                    "sims": 0.35225544598763536
                },
                {
                    "id": 12419398743,
                    "distance": 4992.38379045,
                    "tags": {
                        "addr:street": "Craig Hill Drive",
                        "addr:housenumber": "60A"
                    },
                    "sims": 0.35124752812102833
                },
                {
                    "id": 12419624087,
                    "distance": 4860.81583143,
                    "tags": {
                        "addr:street": "Princes Highway",
                        "addr:housenumber": "517A"
                    },
                    "sims": 0.3507683784227603
                }
            ]
        },
        "18": {
            "execution_time": 0.18528246879577637,
            "results": [
                {
                    "id": 12419882330,
                    "distance": 4439.17242645,
                    "tags": {
                        "addr:street": "Blackberry Street",
                        "addr:housenumber": "21"
                    },
                    "sims": 0.5361104288035385
                },
                {
                    "id": 12417681563,
                    "distance": 1927.30589137,
                    "tags": {
                        "addr:street": "Ballybunion Avenue",
                        "addr:housenumber": "28"
                    },
                    "sims": 0.5295698327082504
                },
                {
                    "id": 12419881028,
                    "distance": 4906.48263489,
                    "tags": {
                        "addr:street": "Brabourne Street",
                        "addr:housenumber": "26"
                    },
                    "sims": 0.5275582356716263
                },
                {
                    "id": 10967619740,
                    "distance": 4870.69243235,
                    "tags": {
                        "addr:street": "Charnwood Street",
                        "addr:housenumber": "19"
                    },
                    "sims": 0.5244877025790401
                },
                {
                    "id": 12419881458,
                    "distance": 4519.64776103,
                    "tags": {
                        "addr:street": "Blackberry Street",
                        "addr:housenumber": "12"
                    },
                    "sims": 0.5193293977183472
                },
                {
                    "id": 12419881029,
                    "distance": 4878.19546578,
                    "tags": {
                        "addr:street": "Brabourne Street",
                        "addr:housenumber": "22"
                    },
                    "sims": 0.5166436721894946
                },
                {
                    "id": 12417680319,
                    "distance": 419.95189725,
                    "tags": {
                        "addr:street": "Grevillea Street",
                        "addr:housenumber": "42"
                    },
                    "sims": 0.5139056137856485
                },
                {
                    "id": 12412087020,
                    "distance": 4939.64456244,
                    "tags": {
                        "addr:street": "McIntyre Avenue",
                        "addr:housenumber": "26"
                    },
                    "sims": 0.5138291426795292
                },
                {
                    "id": 12419882328,
                    "distance": 4491.6301681,
                    "tags": {
                        "addr:street": "Blackberry Street",
                        "addr:housenumber": "16"
                    },
                    "sims": 0.5121242389530851
                },
                {
                    "id": 12417682599,
                    "distance": 385.62124915,
                    "tags": {
                        "addr:street": "Grevillea Street",
                        "addr:housenumber": "29"
                    },
                    "sims": 0.5116735086830247
                }
            ]
        },
        "19": {
            "execution_time": 0.1834719181060791,
            "results": [
                {
                    "id": 12418921896,
                    "distance": 1893.56435524,
                    "tags": {
                        "addr:street": "Cawkwell Street",
                        "addr:housenumber": "29"
                    },
                    "sims": 0.4900059857959218
                },
                {
                    "id": 368949159,
                    "distance": 4325.96374104,
                    "tags": {
                        "name": "McKinnon",
                        "place": "suburb"
                    },
                    "sims": 0.48621058628433267
                },
                {
                    "id": 12412050376,
                    "distance": 4327.70921182,
                    "tags": {
                        "addr:street": "McKinnon Road",
                        "addr:housenumber": "141"
                    },
                    "sims": 0.4773103635352208
                },
                {
                    "id": 12412051280,
                    "distance": 4258.80515869,
                    "tags": {
                        "addr:street": "McKinnon Road",
                        "addr:housenumber": "57"
                    },
                    "sims": 0.4762561789522064
                },
                {
                    "id": 12412050796,
                    "distance": 4253.76483617,
                    "tags": {
                        "addr:street": "McKinnon Road",
                        "addr:housenumber": "49"
                    },
                    "sims": 0.4685047883686624
                },
                {
                    "id": 12418361895,
                    "distance": 4554.03700171,
                    "tags": {
                        "addr:street": "Straughan Street",
                        "addr:housenumber": "7"
                    },
                    "sims": 0.4671186863567802
                },
                {
                    "id": 12412050621,
                    "distance": 4254.57029996,
                    "tags": {
                        "addr:street": "McKinnon Road",
                        "addr:housenumber": "51"
                    },
                    "sims": 0.4666248420886844
                },
                {
                    "id": 12418953552,
                    "distance": 4735.62930334,
                    "tags": {
                        "addr:street": "Fakenham Road",
                        "addr:housenumber": "59"
                    },
                    "sims": 0.46619793974174173
                },
                {
                    "id": 12418360388,
                    "distance": 4565.49075396,
                    "tags": {
                        "addr:street": "Straughan Street",
                        "addr:housenumber": "9"
                    },
                    "sims": 0.46586716581974774
                },
                {
                    "id": 12418952750,
                    "distance": 4916.72864146,
                    "tags": {
                        "addr:street": "Fakenham Road",
                        "addr:housenumber": "79"
                    },
                    "sims": 0.4639986519815956
                }
            ]
        },
        "20": {
            "execution_time": 0.1835167407989502,
            "results": [
                {
                    "id": 12411522509,
                    "distance": 4780.78848843,
                    "tags": {
                        "addr:street": "Barkers Road",
                        "addr:housenumber": "360"
                    },
                    "sims": 0.487144412142708
                },
                {
                    "id": 12410838771,
                    "distance": 3987.56449485,
                    "tags": {
                        "addr:street": "Heath Street",
                        "addr:housenumber": "1"
                    },
                    "sims": 0.48501742064745523
                },
                {
                    "id": 12411616937,
                    "distance": 4809.91828875,
                    "tags": {
                        "addr:street": "Broughton Road",
                        "addr:housenumber": "52"
                    },
                    "sims": 0.4733240479239236
                },
                {
                    "id": 12411617576,
                    "distance": 4438.42741255,
                    "tags": {
                        "addr:street": "Broughton Road",
                        "addr:housenumber": "10"
                    },
                    "sims": 0.4727792615193842
                },
                {
                    "id": 12411517026,
                    "distance": 4610.01838973,
                    "tags": {
                        "addr:street": "Heathfield Rise",
                        "addr:housenumber": "19"
                    },
                    "sims": 0.4668853918450637
                },
                {
                    "id": 12418107181,
                    "distance": 2876.22895767,
                    "tags": {
                        "addr:street": "Manningham Road",
                        "addr:housenumber": "28"
                    },
                    "sims": 0.4667932569867492
                },
                {
                    "id": 12411516956,
                    "distance": 4374.57437558,
                    "tags": {
                        "addr:street": "Heathfield Rise",
                        "addr:housenumber": "55"
                    },
                    "sims": 0.4661161980351929
                },
                {
                    "id": 12418108359,
                    "distance": 2252.35912374,
                    "tags": {
                        "addr:street": "Manningham Road",
                        "addr:housenumber": "180"
                    },
                    "sims": 0.4650747221619256
                },
                {
                    "id": 12411617418,
                    "distance": 4829.18332713,
                    "tags": {
                        "addr:street": "Broughton Road",
                        "addr:housenumber": "54"
                    },
                    "sims": 0.46363309676055453
                },
                {
                    "id": 12411618072,
                    "distance": 4951.39984295,
                    "tags": {
                        "addr:street": "Broughton Road",
                        "addr:housenumber": "63"
                    },
                    "sims": 0.4636003716468401
                }
            ]
        },
        "21": {
            "execution_time": 0.18124985694885254,
            "results": [
                {
                    "id": 12419647085,
                    "distance": 931.90823641,
                    "tags": {
                        "addr:street": "Jacaranda Avenue",
                        "addr:housenumber": "26"
                    },
                    "sims": 0.4618984781564197
                },
                {
                    "id": 12419649310,
                    "distance": 862.25139118,
                    "tags": {
                        "addr:street": "Jacaranda Avenue",
                        "addr:housenumber": "29"
                    },
                    "sims": 0.45637619495391846
                },
                {
                    "id": 12419647086,
                    "distance": 914.94630544,
                    "tags": {
                        "addr:street": "Jacaranda Avenue",
                        "addr:housenumber": "24"
                    },
                    "sims": 0.4375185966491699
                },
                {
                    "id": 12419647082,
                    "distance": 987.61443486,
                    "tags": {
                        "addr:street": "Jacaranda Avenue",
                        "addr:housenumber": "32"
                    },
                    "sims": 0.42039922354226045
                },
                {
                    "id": 12412228003,
                    "distance": 4030.62031163,
                    "tags": {
                        "addr:street": "Allambanan Drive",
                        "addr:housenumber": "61"
                    },
                    "sims": 0.375240683555603
                },
                {
                    "id": 12412227977,
                    "distance": 4364.96312902,
                    "tags": {
                        "addr:street": "Allambanan Drive",
                        "addr:housenumber": "98"
                    },
                    "sims": 0.37144017219543457
                },
                {
                    "id": 12421155430,
                    "distance": 4866.43879505,
                    "tags": {
                        "addr:street": "Maroondah Highway",
                        "addr:housenumber": "170"
                    },
                    "sims": 0.369839720120414
                },
                {
                    "id": 12412228000,
                    "distance": 3941.85268148,
                    "tags": {
                        "addr:street": "Allambanan Drive",
                        "addr:housenumber": "53"
                    },
                    "sims": 0.36815873885627814
                },
                {
                    "id": 12421155989,
                    "distance": 4362.53070992,
                    "tags": {
                        "addr:street": "Maroondah Highway",
                        "addr:housenumber": "344"
                    },
                    "sims": 0.3680716533618187
                },
                {
                    "id": 12419415975,
                    "distance": 3755.74630529,
                    "tags": {
                        "addr:street": "Allambanan Drive",
                        "addr:housenumber": "16"
                    },
                    "sims": 0.3653371414341253
                }
            ]
        },
        "22": {
            "execution_time": 0.18508100509643555,
            "results": [
                {
                    "id": 12411963283,
                    "distance": 3717.60846438,
                    "tags": {
                        "addr:street": "William Street",
                        "addr:housenumber": "26"
                    },
                    "sims": 0.48788920044898987
                },
                {
                    "id": 12411961734,
                    "distance": 4109.88798613,
                    "tags": {
                        "addr:street": "William Street",
                        "addr:housenumber": "61"
                    },
                    "sims": 0.48433855082622557
                },
                {
                    "id": 12418318940,
                    "distance": 4966.19448192,
                    "tags": {
                        "addr:street": "William Street",
                        "addr:housenumber": "61"
                    },
                    "sims": 0.48433855082622557
                },
                {
                    "id": 12411661354,
                    "distance": 4986.21338181,
                    "tags": {
                        "addr:street": "William Street",
                        "addr:housenumber": "17"
                    },
                    "sims": 0.48016007185459375
                },
                {
                    "id": 12418941783,
                    "distance": 4992.98973238,
                    "tags": {
                        "addr:street": "William Street",
                        "addr:housenumber": "28"
                    },
                    "sims": 0.46958673000335693
                },
                {
                    "id": 12411961089,
                    "distance": 3766.96963577,
                    "tags": {
                        "addr:street": "William Street",
                        "addr:housenumber": "33"
                    },
                    "sims": 0.4650876660671137
                },
                {
                    "id": 12418941724,
                    "distance": 4889.32828397,
                    "tags": {
                        "addr:street": "William Street",
                        "addr:housenumber": "16"
                    },
                    "sims": 0.462587418401992
                },
                {
                    "id": 12411963858,
                    "distance": 3769.21851063,
                    "tags": {
                        "addr:street": "William Street",
                        "addr:housenumber": "32"
                    },
                    "sims": 0.45683035254478455
                },
                {
                    "id": 12418319642,
                    "distance": 4917.71473876,
                    "tags": {
                        "addr:street": "William Street",
                        "addr:housenumber": "40"
                    },
                    "sims": 0.45488473773002625
                },
                {
                    "id": 12418384312,
                    "distance": 2297.49428264,
                    "tags": {
                        "addr:street": "Williams Road",
                        "addr:housenumber": "43"
                    },
                    "sims": 0.41200172901153564
                }
            ]
        },
        "23": {
            "execution_time": 0.17749333381652832,
            "results": [
                {
                    "id": 12420437200,
                    "distance": 3645.29823483,
                    "tags": {
                        "addr:street": "Wonga Road",
                        "addr:housenumber": "26"
                    },
                    "sims": 0.4427908658981323
                },
                {
                    "id": 12420405731,
                    "distance": 271.81178913,
                    "tags": {
                        "addr:street": "Warburton Highway",
                        "addr:housenumber": "3466"
                    },
                    "sims": 0.4308778772019709
                },
                {
                    "id": 12420538283,
                    "distance": 3462.79053764,
                    "tags": {
                        "addr:street": "Big Pats Creek Road",
                        "addr:housenumber": "75"
                    },
                    "sims": 0.42851897648090054
                },
                {
                    "id": 12420437120,
                    "distance": 3705.26166196,
                    "tags": {
                        "addr:street": "Wonga Road",
                        "addr:housenumber": "58"
                    },
                    "sims": 0.42843605364668547
                },
                {
                    "id": 12420437136,
                    "distance": 3808.00350805,
                    "tags": {
                        "addr:street": "Wonga Road",
                        "addr:housenumber": "75"
                    },
                    "sims": 0.42595505714416504
                },
                {
                    "id": 12420405739,
                    "distance": 913.86721999,
                    "tags": {
                        "addr:street": "Warburton Highway",
                        "addr:housenumber": "3372"
                    },
                    "sims": 0.4242365613124712
                },
                {
                    "id": 12420440761,
                    "distance": 839.08626419,
                    "tags": {
                        "addr:street": "Warburton Highway",
                        "addr:housenumber": "3391"
                    },
                    "sims": 0.4152614277289626
                },
                {
                    "id": 12420511153,
                    "distance": 4273.88029081,
                    "tags": {
                        "addr:street": "Old Warburton Road",
                        "addr:housenumber": "650"
                    },
                    "sims": 0.4132031150581317
                },
                {
                    "id": 12420439966,
                    "distance": 755.33076775,
                    "tags": {
                        "addr:street": "Old Warburton Road",
                        "addr:housenumber": "27"
                    },
                    "sims": 0.41261839866638184
                },
                {
                    "id": 12420440835,
                    "distance": 643.29393552,
                    "tags": {
                        "addr:street": "Lithgow Avenue",
                        "addr:housenumber": "17"
                    },
                    "sims": 0.4098288416862488
                }
            ]
        },
        "24": {
            "execution_time": 0.17782163619995117,
            "results": [
                {
                    "id": 12410646117,
                    "distance": 1044.90348263,
                    "tags": {
                        "addr:street": "Amaryllis Avenue",
                        "addr:housenumber": "27"
                    },
                    "sims": 0.5754254117354516
                },
                {
                    "id": 12410646437,
                    "distance": 986.38980885,
                    "tags": {
                        "addr:street": "Amaryllis Avenue",
                        "addr:housenumber": "33"
                    },
                    "sims": 0.5655140202624814
                },
                {
                    "id": 12420353835,
                    "distance": 4648.33493275,
                    "tags": {
                        "addr:street": "Hume Avenue",
                        "addr:housenumber": "71"
                    },
                    "sims": 0.5478209420389221
                },
                {
                    "id": 12414949509,
                    "distance": 4738.10266184,
                    "tags": {
                        "addr:street": "Sutherland Avenue",
                        "addr:housenumber": "2"
                    },
                    "sims": 0.5463135568090423
                },
                {
                    "id": 12414949389,
                    "distance": 4715.09753129,
                    "tags": {
                        "addr:street": "Sutherland Avenue",
                        "addr:housenumber": "8"
                    },
                    "sims": 0.5427068471908569
                },
                {
                    "id": 12410649548,
                    "distance": 4332.58850522,
                    "tags": {
                        "addr:street": "Shaw Street",
                        "addr:housenumber": "17"
                    },
                    "sims": 0.5403860807418823
                },
                {
                    "id": 12410660669,
                    "distance": 2112.27732071,
                    "tags": {
                        "addr:street": "Grappenhall Avenue",
                        "addr:housenumber": "69"
                    },
                    "sims": 0.535098926278917
                },
                {
                    "id": 12417900794,
                    "distance": 1150.33806009,
                    "tags": {
                        "addr:street": "Kingia Street",
                        "addr:housenumber": "62"
                    },
                    "sims": 0.5340430736541748
                },
                {
                    "id": 12410649545,
                    "distance": 4302.09512823,
                    "tags": {
                        "addr:street": "Shaw Street",
                        "addr:housenumber": "14"
                    },
                    "sims": 0.5333139578512942
                },
                {
                    "id": 12410634739,
                    "distance": 1143.11258392,
                    "tags": {
                        "addr:street": "Kingia Street",
                        "addr:housenumber": "23"
                    },
                    "sims": 0.532972844420246
                }
            ]
        },
        "25": {
            "execution_time": 0.1825270652770996,
            "results": [
                {
                    "id": 12420121717,
                    "distance": 1368.71549933,
                    "tags": {
                        "addr:street": "Sheoak Road",
                        "addr:housenumber": "7"
                    },
                    "sims": 0.5147708654403687
                },
                {
                    "id": 12420121636,
                    "distance": 1473.54984813,
                    "tags": {
                        "addr:street": "Sheoak Road",
                        "addr:housenumber": "2"
                    },
                    "sims": 0.5088298320770264
                },
                {
                    "id": 12420121633,
                    "distance": 1313.8975126,
                    "tags": {
                        "addr:street": "Sheoak Road",
                        "addr:housenumber": "10"
                    },
                    "sims": 0.5070177316665649
                },
                {
                    "id": 12414306403,
                    "distance": 2459.12093337,
                    "tags": {
                        "addr:street": "Baxter Tooradin Road",
                        "addr:housenumber": "71"
                    },
                    "sims": 0.46027177572250366
                },
                {
                    "id": 12420289368,
                    "distance": 2550.88106007,
                    "tags": {
                        "addr:street": "Black Sheoak Place",
                        "addr:housenumber": "17"
                    },
                    "sims": 0.45810033256114546
                },
                {
                    "id": 12413728739,
                    "distance": 1410.61106512,
                    "tags": {
                        "addr:street": "Stotts Lane",
                        "addr:housenumber": "55"
                    },
                    "sims": 0.45423873986236774
                },
                {
                    "id": 12420116986,
                    "distance": 2338.52205071,
                    "tags": {
                        "addr:street": "Lardner Road",
                        "addr:housenumber": "7"
                    },
                    "sims": 0.4526102812653956
                },
                {
                    "id": 12420110809,
                    "distance": 3089.01720453,
                    "tags": {
                        "addr:street": "Netherbrae Road",
                        "addr:housenumber": "2"
                    },
                    "sims": 0.4519661097546759
                },
                {
                    "id": 12413728620,
                    "distance": 2517.68393722,
                    "tags": {
                        "addr:street": "Moorooduc Highway",
                        "addr:housenumber": "72"
                    },
                    "sims": 0.4517037868499756
                },
                {
                    "id": 12420321251,
                    "distance": 2567.22377981,
                    "tags": {
                        "addr:street": "Cerberus Road",
                        "addr:housenumber": "27"
                    },
                    "sims": 0.450929993501904
                }
            ]
        },
        "26": {
            "execution_time": 0.17730951309204102,
            "results": [
                {
                    "id": 12410646370,
                    "distance": 4730.16158296,
                    "tags": {
                        "addr:street": "Baxterpark Drive",
                        "addr:housenumber": "28"
                    },
                    "sims": 0.5117179155349731
                },
                {
                    "id": 12414320218,
                    "distance": 4627.44693742,
                    "tags": {
                        "addr:street": "Killarney Drive",
                        "addr:housenumber": "4"
                    },
                    "sims": 0.4848628333129197
                },
                {
                    "id": 12414320444,
                    "distance": 4703.19621248,
                    "tags": {
                        "addr:street": "Killarney Drive",
                        "addr:housenumber": "5"
                    },
                    "sims": 0.48208388579391837
                },
                {
                    "id": 12410669606,
                    "distance": 2667.0652493,
                    "tags": {
                        "addr:street": "Saltaire Drive",
                        "addr:housenumber": "29"
                    },
                    "sims": 0.4818374812602997
                },
                {
                    "id": 12417961165,
                    "distance": 2650.51284381,
                    "tags": {
                        "addr:street": "Saltaire Drive",
                        "addr:housenumber": "30"
                    },
                    "sims": 0.4769984199405667
                },
                {
                    "id": 12417961157,
                    "distance": 2605.74240992,
                    "tags": {
                        "addr:street": "Saltaire Drive",
                        "addr:housenumber": "16"
                    },
                    "sims": 0.47636541724205017
                },
                {
                    "id": 12410666406,
                    "distance": 1547.37577074,
                    "tags": {
                        "addr:street": "Tourmaline Drive",
                        "addr:housenumber": "21"
                    },
                    "sims": 0.47611021995544434
                },
                {
                    "id": 12410668839,
                    "distance": 3002.97656471,
                    "tags": {
                        "addr:street": "Coledale Drive",
                        "addr:housenumber": "27"
                    },
                    "sims": 0.4738497875288068
                },
                {
                    "id": 12414959442,
                    "distance": 2056.30746301,
                    "tags": {
                        "addr:street": "Rupertswood Drive",
                        "addr:housenumber": "26"
                    },
                    "sims": 0.47288227242933156
                },
                {
                    "id": 12414951630,
                    "distance": 2242.55393665,
                    "tags": {
                        "addr:street": "Blackwood Drive",
                        "addr:housenumber": "17A"
                    },
                    "sims": 0.4726707935333252
                }
            ]
        },
        "27": {
            "execution_time": 0.19158482551574707,
            "results": [
                {
                    "id": 12412504466,
                    "distance": 1388.32839231,
                    "tags": {
                        "addr:street": "Monteith Crescent",
                        "addr:housenumber": "19"
                    },
                    "sims": 0.5062415456391764
                },
                {
                    "id": 12412503123,
                    "distance": 1411.73796851,
                    "tags": {
                        "addr:street": "Monteith Crescent",
                        "addr:housenumber": "15"
                    },
                    "sims": 0.5045098807355924
                },
                {
                    "id": 12419856481,
                    "distance": 1376.92388232,
                    "tags": {
                        "addr:street": "Monteith Crescent",
                        "addr:housenumber": "20"
                    },
                    "sims": 0.499768376336597
                },
                {
                    "id": 12419818364,
                    "distance": 4089.29227485,
                    "tags": {
                        "addr:street": "Macpherson Street",
                        "addr:housenumber": "20"
                    },
                    "sims": 0.497681841185148
                },
                {
                    "id": 12413541896,
                    "distance": 2055.32249646,
                    "tags": {
                        "addr:street": "Marson Crescent",
                        "addr:housenumber": "26"
                    },
                    "sims": 0.4973332434097901
                },
                {
                    "id": 12419853707,
                    "distance": 1567.94562588,
                    "tags": {
                        "addr:street": "Monteith Crescent",
                        "addr:housenumber": "60"
                    },
                    "sims": 0.49705742273248066
                },
                {
                    "id": 12419818811,
                    "distance": 4173.58400363,
                    "tags": {
                        "addr:street": "Cornelius Street",
                        "addr:housenumber": "13"
                    },
                    "sims": 0.4964618234772036
                },
                {
                    "id": 12419821246,
                    "distance": 4611.02198118,
                    "tags": {
                        "addr:street": "Bruce Street",
                        "addr:housenumber": "26"
                    },
                    "sims": 0.49462093396845286
                },
                {
                    "id": 12419818759,
                    "distance": 4457.57471058,
                    "tags": {
                        "addr:street": "Bruce Street",
                        "addr:housenumber": "42"
                    },
                    "sims": 0.49330410321379325
                },
                {
                    "id": 12413542132,
                    "distance": 2284.488575,
                    "tags": {
                        "addr:street": "Marson Crescent",
                        "addr:housenumber": "14"
                    },
                    "sims": 0.4931860117073661
                }
            ]
        },
        "28": {
            "execution_time": 0.17811870574951172,
            "results": [
                {
                    "id": 12413546150,
                    "distance": 3286.11001331,
                    "tags": {
                        "addr:street": "Wareham Court",
                        "addr:housenumber": "7"
                    },
                    "sims": 0.4749362438841157
                },
                {
                    "id": 12419846966,
                    "distance": 4286.98539947,
                    "tags": {
                        "addr:street": "Muirs Court",
                        "addr:housenumber": "13"
                    },
                    "sims": 0.4681690912347498
                },
                {
                    "id": 12419920269,
                    "distance": 3656.36087507,
                    "tags": {
                        "addr:street": "Knight Court",
                        "addr:housenumber": "12"
                    },
                    "sims": 0.46683132450767384
                },
                {
                    "id": 12419907596,
                    "distance": 2088.65593051,
                    "tags": {
                        "addr:street": "Harrison Court",
                        "addr:housenumber": "19"
                    },
                    "sims": 0.4657132307120111
                },
                {
                    "id": 12419920289,
                    "distance": 3627.9366512,
                    "tags": {
                        "addr:street": "Knight Court",
                        "addr:housenumber": "9"
                    },
                    "sims": 0.46034505726963704
                },
                {
                    "id": 12419846338,
                    "distance": 4027.06337234,
                    "tags": {
                        "addr:street": "Kinnaird Court",
                        "addr:housenumber": "16"
                    },
                    "sims": 0.4526196122169527
                },
                {
                    "id": 12413522495,
                    "distance": 2527.51540636,
                    "tags": {
                        "addr:street": "Goldsworthy Court",
                        "addr:housenumber": "16"
                    },
                    "sims": 0.45030611753464067
                },
                {
                    "id": 12413523371,
                    "distance": 3063.34983958,
                    "tags": {
                        "addr:street": "Valencia Court",
                        "addr:housenumber": "7"
                    },
                    "sims": 0.4493644639281451
                },
                {
                    "id": 12413523532,
                    "distance": 3087.68136458,
                    "tags": {
                        "addr:street": "Valencia Court",
                        "addr:housenumber": "2"
                    },
                    "sims": 0.44570825508608736
                },
                {
                    "id": 12413546224,
                    "distance": 2964.74665746,
                    "tags": {
                        "addr:street": "Halstead Court",
                        "addr:housenumber": "13"
                    },
                    "sims": 0.4451723794793232
                }
            ]
        },
        "29": {
            "execution_time": 0.17823362350463867,
            "results": [
                {
                    "id": 12419381749,
                    "distance": 3270.60704831,
                    "tags": {
                        "addr:street": "Rhyolite Drive",
                        "addr:housenumber": "16A"
                    },
                    "sims": 0.2813563002368482
                },
                {
                    "id": 12412325003,
                    "distance": 3595.47219363,
                    "tags": {
                        "addr:street": "Vermilion Drive",
                        "addr:housenumber": "64"
                    },
                    "sims": 0.2756159007549306
                },
                {
                    "id": 12417679816,
                    "distance": 2853.53791077,
                    "tags": {
                        "addr:street": "Golf View Drive",
                        "addr:housenumber": "18"
                    },
                    "sims": 0.2743505052254358
                },
                {
                    "id": 12417692626,
                    "distance": 3255.57198331,
                    "tags": {
                        "addr:street": "Golf View Drive",
                        "addr:housenumber": "55"
                    },
                    "sims": 0.2657460868358631
                },
                {
                    "id": 12417682024,
                    "distance": 3715.25476195,
                    "tags": {
                        "addr:street": "Technical Drive",
                        "addr:housenumber": "7"
                    },
                    "sims": 0.26401588487814487
                },
                {
                    "id": 12417681718,
                    "distance": 2758.44684654,
                    "tags": {
                        "addr:street": "Golf View Drive",
                        "addr:housenumber": "6"
                    },
                    "sims": 0.26299224871350857
                },
                {
                    "id": 12412326476,
                    "distance": 1975.66136618,
                    "tags": {
                        "addr:street": "Lysterfield Drive",
                        "addr:housenumber": "28"
                    },
                    "sims": 0.26023650169372736
                },
                {
                    "id": 12419382803,
                    "distance": 2816.57977991,
                    "tags": {
                        "addr:street": "Yellowbox Drive",
                        "addr:housenumber": "28A"
                    },
                    "sims": 0.25961592908095465
                },
                {
                    "id": 12419384323,
                    "distance": 3355.13894584,
                    "tags": {
                        "addr:street": "Golf View Drive",
                        "addr:housenumber": "89"
                    },
                    "sims": 0.25920446271923003
                },
                {
                    "id": 12417689377,
                    "distance": 2708.89806013,
                    "tags": {
                        "addr:street": "Golf View Drive",
                        "addr:housenumber": "2A"
                    },
                    "sims": 0.25910771001669286
                }
            ]
        },
        "30": {
            "execution_time": 0.18166542053222656,
            "results": [
                {
                    "id": 12417836905,
                    "distance": 1433.98069843,
                    "tags": {
                        "addr:street": "Learmonth Street",
                        "addr:housenumber": "38"
                    },
                    "sims": 0.500881820969691
                },
                {
                    "id": 12417836163,
                    "distance": 1424.3905258,
                    "tags": {
                        "addr:street": "Learmonth Street",
                        "addr:housenumber": "30-32"
                    },
                    "sims": 0.48553107549527985
                },
                {
                    "id": 12420132448,
                    "distance": 3318.52785551,
                    "tags": {
                        "addr:street": "Ruthven Street",
                        "addr:housenumber": "27"
                    },
                    "sims": 0.46692147456663546
                },
                {
                    "id": 12417838609,
                    "distance": 1789.87010061,
                    "tags": {
                        "addr:street": "Oxley Street",
                        "addr:housenumber": "13"
                    },
                    "sims": 0.4656376658950152
                },
                {
                    "id": 12420132447,
                    "distance": 3323.77493322,
                    "tags": {
                        "addr:street": "Ruthven Street",
                        "addr:housenumber": "29"
                    },
                    "sims": 0.4638406634330783
                },
                {
                    "id": 12417840187,
                    "distance": 3324.6720175,
                    "tags": {
                        "addr:street": "Ruthven Street",
                        "addr:housenumber": "14"
                    },
                    "sims": 0.46130886212693
                },
                {
                    "id": 12413709509,
                    "distance": 3418.65221275,
                    "tags": {
                        "addr:street": "Vignette Road",
                        "addr:housenumber": "29"
                    },
                    "sims": 0.4605163335800204
                },
                {
                    "id": 12420106643,
                    "distance": 4386.04925046,
                    "tags": {
                        "addr:street": "Tame Street",
                        "addr:housenumber": "23"
                    },
                    "sims": 0.46021398901939725
                },
                {
                    "id": 12420135638,
                    "distance": 4229.76370447,
                    "tags": {
                        "addr:street": "De Lisle Avenue",
                        "addr:housenumber": "13"
                    },
                    "sims": 0.45534473125275743
                },
                {
                    "id": 12413710018,
                    "distance": 3849.6363924,
                    "tags": {
                        "addr:street": "Ainsworth Crescent",
                        "addr:housenumber": "13"
                    },
                    "sims": 0.45425833080088074
                }
            ]
        },
        "31": {
            "execution_time": 0.17917084693908691,
            "results": [
                {
                    "id": 12414967332,
                    "distance": 1512.66307725,
                    "tags": {
                        "addr:street": "Pindari Street",
                        "addr:housenumber": "4"
                    },
                    "sims": 0.4737442135810852
                },
                {
                    "id": 12414315454,
                    "distance": 4998.9152684,
                    "tags": {
                        "addr:street": "Sunningdale Avenue",
                        "addr:housenumber": "10"
                    },
                    "sims": 0.4734661296924283
                },
                {
                    "id": 12414966378,
                    "distance": 135.49833594,
                    "tags": {
                        "addr:street": "Marguerita Avenue",
                        "addr:housenumber": "34"
                    },
                    "sims": 0.46561822295188904
                },
                {
                    "id": 12420365206,
                    "distance": 1230.37007407,
                    "tags": {
                        "addr:street": "Glenisla Drive",
                        "addr:housenumber": "66"
                    },
                    "sims": 0.4642532467842102
                },
                {
                    "id": 12414985538,
                    "distance": 3715.11492171,
                    "tags": {
                        "addr:street": "Lansell Avenue",
                        "addr:housenumber": "19"
                    },
                    "sims": 0.4605877995491028
                },
                {
                    "id": 12414965424,
                    "distance": 1818.62449385,
                    "tags": {
                        "addr:street": "Blencairn Avenue",
                        "addr:housenumber": "4"
                    },
                    "sims": 0.45775300516170314
                },
                {
                    "id": 12414964336,
                    "distance": 1754.47886211,
                    "tags": {
                        "addr:street": "Glencoe Crescent",
                        "addr:housenumber": "23"
                    },
                    "sims": 0.4538983837931869
                },
                {
                    "id": 12414967139,
                    "distance": 511.41301663,
                    "tags": {
                        "addr:street": "McGregor Avenue",
                        "addr:housenumber": "2"
                    },
                    "sims": 0.45306935626681866
                },
                {
                    "id": 12420366091,
                    "distance": 1188.21601907,
                    "tags": {
                        "addr:street": "Glenisla Drive",
                        "addr:housenumber": "23"
                    },
                    "sims": 0.4529996244311565
                },
                {
                    "id": 12414984270,
                    "distance": 3932.81266638,
                    "tags": {
                        "addr:street": "Tonkin Street",
                        "addr:housenumber": "6"
                    },
                    "sims": 0.452808415554954
                }
            ]
        },
        "32": {
            "execution_time": 0.17903542518615723,
            "results": [
                {
                    "id": 12419672254,
                    "distance": 3870.29173749,
                    "tags": {
                        "addr:street": "Ascot Street South",
                        "addr:housenumber": "19"
                    },
                    "sims": 0.7419731616973877
                },
                {
                    "id": 12419672234,
                    "distance": 3881.77951841,
                    "tags": {
                        "addr:street": "Ascot Street South",
                        "addr:housenumber": "17A"
                    },
                    "sims": 0.7056162532796721
                },
                {
                    "id": 12419574519,
                    "distance": 3781.02577548,
                    "tags": {
                        "addr:unit": "1",
                        "addr:street": "Ascot Street South",
                        "addr:housenumber": "30"
                    },
                    "sims": 0.6338870743580427
                },
                {
                    "id": 12419672439,
                    "distance": 3947.66345001,
                    "tags": {
                        "addr:street": "Crown Street South",
                        "addr:housenumber": "46"
                    },
                    "sims": 0.5264366426001981
                },
                {
                    "id": 12419672434,
                    "distance": 3992.05914274,
                    "tags": {
                        "addr:street": "Crown Street South",
                        "addr:housenumber": "38"
                    },
                    "sims": 0.5168166314606857
                },
                {
                    "id": 12419672349,
                    "distance": 3829.29344993,
                    "tags": {
                        "addr:street": "Balmoral Street South",
                        "addr:housenumber": "39"
                    },
                    "sims": 0.5157565763141775
                },
                {
                    "id": 12419672850,
                    "distance": 3902.81646135,
                    "tags": {
                        "addr:street": "Balmoral Street South",
                        "addr:housenumber": "22"
                    },
                    "sims": 0.5129019618034363
                },
                {
                    "id": 12419672484,
                    "distance": 4161.40776182,
                    "tags": {
                        "addr:street": "Grace Street South",
                        "addr:housenumber": "62"
                    },
                    "sims": 0.5051286220550537
                },
                {
                    "id": 12419672479,
                    "distance": 4352.83838282,
                    "tags": {
                        "addr:street": "Grace Street South",
                        "addr:housenumber": "47"
                    },
                    "sims": 0.5045655369758606
                },
                {
                    "id": 12417710424,
                    "distance": 1398.2335056,
                    "tags": {
                        "addr:street": "Regal Road",
                        "addr:housenumber": "23"
                    },
                    "sims": 0.5035870671272278
                }
            ]
        },
        "33": {
            "execution_time": 0.17915558815002441,
            "results": [
                {
                    "id": 12412054227,
                    "distance": 3379.80703359,
                    "tags": {
                        "addr:street": "Burwood Highway",
                        "addr:housenumber": "3"
                    },
                    "sims": 0.4415247142314911
                },
                {
                    "id": 9512725345,
                    "distance": 4712.56743127,
                    "tags": {
                        "addr:street": "Loughnan Road",
                        "addr:housenumber": "26"
                    },
                    "sims": 0.4294646382331848
                },
                {
                    "id": 12419380599,
                    "distance": 4131.19380766,
                    "tags": {
                        "addr:street": "Bayswater Road",
                        "addr:housenumber": "182"
                    },
                    "sims": 0.42836691225668544
                },
                {
                    "id": 12419156729,
                    "distance": 3261.97493582,
                    "tags": {
                        "addr:street": "Burwood Highway",
                        "addr:housenumber": "1A"
                    },
                    "sims": 0.42596206510293166
                },
                {
                    "id": 12411716326,
                    "distance": 4013.45299303,
                    "tags": {
                        "addr:street": "Cochrane Street",
                        "addr:housenumber": "71"
                    },
                    "sims": 0.42282265424728394
                },
                {
                    "id": 12419160927,
                    "distance": 3635.9415579,
                    "tags": {
                        "addr:street": "Maroondah Highway",
                        "addr:housenumber": "77"
                    },
                    "sims": 0.4225780963897705
                },
                {
                    "id": 12419158776,
                    "distance": 3624.15089373,
                    "tags": {
                        "addr:street": "Maroondah Highway",
                        "addr:housenumber": "58"
                    },
                    "sims": 0.4216341721037531
                },
                {
                    "id": 12419418892,
                    "distance": 3123.51098601,
                    "tags": {
                        "addr:street": "Bayswater Road",
                        "addr:housenumber": "343"
                    },
                    "sims": 0.42057323455810547
                },
                {
                    "id": 12411716955,
                    "distance": 4511.44524014,
                    "tags": {
                        "addr:street": "Cochrane Street",
                        "addr:housenumber": "4"
                    },
                    "sims": 0.41897279024124146
                },
                {
                    "id": 12411984700,
                    "distance": 3811.4563882,
                    "tags": {
                        "addr:street": "Glenburnie Road",
                        "addr:housenumber": "59"
                    },
                    "sims": 0.41747779898279325
                }
            ]
        },
        "34": {
            "execution_time": 0.18113994598388672,
            "results": [
                {
                    "id": 12412469843,
                    "distance": 2054.91802635,
                    "tags": {
                        "addr:street": "Rose Avenue",
                        "addr:housenumber": "13"
                    },
                    "sims": 0.5447185364197822
                },
                {
                    "id": 12413524880,
                    "distance": 4194.67059718,
                    "tags": {
                        "addr:street": "Doveton Avenue",
                        "addr:housenumber": "98"
                    },
                    "sims": 0.5166750704251253
                },
                {
                    "id": 12412245974,
                    "distance": 4571.00384302,
                    "tags": {
                        "addr:street": "Rosa Avenue",
                        "addr:housenumber": "8"
                    },
                    "sims": 0.5138188004493713
                },
                {
                    "id": 12412242473,
                    "distance": 4586.31989393,
                    "tags": {
                        "addr:street": "Rosa Avenue",
                        "addr:housenumber": "10A"
                    },
                    "sims": 0.5056667321125624
                },
                {
                    "id": 12419751446,
                    "distance": 1871.86089437,
                    "tags": {
                        "addr:street": "Rosemont Court",
                        "addr:housenumber": "1"
                    },
                    "sims": 0.501299262046814
                },
                {
                    "id": 12412490461,
                    "distance": 3875.83333853,
                    "tags": {
                        "addr:street": "Rosette Crescent",
                        "addr:housenumber": "5"
                    },
                    "sims": 0.4973323641617524
                },
                {
                    "id": 12413524829,
                    "distance": 4347.10156447,
                    "tags": {
                        "addr:street": "Doveton Avenue",
                        "addr:housenumber": "53"
                    },
                    "sims": 0.4971856175175686
                },
                {
                    "id": 6067401968,
                    "distance": 3729.46424108,
                    "tags": {
                        "addr:state": "VIC",
                        "addr:street": "Rebecca Street",
                        "addr:suburb": "Doveton",
                        "addr:postcode": "3177",
                        "addr:housenumber": "17"
                    },
                    "sims": 0.4928970928726857
                },
                {
                    "id": 2596278947,
                    "distance": 2791.52545279,
                    "tags": {
                        "name": "Dandenong North",
                        "place": "suburb"
                    },
                    "sims": 0.48427386535030226
                },
                {
                    "id": 12413524731,
                    "distance": 4203.92457891,
                    "tags": {
                        "addr:street": "Doveton Avenue",
                        "addr:housenumber": "86"
                    },
                    "sims": 0.4820324326167238
                }
            ]
        },
        "35": {
            "execution_time": 0.18207287788391113,
            "results": [
                {
                    "id": 3907281336,
                    "distance": 4403.49908717,
                    "tags": {
                        "building": "yes",
                        "addr:street": "Banksia Street",
                        "addr:housenumber": "189"
                    },
                    "sims": 0.4659080268309077
                },
                {
                    "id": 12418117239,
                    "distance": 4358.84499779,
                    "tags": {
                        "addr:street": "Banksia Street",
                        "addr:housenumber": "185"
                    },
                    "sims": 0.45966163758497114
                },
                {
                    "id": 12418099272,
                    "distance": 3192.18530408,
                    "tags": {
                        "addr:street": "Banksia Street",
                        "addr:housenumber": "66"
                    },
                    "sims": 0.45948887837198304
                },
                {
                    "id": 12150869402,
                    "distance": 3645.66390406,
                    "tags": {
                        "building": "yes",
                        "addr:street": "Banksia Street",
                        "addr:housenumber": "113 - 115"
                    },
                    "sims": 0.45790190257396135
                },
                {
                    "id": 12418116811,
                    "distance": 4799.70225871,
                    "tags": {
                        "addr:street": "Banksia Street",
                        "addr:housenumber": "201"
                    },
                    "sims": 0.4566652528446644
                },
                {
                    "id": 12418084379,
                    "distance": 2804.95536829,
                    "tags": {
                        "addr:street": "Banksia Street",
                        "addr:housenumber": "38"
                    },
                    "sims": 0.4533123755492501
                },
                {
                    "id": 12418117304,
                    "distance": 4024.20800302,
                    "tags": {
                        "addr:street": "Banksia Street",
                        "addr:housenumber": "145"
                    },
                    "sims": 0.4487189413644177
                },
                {
                    "id": 9847533105,
                    "distance": 4190.52386978,
                    "tags": {
                        "addr:street": "Banksia Street",
                        "addr:housenumber": "162"
                    },
                    "sims": 0.4348431398021333
                },
                {
                    "id": 7255082848,
                    "distance": 4848.45967564,
                    "tags": {
                        "brand": "BOM",
                        "amenity": "atm",
                        "operator": "BOM",
                        "official_name": "Bank of Melbourne",
                        "brand:wikidata": "Q4856151",
                        "operator:wikidata": "Q4856151"
                    },
                    "sims": 0.4096707335408911
                },
                {
                    "id": 12418096715,
                    "distance": 3860.54023228,
                    "tags": {
                        "addr:street": "Grandview Grove",
                        "addr:housenumber": "66"
                    },
                    "sims": 0.4030363435084212
                }
            ]
        },
        "36": {
            "execution_time": 0.18294286727905273,
            "results": [
                {
                    "id": 12419110606,
                    "distance": 4748.09287119,
                    "tags": {
                        "addr:street": "Hume Highway",
                        "addr:housenumber": "179-181"
                    },
                    "sims": 0.5504497125610817
                },
                {
                    "id": 12419110786,
                    "distance": 4335.80106068,
                    "tags": {
                        "addr:street": "Hume Highway",
                        "addr:housenumber": "237A"
                    },
                    "sims": 0.533892257991666
                },
                {
                    "id": 12419110790,
                    "distance": 4777.55456205,
                    "tags": {
                        "addr:street": "Hume Highway",
                        "addr:housenumber": "175-177"
                    },
                    "sims": 0.5282622733194315
                },
                {
                    "id": 12411918766,
                    "distance": 4435.71656417,
                    "tags": {
                        "addr:street": "Hume Highway",
                        "addr:housenumber": "240"
                    },
                    "sims": 0.527024523229138
                },
                {
                    "id": 12419381295,
                    "distance": 3089.64432097,
                    "tags": {
                        "addr:street": "Hardy Avenue",
                        "addr:housenumber": "8"
                    },
                    "sims": 0.5159884248968492
                },
                {
                    "id": 12412324916,
                    "distance": 3723.54013594,
                    "tags": {
                        "addr:street": "Wardan Avenue",
                        "addr:housenumber": "29"
                    },
                    "sims": 0.5130224533690484
                },
                {
                    "id": 12419382080,
                    "distance": 2973.02219031,
                    "tags": {
                        "addr:street": "Hardy Avenue",
                        "addr:housenumber": "24"
                    },
                    "sims": 0.5121764555187778
                },
                {
                    "id": 12419381935,
                    "distance": 3126.88889735,
                    "tags": {
                        "addr:street": "Bradshaw Avenue",
                        "addr:housenumber": "35"
                    },
                    "sims": 0.5112395591282581
                },
                {
                    "id": 12417678601,
                    "distance": 2949.73698114,
                    "tags": {
                        "addr:street": "Whitley Crescent",
                        "addr:housenumber": "42"
                    },
                    "sims": 0.5107546004877868
                },
                {
                    "id": 12412328971,
                    "distance": 4751.38452969,
                    "tags": {
                        "addr:street": "Clifton Road",
                        "addr:housenumber": "17"
                    },
                    "sims": 0.5096382802509236
                }
            ]
        },
        "37": {
            "execution_time": 0.18087434768676758,
            "results": [
                {
                    "id": 12420534133,
                    "distance": 3793.17367498,
                    "tags": {
                        "addr:street": "Campbell Street",
                        "addr:housenumber": "26A"
                    },
                    "sims": 0.4792322373619028
                },
                {
                    "id": 12415042003,
                    "distance": 919.53295163,
                    "tags": {
                        "addr:street": "Abeckett Road",
                        "addr:housenumber": "58"
                    },
                    "sims": 0.44927186076212844
                },
                {
                    "id": 12415040628,
                    "distance": 4926.29093481,
                    "tags": {
                        "addr:street": "Mont Albert Road",
                        "addr:housenumber": "40"
                    },
                    "sims": 0.44877849671904935
                },
                {
                    "id": 12415041989,
                    "distance": 1071.45887853,
                    "tags": {
                        "addr:street": "Abeckett Road",
                        "addr:housenumber": "59"
                    },
                    "sims": 0.44866493650287853
                },
                {
                    "id": 12420521190,
                    "distance": 3521.59169922,
                    "tags": {
                        "addr:street": "Archer Road",
                        "addr:housenumber": "46"
                    },
                    "sims": 0.44674626310192056
                },
                {
                    "id": 12415041890,
                    "distance": 3744.65298555,
                    "tags": {
                        "addr:street": "Murray Road",
                        "addr:housenumber": "1120"
                    },
                    "sims": 0.44666973074259064
                },
                {
                    "id": 12415041977,
                    "distance": 0.0,
                    "tags": {
                        "addr:street": "Abeckett Road",
                        "addr:housenumber": "3"
                    },
                    "sims": 0.4441269702760017
                },
                {
                    "id": 12420535482,
                    "distance": 766.76440203,
                    "tags": {
                        "addr:street": "Nylander Road",
                        "addr:housenumber": "31"
                    },
                    "sims": 0.4397693014282412
                },
                {
                    "id": 12410768974,
                    "distance": 3062.73870487,
                    "tags": {
                        "addr:street": "Butler Road",
                        "addr:housenumber": "70"
                    },
                    "sims": 0.4393967724205995
                },
                {
                    "id": 12415042357,
                    "distance": 391.17779513,
                    "tags": {
                        "addr:street": "Nash Road",
                        "addr:housenumber": "27"
                    },
                    "sims": 0.43887123829893915
                }
            ]
        },
        "38": {
            "execution_time": 0.1889505386352539,
            "results": [
                {
                    "id": 7800138291,
                    "distance": 3737.16101871,
                    "tags": {
                        "name": "1st Choice Liquor",
                        "shop": "alcohol",
                        "operator": "1st Choice Liquor"
                    },
                    "sims": 0.33131301439171823
                },
                {
                    "id": 700524679,
                    "distance": 3689.56203126,
                    "tags": {
                        "name": "Hindustani Spice & Video",
                        "shop": "convenience",
                        "source": "survey"
                    },
                    "sims": 0.3196258855200548
                },
                {
                    "id": 2172755826,
                    "distance": 3559.15249532,
                    "tags": {
                        "name": "Liquorland",
                        "shop": "alcohol",
                        "brand": "Liquorland",
                        "brand:wikidata": "Q2283837",
                        "brand:wikipedia": "en:Liquorland"
                    },
                    "sims": 0.3151164871315397
                },
                {
                    "id": 7690432997,
                    "distance": 4669.07134167,
                    "tags": {
                        "name": "Coles",
                        "shop": "supermarket",
                        "brand": "Coles",
                        "level": "0",
                        "organic": "yes",
                        "toilets": "no",
                        "operator": "Coles Group",
                        "wheelchair": "yes",
                        "opening_hours": "Mo-Su 07:00-22:00; PH open",
                        "brand:wikidata": "Q1108172",
                        "brand:wikipedia": "en:Coles Supermarkets",
                        "operator:wikidata": "Q1339055"
                    },
                    "sims": 0.3146365914398572
                },
                {
                    "id": 2332697026,
                    "distance": 2295.36302522,
                    "tags": {
                        "name": "Sam's Fruit World",
                        "shop": "greengrocer"
                    },
                    "sims": 0.2755520775585172
                },
                {
                    "id": 2365308409,
                    "distance": 4799.98149446,
                    "tags": {
                        "name": "Bendigo Bank",
                        "brand": "Bendigo Bank",
                        "amenity": "atm",
                        "website": "https://www.bendigobank.com.au/",
                        "operator": "Bendigo Bank",
                        "brand:wikidata": "Q4887077",
                        "operator:wikidata": "Q4887077"
                    },
                    "sims": 0.266962385151176
                },
                {
                    "id": 392643731,
                    "distance": 3697.70169868,
                    "tags": {
                        "name": "DJS Auto Electrical",
                        "shop": "car_repair"
                    },
                    "sims": 0.2656395276999798
                },
                {
                    "id": 8551641398,
                    "distance": 3649.1117006,
                    "tags": {
                        "name": "Kathmandu",
                        "shop": "outdoor",
                        "brand": "Kathmandu",
                        "brand:wikidata": "Q1736294",
                        "brand:wikipedia": "en:Kathmandu (company)"
                    },
                    "sims": 0.26443540877873983
                },
                {
                    "id": 9903079315,
                    "distance": 4911.35980946,
                    "tags": {
                        "name": "Sunspun",
                        "shop": "clothes"
                    },
                    "sims": 0.2595608002340106
                },
                {
                    "id": 10271707310,
                    "distance": 3385.65087335,
                    "tags": {
                        "name": "Jaycar",
                        "shop": "radiotechnics",
                        "brand": "Jaycar",
                        "email": "BoxHill@jaycar.com.au",
                        "phone": "+61 3 8849 0398",
                        "branch": "Box Hill South",
                        "website": "https://www.jaycar.com.au/store/BoxHill_JaycarAU",
                        "addr:street": "Middleborough Road",
                        "opening_hours": "Mo-Th 08:30-17:30; Fr 08:30-19:30; Sa 08:30-17:00; Su 10:00-16:00",
                        "addr:housename": "HomeCo",
                        "brand:wikidata": "Q6167713",
                        "brand:wikipedia": "en:Jaycar",
                        "contact:twitter": "https://twitter.com/jaycarau",
                        "contact:youtube": "https://www.youtube.com/JaycarVideo",
                        "addr:housenumber": "249",
                        "contact:facebook": "https://www.facebook.com/jaycarelectronics",
                        "contact:instagram": "https://instagram.com/jaycar_electronics",
                        "check_date:opening_hours": "2023-05-05"
                    },
                    "sims": 0.2592433459243195
                }
            ]
        },
        "39": {
            "execution_time": 0.18328213691711426,
            "results": [
                {
                    "id": 12418388705,
                    "distance": 2391.78806536,
                    "tags": {
                        "addr:street": "Mimosa Road",
                        "addr:housenumber": "14"
                    },
                    "sims": 0.48563019802840357
                },
                {
                    "id": 12418388548,
                    "distance": 2428.49042547,
                    "tags": {
                        "addr:street": "Mimosa Road",
                        "addr:housenumber": "2"
                    },
                    "sims": 0.47254097298031883
                },
                {
                    "id": 12418386407,
                    "distance": 2284.99026721,
                    "tags": {
                        "addr:street": "Mimosa Road",
                        "addr:housenumber": "24"
                    },
                    "sims": 0.46758617364126986
                },
                {
                    "id": 12418120164,
                    "distance": 2537.04022685,
                    "tags": {
                        "addr:street": "Warramunga Road",
                        "addr:housenumber": "14"
                    },
                    "sims": 0.4543223245643895
                },
                {
                    "id": 12418119921,
                    "distance": 2616.02832822,
                    "tags": {
                        "addr:street": "Warramunga Road",
                        "addr:housenumber": "28"
                    },
                    "sims": 0.4537169527664575
                },
                {
                    "id": 12418120189,
                    "distance": 2674.70988756,
                    "tags": {
                        "addr:street": "Warramunga Road",
                        "addr:housenumber": "38"
                    },
                    "sims": 0.44280820106195096
                },
                {
                    "id": 12418291585,
                    "distance": 4195.00313966,
                    "tags": {
                        "addr:street": "Wahroonga Crescent",
                        "addr:housenumber": "82"
                    },
                    "sims": 0.4413740503378514
                },
                {
                    "id": 12418119805,
                    "distance": 2685.90232929,
                    "tags": {
                        "addr:street": "Warramunga Road",
                        "addr:housenumber": "40"
                    },
                    "sims": 0.43891300078967244
                },
                {
                    "id": 12418120163,
                    "distance": 2653.82270759,
                    "tags": {
                        "addr:street": "Warramunga Road",
                        "addr:housenumber": "34"
                    },
                    "sims": 0.4381897020879495
                },
                {
                    "id": 12411496110,
                    "distance": 4447.54953258,
                    "tags": {
                        "addr:street": "Wahroonga Crescent",
                        "addr:housenumber": "17"
                    },
                    "sims": 0.43774160371670745
                }
            ]
        },
        "40": {
            "execution_time": 0.18773341178894043,
            "results": [
                {
                    "id": 12420040560,
                    "distance": 4543.22603865,
                    "tags": {
                        "addr:street": "Alderley Court",
                        "addr:housenumber": "14"
                    },
                    "sims": 0.5449643677515584
                },
                {
                    "id": 12413561216,
                    "distance": 4992.02417444,
                    "tags": {
                        "addr:street": "Teesdale Court",
                        "addr:housenumber": "4"
                    },
                    "sims": 0.5327300390326968
                },
                {
                    "id": 12420096778,
                    "distance": 3572.67082711,
                    "tags": {
                        "addr:street": "Oxley Court",
                        "addr:housenumber": "3"
                    },
                    "sims": 0.5253033011790192
                },
                {
                    "id": 12413692149,
                    "distance": 3381.89143381,
                    "tags": {
                        "addr:street": "Forsyth Court",
                        "addr:housenumber": "19"
                    },
                    "sims": 0.5160635094566967
                },
                {
                    "id": 12413690677,
                    "distance": 3220.28231102,
                    "tags": {
                        "addr:street": "Wakefield Court",
                        "addr:housenumber": "6"
                    },
                    "sims": 0.5117304602151296
                },
                {
                    "id": 12413690967,
                    "distance": 3224.12745846,
                    "tags": {
                        "addr:street": "Wakefield Court",
                        "addr:housenumber": "8"
                    },
                    "sims": 0.5085040320749281
                },
                {
                    "id": 12413703391,
                    "distance": 1573.21364528,
                    "tags": {
                        "addr:street": "Glenwood Court",
                        "addr:housenumber": "13"
                    },
                    "sims": 0.5079771866825633
                },
                {
                    "id": 12413695537,
                    "distance": 1956.38312695,
                    "tags": {
                        "addr:street": "Helmsdale Court",
                        "addr:housenumber": "6"
                    },
                    "sims": 0.49696934241239976
                },
                {
                    "id": 12420038164,
                    "distance": 4347.4418383,
                    "tags": {
                        "addr:street": "Jennings Court",
                        "addr:housenumber": "8"
                    },
                    "sims": 0.49598832464323084
                },
                {
                    "id": 12420039648,
                    "distance": 4380.78947843,
                    "tags": {
                        "addr:street": "Jennings Court",
                        "addr:housenumber": "12"
                    },
                    "sims": 0.4920827159783021
                }
            ]
        },
        "41": {
            "execution_time": 0.1843547821044922,
            "results": [
                {
                    "id": 12414145663,
                    "distance": 1063.8550728,
                    "tags": {
                        "addr:street": "Millennium Park Drive",
                        "addr:housenumber": "15A"
                    },
                    "sims": 0.4100687626024714
                },
                {
                    "id": 12419871435,
                    "distance": 1965.66789868,
                    "tags": {
                        "addr:street": "Thomson Park Drive",
                        "addr:housenumber": "50-52"
                    },
                    "sims": 0.396370952996995
                },
                {
                    "id": 12419871399,
                    "distance": 1715.61281332,
                    "tags": {
                        "addr:street": "Thomson Park Drive",
                        "addr:housenumber": "20"
                    },
                    "sims": 0.3884956058411482
                },
                {
                    "id": 12412502493,
                    "distance": 1928.93740907,
                    "tags": {
                        "addr:street": "Thomson Park Drive",
                        "addr:housenumber": "43-45"
                    },
                    "sims": 0.3863254534893146
                },
                {
                    "id": 12419871990,
                    "distance": 1548.94221158,
                    "tags": {
                        "addr:street": "Thomson Park Drive",
                        "addr:housenumber": "2W"
                    },
                    "sims": 0.38480437262097367
                },
                {
                    "id": 2425216801,
                    "distance": 4342.137755,
                    "tags": {
                        "name": "Eden Park",
                        "place": "suburb"
                    },
                    "sims": 0.3784670942564934
                },
                {
                    "id": 12412514402,
                    "distance": 1590.04003041,
                    "tags": {
                        "addr:street": "Thomson Park Drive",
                        "addr:housenumber": "1"
                    },
                    "sims": 0.3780950195164987
                },
                {
                    "id": 12419871976,
                    "distance": 954.06668821,
                    "tags": {
                        "addr:street": "Bellbird Drive",
                        "addr:housenumber": "20"
                    },
                    "sims": 0.35762541420384153
                },
                {
                    "id": 12419835359,
                    "distance": 4166.30103118,
                    "tags": {
                        "addr:street": "Humevale Road",
                        "addr:housenumber": "45-47"
                    },
                    "sims": 0.35260314800152637
                },
                {
                    "id": 12419872739,
                    "distance": 951.22279794,
                    "tags": {
                        "addr:street": "Bartlett Boulevard",
                        "addr:housenumber": "16"
                    },
                    "sims": 0.34977145045314595
                }
            ]
        },
        "42": {
            "execution_time": 0.18395590782165527,
            "results": [
                {
                    "id": 12421167693,
                    "distance": 4377.32137989,
                    "tags": {
                        "addr:street": "Glenelg Street",
                        "addr:housenumber": "62"
                    },
                    "sims": 0.4821517776160381
                },
                {
                    "id": 12414305467,
                    "distance": 2116.32438579,
                    "tags": {
                        "addr:street": "Octagonal Street",
                        "addr:housenumber": "33"
                    },
                    "sims": 0.48072939996298636
                },
                {
                    "id": 12421167461,
                    "distance": 4119.05325825,
                    "tags": {
                        "addr:street": "Glenelg Street",
                        "addr:housenumber": "17"
                    },
                    "sims": 0.478866308927536
                },
                {
                    "id": 12413696175,
                    "distance": 4230.00406475,
                    "tags": {
                        "addr:street": "Taplan Crescent",
                        "addr:housenumber": "42"
                    },
                    "sims": 0.47785064446035974
                },
                {
                    "id": 12420103773,
                    "distance": 4325.47397233,
                    "tags": {
                        "addr:street": "Strafford Avenue",
                        "addr:housenumber": "46"
                    },
                    "sims": 0.47305771708488464
                },
                {
                    "id": 12414304635,
                    "distance": 3088.03119213,
                    "tags": {
                        "addr:street": "Marshy Avenue",
                        "addr:housenumber": "6"
                    },
                    "sims": 0.4723899488797757
                },
                {
                    "id": 12420319457,
                    "distance": 2976.87012783,
                    "tags": {
                        "addr:street": "Haflinger Avenue",
                        "addr:housenumber": "70"
                    },
                    "sims": 0.4720016419887543
                },
                {
                    "id": 12420101990,
                    "distance": 1935.06169496,
                    "tags": {
                        "addr:street": "Smethurst Street",
                        "addr:housenumber": "11"
                    },
                    "sims": 0.4701811951506858
                },
                {
                    "id": 12421167530,
                    "distance": 4255.33040075,
                    "tags": {
                        "addr:street": "Glenelg Street",
                        "addr:housenumber": "34"
                    },
                    "sims": 0.4697124976091096
                },
                {
                    "id": 12414304707,
                    "distance": 3075.5382218,
                    "tags": {
                        "addr:street": "Marshy Avenue",
                        "addr:housenumber": "4"
                    },
                    "sims": 0.4691739398733421
                }
            ]
        },
        "43": {
            "execution_time": 0.18388009071350098,
            "results": [
                {
                    "id": 12419376100,
                    "distance": 3387.14326462,
                    "tags": {
                        "addr:street": "Widdop Crescent",
                        "addr:housenumber": "19A"
                    },
                    "sims": 0.47040724754333496
                },
                {
                    "id": 12412103994,
                    "distance": 3405.02815832,
                    "tags": {
                        "addr:street": "Widdop Crescent",
                        "addr:housenumber": "30"
                    },
                    "sims": 0.4557101700133195
                },
                {
                    "id": 12412104636,
                    "distance": 3419.63346794,
                    "tags": {
                        "addr:street": "Widdop Crescent",
                        "addr:housenumber": "28"
                    },
                    "sims": 0.45437736673287676
                },
                {
                    "id": 12412104562,
                    "distance": 3087.18264092,
                    "tags": {
                        "addr:street": "Widdop Crescent",
                        "addr:housenumber": "60"
                    },
                    "sims": 0.44158273935317993
                },
                {
                    "id": 12412104113,
                    "distance": 3071.51342809,
                    "tags": {
                        "addr:street": "Widdop Crescent",
                        "addr:housenumber": "62"
                    },
                    "sims": 0.43939162023167677
                },
                {
                    "id": 12412103995,
                    "distance": 3389.16202488,
                    "tags": {
                        "addr:street": "Widdop Crescent",
                        "addr:housenumber": "32"
                    },
                    "sims": 0.43797051906585693
                },
                {
                    "id": 12419376134,
                    "distance": 3152.73600753,
                    "tags": {
                        "addr:street": "Widdop Crescent",
                        "addr:housenumber": "41-45"
                    },
                    "sims": 0.426050066947937
                },
                {
                    "id": 12419375130,
                    "distance": 3911.59473913,
                    "tags": {
                        "addr:street": "Cooinda Crescent",
                        "addr:housenumber": "34"
                    },
                    "sims": 0.4047788381576538
                },
                {
                    "id": 12419101653,
                    "distance": 4214.50598281,
                    "tags": {
                        "addr:street": "Wahroongaa Crescent",
                        "addr:housenumber": "2"
                    },
                    "sims": 0.4035463333129883
                },
                {
                    "id": 12419374915,
                    "distance": 3999.38101055,
                    "tags": {
                        "addr:street": "Cooinda Crescent",
                        "addr:housenumber": "17"
                    },
                    "sims": 0.40301766991615295
                }
            ]
        },
        "44": {
            "execution_time": 0.18316173553466797,
            "results": [
                {
                    "id": 12418388615,
                    "distance": 3267.93518024,
                    "tags": {
                        "addr:street": "Blossom Park Drive",
                        "addr:housenumber": "26"
                    },
                    "sims": 0.4465020000934632
                },
                {
                    "id": 12411654097,
                    "distance": 4992.99051938,
                    "tags": {
                        "addr:street": "The Lakes Boulevard",
                        "addr:housenumber": "191"
                    },
                    "sims": 0.4456424382711919
                },
                {
                    "id": 12418385776,
                    "distance": 3705.3571523,
                    "tags": {
                        "addr:street": "Blossom Park Drive",
                        "addr:housenumber": "189"
                    },
                    "sims": 0.44384137784016553
                },
                {
                    "id": 12418386966,
                    "distance": 3699.55348895,
                    "tags": {
                        "addr:street": "Blossom Park Drive",
                        "addr:housenumber": "187"
                    },
                    "sims": 0.4425556923482242
                },
                {
                    "id": 12411541263,
                    "distance": 1732.34807808,
                    "tags": {
                        "addr:street": "Roycroft Avenue",
                        "addr:housenumber": "28"
                    },
                    "sims": 0.4397805726331987
                },
                {
                    "id": 12418387854,
                    "distance": 3414.64332795,
                    "tags": {
                        "addr:street": "Blossom Park Drive",
                        "addr:housenumber": "42"
                    },
                    "sims": 0.4378410242701195
                },
                {
                    "id": 12411538127,
                    "distance": 1410.45593276,
                    "tags": {
                        "addr:street": "Roycroft Avenue",
                        "addr:housenumber": "62"
                    },
                    "sims": 0.4370160325784722
                },
                {
                    "id": 12411540868,
                    "distance": 3158.82618893,
                    "tags": {
                        "addr:street": "Blossom Park Drive",
                        "addr:housenumber": "13"
                    },
                    "sims": 0.43549418449402166
                },
                {
                    "id": 12418387309,
                    "distance": 989.52534591,
                    "tags": {
                        "addr:street": "Roycroft Avenue",
                        "addr:housenumber": "97"
                    },
                    "sims": 0.4351973831653626
                },
                {
                    "id": 12411655936,
                    "distance": 3895.00149765,
                    "tags": {
                        "addr:street": "The Lakes Boulevard",
                        "addr:housenumber": "35"
                    },
                    "sims": 0.4347009580970953
                }
            ]
        },
        "45": {
            "execution_time": 0.18422818183898926,
            "results": [
                {
                    "id": 12419424400,
                    "distance": 2902.23951908,
                    "tags": {
                        "addr:street": "Collins Close",
                        "addr:housenumber": "12"
                    },
                    "sims": 0.3710902929306057
                },
                {
                    "id": 12419424437,
                    "distance": 2812.28663923,
                    "tags": {
                        "addr:street": "Collins Close",
                        "addr:housenumber": "3"
                    },
                    "sims": 0.3692814001655176
                },
                {
                    "id": 12419424122,
                    "distance": 2960.85351358,
                    "tags": {
                        "addr:street": "Collins Close",
                        "addr:housenumber": "16"
                    },
                    "sims": 0.3636176071394923
                },
                {
                    "id": 12419341312,
                    "distance": 1876.69352427,
                    "tags": {
                        "addr:street": "Navy Close",
                        "addr:housenumber": "27"
                    },
                    "sims": 0.34124116055720144
                },
                {
                    "id": 12419608384,
                    "distance": 3044.88553169,
                    "tags": {
                        "addr:street": "Plymouth Close",
                        "addr:housenumber": "2"
                    },
                    "sims": 0.33571827411651856
                },
                {
                    "id": 12419608381,
                    "distance": 3049.04386703,
                    "tags": {
                        "addr:street": "Plymouth Close",
                        "addr:housenumber": "1"
                    },
                    "sims": 0.332080463643047
                },
                {
                    "id": 12412219016,
                    "distance": 1035.52729612,
                    "tags": {
                        "addr:street": "Blueridge Close",
                        "addr:housenumber": "2"
                    },
                    "sims": 0.32258753045871735
                },
                {
                    "id": 12412382831,
                    "distance": 4367.82408009,
                    "tags": {
                        "addr:street": "Woolstone Close",
                        "addr:housenumber": "8"
                    },
                    "sims": 0.31920796632766946
                },
                {
                    "id": 12412076396,
                    "distance": 1678.38600629,
                    "tags": {
                        "addr:street": "Forge Close",
                        "addr:housenumber": "25"
                    },
                    "sims": 0.3153925648097661
                },
                {
                    "id": 12419608910,
                    "distance": 3211.25426968,
                    "tags": {
                        "addr:street": "Kingsmead Close",
                        "addr:housenumber": "27"
                    },
                    "sims": 0.31266466899724843
                }
            ]
        },
        "46": {
            "execution_time": 0.18218779563903809,
            "results": [
                {
                    "id": 12420097360,
                    "distance": 3543.3991106,
                    "tags": {
                        "addr:street": "Coberley Way",
                        "addr:housenumber": "17"
                    },
                    "sims": 0.331848661193332
                },
                {
                    "id": 12414245000,
                    "distance": 4215.70588485,
                    "tags": {
                        "addr:street": "Bryn Mawr Boulevard",
                        "addr:housenumber": "27"
                    },
                    "sims": 0.32467128936394585
                },
                {
                    "id": 2155593595,
                    "distance": 4526.83594959,
                    "tags": {
                        "addr:street": "Wittenberg Court",
                        "addr:postcode": "3805",
                        "addr:housenumber": "10"
                    },
                    "sims": 0.3232095346921966
                },
                {
                    "id": 12414243474,
                    "distance": 4233.91945441,
                    "tags": {
                        "addr:street": "Bryn Mawr Boulevard",
                        "addr:housenumber": "35"
                    },
                    "sims": 0.3220985137790897
                },
                {
                    "id": 12413559185,
                    "distance": 1429.79904924,
                    "tags": {
                        "addr:street": "Arlington Place",
                        "addr:housenumber": "12"
                    },
                    "sims": 0.3214453948405671
                },
                {
                    "id": 2155592824,
                    "distance": 4569.50712371,
                    "tags": {
                        "addr:street": "Wittenberg Court",
                        "addr:postcode": "3805",
                        "addr:housenumber": "5"
                    },
                    "sims": 0.3197298645973228
                },
                {
                    "id": 12420062053,
                    "distance": 4410.2006505,
                    "tags": {
                        "addr:street": "Hedley Place",
                        "addr:housenumber": "2"
                    },
                    "sims": 0.3178863525390647
                },
                {
                    "id": 12420061752,
                    "distance": 3133.73395454,
                    "tags": {
                        "addr:street": "Cornell Place",
                        "addr:housenumber": "9"
                    },
                    "sims": 0.31552914884512784
                },
                {
                    "id": 12414241898,
                    "distance": 4231.46697276,
                    "tags": {
                        "addr:street": "Bryn Mawr Boulevard",
                        "addr:housenumber": "33"
                    },
                    "sims": 0.3135001583695223
                },
                {
                    "id": 12413689757,
                    "distance": 3054.17736642,
                    "tags": {
                        "addr:street": "Mannavue Boulevard",
                        "addr:housenumber": "26"
                    },
                    "sims": 0.3126366138458274
                }
            ]
        },
        "47": {
            "execution_time": 0.18200421333312988,
            "results": [
                {
                    "id": 12412250899,
                    "distance": 3356.0510282,
                    "tags": {
                        "addr:street": "Rose Street",
                        "addr:housenumber": "19"
                    },
                    "sims": 0.5737713575363159
                },
                {
                    "id": 12412000282,
                    "distance": 3354.03157567,
                    "tags": {
                        "addr:street": "Roseberry Street",
                        "addr:housenumber": "65"
                    },
                    "sims": 0.5410452050282124
                },
                {
                    "id": 12411998635,
                    "distance": 3451.67253029,
                    "tags": {
                        "addr:street": "Roseberry Street",
                        "addr:housenumber": "23"
                    },
                    "sims": 0.5374475717544556
                },
                {
                    "id": 12411999160,
                    "distance": 3446.92412046,
                    "tags": {
                        "addr:street": "Roseberry Street",
                        "addr:housenumber": "25"
                    },
                    "sims": 0.5348110198974609
                },
                {
                    "id": 12419127510,
                    "distance": 3508.70439718,
                    "tags": {
                        "addr:street": "Roseberry Street",
                        "addr:housenumber": "16"
                    },
                    "sims": 0.5315256118774414
                },
                {
                    "id": 12419126712,
                    "distance": 3454.70087134,
                    "tags": {
                        "addr:street": "Roseberry Street",
                        "addr:housenumber": "38"
                    },
                    "sims": 0.5299121105775739
                },
                {
                    "id": 12411999198,
                    "distance": 3269.97264004,
                    "tags": {
                        "addr:street": "Roseberry Street",
                        "addr:housenumber": "101"
                    },
                    "sims": 0.5249358102717522
                },
                {
                    "id": 12419391601,
                    "distance": 1703.91843921,
                    "tags": {
                        "addr:street": "Rosamond Road",
                        "addr:housenumber": "83"
                    },
                    "sims": 0.5188782215118408
                },
                {
                    "id": 12419391666,
                    "distance": 1767.65888086,
                    "tags": {
                        "addr:street": "Rosamond Road",
                        "addr:housenumber": "91"
                    },
                    "sims": 0.5113937549952424
                },
                {
                    "id": 1550304970,
                    "distance": 3587.47760414,
                    "tags": {
                        "addr:street": "St Leonard's Road",
                        "addr:suburb": "Ascot Vale",
                        "addr:country": "AU",
                        "addr:postcode": "3032",
                        "addr:housenumber": "66"
                    },
                    "sims": 0.49914503092438256
                }
            ]
        },
        "48": {
            "execution_time": 0.1816115379333496,
            "results": [
                {
                    "id": 12419330599,
                    "distance": 4496.41811253,
                    "tags": {
                        "addr:street": "Dandenong Road",
                        "addr:housenumber": "1909"
                    },
                    "sims": 0.5559426877464476
                },
                {
                    "id": 12419328654,
                    "distance": 4500.76134319,
                    "tags": {
                        "addr:street": "Dandenong Road",
                        "addr:housenumber": "1915-1915A"
                    },
                    "sims": 0.552255901828761
                },
                {
                    "id": 12419329673,
                    "distance": 4489.23507649,
                    "tags": {
                        "addr:street": "Dandenong Road",
                        "addr:housenumber": "1899-1901"
                    },
                    "sims": 0.5513472721382165
                },
                {
                    "id": 12419099748,
                    "distance": 4696.58184304,
                    "tags": {
                        "addr:street": "Dandenong Road",
                        "addr:housenumber": "1603"
                    },
                    "sims": 0.5502302646636963
                },
                {
                    "id": 12412008848,
                    "distance": 4463.1323828,
                    "tags": {
                        "addr:street": "Dandenong Road",
                        "addr:housenumber": "1560"
                    },
                    "sims": 0.5398241877555847
                },
                {
                    "id": 12419136531,
                    "distance": 4351.61850069,
                    "tags": {
                        "addr:street": "Dandenong Road",
                        "addr:housenumber": "1821"
                    },
                    "sims": 0.5381414890289307
                },
                {
                    "id": 12419137732,
                    "distance": 4450.86453311,
                    "tags": {
                        "addr:street": "Dandenong Road",
                        "addr:housenumber": "1658-1660"
                    },
                    "sims": 0.536935019815121
                },
                {
                    "id": 12412006987,
                    "distance": 4338.04341757,
                    "tags": {
                        "addr:street": "Dandenong Road",
                        "addr:housenumber": "1797"
                    },
                    "sims": 0.5359218120574951
                },
                {
                    "id": 12411971400,
                    "distance": 4651.14747001,
                    "tags": {
                        "addr:street": "Dandenong Road",
                        "addr:housenumber": "1494C"
                    },
                    "sims": 0.5348008871078491
                },
                {
                    "id": 12412007315,
                    "distance": 4496.82995341,
                    "tags": {
                        "addr:street": "Dandenong Road",
                        "addr:housenumber": "1665"
                    },
                    "sims": 0.5303775948061001
                }
            ]
        },
        "49": {
            "execution_time": 0.18744802474975586,
            "results": [
                {
                    "id": 12419234504,
                    "distance": 4831.69801795,
                    "tags": {
                        "addr:street": "Wood Street",
                        "addr:housenumber": "21"
                    },
                    "sims": 0.6265804990184021
                },
                {
                    "id": 12419086588,
                    "distance": 3086.78957497,
                    "tags": {
                        "addr:street": "Blackwood Street",
                        "addr:housenumber": "57"
                    },
                    "sims": 0.564509391784668
                },
                {
                    "id": 12412080079,
                    "distance": 2638.69901928,
                    "tags": {
                        "addr:street": "Castlewood Street",
                        "addr:housenumber": "79"
                    },
                    "sims": 0.5571560595724628
                },
                {
                    "id": 12419140109,
                    "distance": 1284.12878849,
                    "tags": {
                        "addr:street": "Mortimer Street",
                        "addr:housenumber": "13"
                    },
                    "sims": 0.5471345782279968
                },
                {
                    "id": 12419085654,
                    "distance": 3552.73472141,
                    "tags": {
                        "addr:street": "Miller Street",
                        "addr:housenumber": "68"
                    },
                    "sims": 0.545111986703396
                },
                {
                    "id": 12419139842,
                    "distance": 1349.55425351,
                    "tags": {
                        "addr:street": "Mortimer Street",
                        "addr:housenumber": "21"
                    },
                    "sims": 0.5437905354437395
                },
                {
                    "id": 12412008866,
                    "distance": 1351.07687988,
                    "tags": {
                        "addr:street": "Mortimer Street",
                        "addr:housenumber": "20"
                    },
                    "sims": 0.5426958365051701
                },
                {
                    "id": 12419091177,
                    "distance": 4485.95959459,
                    "tags": {
                        "addr:street": "Pinewood Drive",
                        "addr:housenumber": "48"
                    },
                    "sims": 0.5415723919868469
                },
                {
                    "id": 12419086557,
                    "distance": 3708.83306635,
                    "tags": {
                        "addr:street": "Miller Street",
                        "addr:housenumber": "46"
                    },
                    "sims": 0.5408797860145569
                },
                {
                    "id": 12419099364,
                    "distance": 1149.72015124,
                    "tags": {
                        "addr:street": "Abbeygate Street",
                        "addr:housenumber": "69"
                    },
                    "sims": 0.5399568676948547
                }
            ]
        }
    }
}