{
    "insertion_time": 109.00906610488892,
    "index_creation": {
        "func": [
            "CREATE INDEX IF NOT EXISTS idx_pois_geom ON PoIs USING GIST (geom);",
            "CREATE INDEX IF NOT EXISTS idx_pois_tags ON PoIs USING GIN (tags);"
        ],
        "time": 5.317101716995239
    },
    "query_results": {
        "0": {
            "execution_time": 0.01046895980834961,
            "results": []
        },
        "1": {
            "execution_time": 0.011142253875732422,
            "results": [
                {
                    "id": 580734122,
                    "tags": {
                        "foot": "yes",
                        "name": "Back Gate",
                        "barrier": "gate",
                        "bicycle": "yes",
                        "motor_vehicle": "no"
                    },
                    "distance": 8410.4186101
                }
            ]
        },
        "2": {
            "execution_time": 0.014418363571166992,
            "results": []
        },
        "3": {
            "execution_time": 0.013535737991333008,
            "results": [
                {
                    "id": 2117565519,
                    "tags": {
                        "name": "Rivers",
                        "shop": "clothes",
                        "brand": "Rivers",
                        "website": "https://www.rivers.com.au/",
                        "wheelchair": "yes",
                        "brand:wikidata": "Q106224813",
                        "toilets:wheelchair": "no"
                    },
                    "distance": 1762.49644677
                },
                {
                    "id": 10234904806,
                    "tags": {
                        "name": "Cotton On",
                        "shop": "clothes",
                        "brand": "Cotton On",
                        "wheelchair": "yes",
                        "brand:wikidata": "Q5175717"
                    },
                    "distance": 1950.88553245
                },
                {
                    "id": 10234968506,
                    "tags": {
                        "name": "Cotton On Kids",
                        "shop": "clothes",
                        "brand": "Cotton On Kids",
                        "clothes": "children",
                        "clothing": "children",
                        "wheelchair": "yes",
                        "brand:wikidata": "Q113961498"
                    },
                    "distance": 1959.45199368
                },
                {
                    "id": 10234968083,
                    "tags": {
                        "name": "Under Armour",
                        "shop": "clothes",
                        "brand": "Under Armour",
                        "clothes": "men;women",
                        "wheelchair": "yes",
                        "brand:wikidata": "Q2031485"
                    },
                    "distance": 1961.19728546
                },
                {
                    "id": 10234937799,
                    "tags": {
                        "name": "2XU",
                        "shop": "clothes",
                        "clothes": "sports",
                        "website": "https://2xu.com/"
                    },
                    "distance": 1963.00687338
                },
                {
                    "id": 10234939081,
                    "tags": {
                        "name": "Ollie's Place",
                        "shop": "clothes",
                        "clothes": "children",
                        "toilets": "no",
                        "wheelchair": "yes",
                        "second_hand": "no",
                        "changing_table": "no"
                    },
                    "distance": 1969.32904125
                },
                {
                    "id": 10235008943,
                    "tags": {
                        "name": "Fila",
                        "shop": "clothes",
                        "brand": "Fila",
                        "clothes": "sports",
                        "toilets": "no",
                        "wheelchair": "yes",
                        "second_hand": "no",
                        "brand:wikidata": "Q482539"
                    },
                    "distance": 1975.86859013
                },
                {
                    "id": 10236775568,
                    "tags": {
                        "name": "Catalog",
                        "shop": "clothes"
                    },
                    "distance": 2009.51843934
                },
                {
                    "id": 10236792622,
                    "tags": {
                        "name": "Connor",
                        "shop": "clothes",
                        "brand": "Connor",
                        "level": "0",
                        "phone": "+61 3 7007 8054",
                        "branch": "DFO Moorabbin",
                        "clothes": "men",
                        "toilets": "no",
                        "operator": "Retail Apparel Group",
                        "addr:unit": "Shop G-041",
                        "kids_area": "no",
                        "wheelchair": "yes",
                        "addr:street": "Centre Dandenong Road",
                        "second_hand": "no",
                        "opening_hours": "Mo-Su 10:00-18:00",
                        "addr:housename": "DFO Moorabbin",
                        "brand:wikidata": "Q113468988",
                        "changing_table": "no",
                        "addr:housenumber": "250",
                        "operator:ref:abn": "53087433029",
                        "operator:wikidata": "Q111952124"
                    },
                    "distance": 2017.44611157
                },
                {
                    "id": 10236775564,
                    "tags": {
                        "name": "Portmans",
                        "shop": "clothes",
                        "brand": "Portmans",
                        "clothes": "women",
                        "brand:wikidata": "Q118383252"
                    },
                    "distance": 2025.69893646
                }
            ]
        },
        "4": {
            "execution_time": 0.027906417846679688,
            "results": [
                {
                    "id": 9669639026,
                    "tags": {
                        "amenity": "bench"
                    },
                    "distance": 263.75923056
                },
                {
                    "id": 9669639025,
                    "tags": {
                        "amenity": "bench"
                    },
                    "distance": 272.12279499
                },
                {
                    "id": 9669639028,
                    "tags": {
                        "amenity": "bench"
                    },
                    "distance": 282.63628665
                },
                {
                    "id": 9669639027,
                    "tags": {
                        "amenity": "bench"
                    },
                    "distance": 300.14369007
                },
                {
                    "id": 10175111965,
                    "tags": {
                        "amenity": "bench"
                    },
                    "distance": 743.71649022
                },
                {
                    "id": 5258763321,
                    "tags": {
                        "amenity": "bench",
                        "backrest": "yes"
                    },
                    "distance": 956.0451031
                },
                {
                    "id": 5258763322,
                    "tags": {
                        "amenity": "bench",
                        "backrest": "yes"
                    },
                    "distance": 969.13861895
                },
                {
                    "id": 5288820452,
                    "tags": {
                        "amenity": "bench",
                        "backrest": "yes",
                        "material": "wood"
                    },
                    "distance": 988.79859132
                },
                {
                    "id": 5258726621,
                    "tags": {
                        "amenity": "bench",
                        "backrest": "yes"
                    },
                    "distance": 1031.18566981
                },
                {
                    "id": 5258760278,
                    "tags": {
                        "amenity": "bench",
                        "backrest": "yes"
                    },
                    "distance": 1077.91869061
                }
            ]
        },
        "5": {
            "execution_time": 0.017613887786865234,
            "results": [
                {
                    "id": 4901271941,
                    "tags": {
                        "name": "Abby's Pizza & Fish 'n' Chips",
                        "amenity": "restaurant",
                        "cuisine": "fish_and_chips;pizza",
                        "website": "https://abbyspizzaandfishnchips.com.au/",
                        "addr:street": "Queen Street",
                        "addr:suburb": "Altona Meadows",
                        "addr:postcode": "3028",
                        "outdoor_seating": "no",
                        "addr:housenumber": "307"
                    },
                    "distance": 495.10383679
                },
                {
                    "id": 5070542022,
                    "tags": {
                        "name": "La Porchetta",
                        "amenity": "restaurant",
                        "cuisine": "pizza",
                        "name:en": "La Porchetta"
                    },
                    "distance": 705.28957372
                },
                {
                    "id": 6371453481,
                    "tags": {
                        "name": "Spice Junction",
                        "phone": "+61 3 9931 0826",
                        "amenity": "restaurant",
                        "cuisine": "indian",
                        "delivery": "yes",
                        "takeaway": "yes",
                        "addr:unit": "2",
                        "addr:street": "Neville Avenue",
                        "addr:suburb": "Laverton",
                        "addr:postcode": "3028",
                        "addr:housenumber": "6"
                    },
                    "distance": 2283.65852327
                },
                {
                    "id": 7998321310,
                    "tags": {
                        "name": "Dragon Temple Restaurant",
                        "amenity": "restaurant",
                        "cuisine": "chinese",
                        "addr:state": "VIC",
                        "addr:street": "Somers Parade",
                        "addr:suburb": "Altona",
                        "addr:postcode": "3018",
                        "addr:housenumber": "25"
                    },
                    "distance": 2519.54603114
                },
                {
                    "id": 4776007452,
                    "tags": {
                        "name": "Pirate Pizza",
                        "amenity": "restaurant",
                        "cuisine": "pizza",
                        "delivery": "yes",
                        "takeaway": "yes",
                        "addr:street": "Bladin Street",
                        "addr:suburb": "Laverton",
                        "addr:postcode": "3028",
                        "opening_hours": "17:00-22:00",
                        "addr:housenumber": "60"
                    },
                    "distance": 2779.69246247
                },
                {
                    "id": 10711778232,
                    "tags": {
                        "name": "Siam Secret",
                        "amenity": "restaurant",
                        "cuisine": "thai",
                        "addr:state": "VIC",
                        "addr:street": "Harrington Square",
                        "addr:suburb": "Altona",
                        "addr:postcode": "3018",
                        "addr:housenumber": "24"
                    },
                    "distance": 2936.64145165
                },
                {
                    "id": 9536438065,
                    "tags": {
                        "name": "Oye Bombay",
                        "amenity": "restaurant",
                        "cuisine": "indian",
                        "addr:state": "VIC",
                        "addr:street": "Harrington Square",
                        "addr:suburb": "Altona",
                        "addr:postcode": "3018",
                        "addr:housenumber": "23"
                    },
                    "distance": 2942.60149704
                },
                {
                    "id": 8649164362,
                    "tags": {
                        "name": "Pizza Hut",
                        "brand": "Pizza Hut",
                        "amenity": "restaurant",
                        "cuisine": "pizza",
                        "brand:wikidata": "Q191615",
                        "brand:wikipedia": "en:Pizza Hut"
                    },
                    "distance": 3314.90225815
                },
                {
                    "id": 2251431732,
                    "tags": {
                        "name": "Coast Caf\u00e9",
                        "amenity": "restaurant",
                        "cuisine": "thai"
                    },
                    "distance": 3993.17733922
                },
                {
                    "id": 2381900404,
                    "tags": {
                        "name": "Saigon Sun",
                        "source": "Surag",
                        "amenity": "restaurant",
                        "cuisine": "vietnamese",
                        "addr:street": "Railway Street South",
                        "addr:postcode": "3018",
                        "addr:housename": "84 Railway St S Altona VIC 3018",
                        "addr:housenumber": "84 Railway St S Altona VIC 3018"
                    },
                    "distance": 4179.72047647
                }
            ]
        },
        "6": {
            "execution_time": 0.012592554092407227,
            "results": []
        },
        "7": {
            "execution_time": 0.0053937435150146484,
            "results": []
        },
        "8": {
            "execution_time": 0.014271020889282227,
            "results": []
        },
        "9": {
            "execution_time": 0.02435469627380371,
            "results": [
                {
                    "id": 12547809136,
                    "tags": {
                        "lit": "no",
                        "access": "yes",
                        "colour": "brown",
                        "source": "survey",
                        "amenity": "bench",
                        "armrest": "no",
                        "backrest": "yes",
                        "material": "wood",
                        "check_date": "2025-02-01"
                    },
                    "distance": 434.52477624
                },
                {
                    "id": 12547809144,
                    "tags": {
                        "lit": "no",
                        "access": "yes",
                        "colour": "brown",
                        "source": "survey",
                        "amenity": "bench",
                        "armrest": "no",
                        "backrest": "yes",
                        "material": "wood",
                        "check_date": "2025-02-01"
                    },
                    "distance": 459.11337115
                },
                {
                    "id": 12547809149,
                    "tags": {
                        "lit": "no",
                        "access": "yes",
                        "colour": "brown",
                        "source": "survey",
                        "amenity": "bench",
                        "armrest": "no",
                        "backrest": "yes",
                        "material": "wood",
                        "check_date": "2025-02-01"
                    },
                    "distance": 475.18001149
                },
                {
                    "id": 12547809176,
                    "tags": {
                        "amenity": "bench",
                        "armrest": "no",
                        "backrest": "yes",
                        "material": "wood"
                    },
                    "distance": 475.45011214
                },
                {
                    "id": 12547809186,
                    "tags": {
                        "lit": "no",
                        "access": "yes",
                        "colour": "brown",
                        "source": "survey",
                        "amenity": "bench",
                        "armrest": "no",
                        "backrest": "yes",
                        "material": "wood",
                        "check_date": "2025-02-01"
                    },
                    "distance": 477.20155233
                },
                {
                    "id": 12547809183,
                    "tags": {
                        "lit": "no",
                        "access": "yes",
                        "colour": "brown",
                        "amenity": "bench",
                        "armrest": "no",
                        "backrest": "yes"
                    },
                    "distance": 486.67692639
                },
                {
                    "id": 12547809140,
                    "tags": {
                        "access": "yes",
                        "colour": "brown",
                        "source": "survey",
                        "amenity": "bench",
                        "armrest": "no",
                        "backrest": "yes",
                        "material": "wood",
                        "check_date": "2025-02-01"
                    },
                    "distance": 500.23385103
                },
                {
                    "id": 12547809157,
                    "tags": {
                        "access": "yes",
                        "colour": "brown",
                        "source": "survey",
                        "amenity": "bench",
                        "armrest": "no",
                        "backrest": "yes",
                        "material": "wood",
                        "check_date": "2025-02-01"
                    },
                    "distance": 514.99958653
                },
                {
                    "id": 12547809146,
                    "tags": {
                        "lit": "no",
                        "access": "yes",
                        "colour": "brown",
                        "source": "survey",
                        "amenity": "bench",
                        "armrest": "no",
                        "backrest": "yes",
                        "material": "wood",
                        "check_date": "2025-02-01"
                    },
                    "distance": 535.39712358
                },
                {
                    "id": 12547809185,
                    "tags": {
                        "lit": "no",
                        "access": "yes",
                        "colour": "brown",
                        "source": "survey",
                        "amenity": "bench",
                        "armrest": "no",
                        "backrest": "yes",
                        "material": "wood",
                        "check_date": "2025-02-01"
                    },
                    "distance": 563.31483119
                }
            ]
        },
        "10": {
            "execution_time": 0.005400180816650391,
            "results": []
        },
        "11": {
            "execution_time": 0.0262911319732666,
            "results": [
                {
                    "id": 2669782451,
                    "tags": {
                        "amenity": "waste_basket"
                    },
                    "distance": 1586.15963892
                },
                {
                    "id": 4689910373,
                    "tags": {
                        "amenity": "waste_basket"
                    },
                    "distance": 1618.49681795
                },
                {
                    "id": 4199576612,
                    "tags": {
                        "amenity": "waste_basket"
                    },
                    "distance": 1773.94924507
                },
                {
                    "id": 4678134785,
                    "tags": {
                        "amenity": "waste_basket"
                    },
                    "distance": 1891.56295809
                },
                {
                    "id": 2694285224,
                    "tags": {
                        "amenity": "waste_basket"
                    },
                    "distance": 1933.05038392
                },
                {
                    "id": 4697222047,
                    "tags": {
                        "amenity": "waste_basket"
                    },
                    "distance": 1943.74059408
                },
                {
                    "id": 11676101717,
                    "tags": {
                        "amenity": "waste_basket"
                    },
                    "distance": 1997.46533058
                },
                {
                    "id": 4199576607,
                    "tags": {
                        "amenity": "waste_basket"
                    },
                    "distance": 2049.4928257
                },
                {
                    "id": 2669599319,
                    "tags": {
                        "amenity": "waste_basket"
                    },
                    "distance": 2142.70171159
                },
                {
                    "id": 2669906217,
                    "tags": {
                        "amenity": "waste_basket"
                    },
                    "distance": 2190.20980983
                }
            ]
        },
        "12": {
            "execution_time": 0.01902937889099121,
            "results": [
                {
                    "id": 10748148741,
                    "tags": {
                        "amenity": "cafe"
                    },
                    "distance": 110.60129622
                },
                {
                    "id": 10010494122,
                    "tags": {
                        "name": "Monza Carspa & Cafe",
                        "amenity": "cafe",
                        "addr:street": "Melville Road",
                        "addr:suburb": "Pascoe Vale South",
                        "addr:postcode": "3044",
                        "addr:housenumber": "1"
                    },
                    "distance": 337.51290515
                },
                {
                    "id": 10237566236,
                    "tags": {
                        "name": "Dope Donuts",
                        "amenity": "cafe",
                        "website": "https://www.facebook.com/people/Dope-Donuts/100057099264147/",
                        "addr:street": "Moreland Road",
                        "addr:postcode": "3055",
                        "addr:housenumber": "366"
                    },
                    "distance": 682.15257454
                },
                {
                    "id": 2128117105,
                    "tags": {
                        "name": "LoLo & Wren",
                        "amenity": "cafe"
                    },
                    "distance": 690.34872112
                },
                {
                    "id": 11571700051,
                    "tags": {
                        "amenity": "cafe"
                    },
                    "distance": 717.38801126
                },
                {
                    "id": 6649034985,
                    "tags": {
                        "name": "Good Times",
                        "amenity": "cafe",
                        "cuisine": "cake;coffee_shop",
                        "addr:street": "Melville Road",
                        "addr:housenumber": "148"
                    },
                    "distance": 735.5566554
                },
                {
                    "id": 7409891737,
                    "tags": {
                        "name": "Mister & Missus M",
                        "amenity": "cafe"
                    },
                    "distance": 797.43893902
                },
                {
                    "id": 11578525506,
                    "tags": {
                        "name": "Mr Walker",
                        "amenity": "cafe",
                        "toilets": "yes",
                        "drive_through": "no",
                        "outdoor_seating": "yes"
                    },
                    "distance": 1138.13788516
                },
                {
                    "id": 3954505533,
                    "tags": {
                        "name": "Two Franks",
                        "amenity": "cafe",
                        "website": "https://www.twofranks.com.au/",
                        "addr:state": "VIC",
                        "addr:street": "Reynard Street",
                        "addr:suburb": "Coburg",
                        "addr:postcode": "3058",
                        "outdoor_seating": "no",
                        "addr:housenumber": "202"
                    },
                    "distance": 1176.00610848
                },
                {
                    "id": 34051906,
                    "tags": {
                        "name": "Roy's on Melville",
                        "phone": "+61 3 9388 2006",
                        "amenity": "cafe",
                        "cuisine": "pizza",
                        "takeaway": "yes",
                        "addr:state": "VIC",
                        "addr:street": "Melville Road",
                        "addr:suburb": "Brunswick West",
                        "addr:country": "AU",
                        "addr:postcode": "3055",
                        "outdoor_seating": "yes"
                    },
                    "distance": 1378.07121403
                }
            ]
        },
        "13": {
            "execution_time": 0.016223430633544922,
            "results": [
                {
                    "id": 10597938986,
                    "tags": {
                        "access": "private",
                        "amenity": "parking_entrance",
                        "parking": "underground"
                    },
                    "distance": 2835.71466602
                },
                {
                    "id": 9737038147,
                    "tags": {
                        "access": "yes",
                        "amenity": "parking_entrance",
                        "parking": "multi-storey"
                    },
                    "distance": 2976.01580156
                },
                {
                    "id": 10115654093,
                    "tags": {
                        "access": "private",
                        "amenity": "parking_entrance"
                    },
                    "distance": 3000.59904579
                },
                {
                    "id": 10115654095,
                    "tags": {
                        "access": "private",
                        "amenity": "parking_entrance"
                    },
                    "distance": 3015.88069358
                },
                {
                    "id": 6449257438,
                    "tags": {
                        "amenity": "parking_entrance"
                    },
                    "distance": 3101.95338221
                },
                {
                    "id": 6449257392,
                    "tags": {
                        "amenity": "parking_entrance"
                    },
                    "distance": 3158.88072707
                },
                {
                    "id": 9351719593,
                    "tags": {
                        "amenity": "parking_entrance"
                    },
                    "distance": 3175.5555673
                },
                {
                    "id": 10595111650,
                    "tags": {
                        "access": "customers",
                        "amenity": "parking_entrance",
                        "parking": "underground"
                    },
                    "distance": 3228.2944272
                },
                {
                    "id": 11328388299,
                    "tags": {
                        "access": "customers",
                        "amenity": "parking_entrance",
                        "parking": "surface"
                    },
                    "distance": 3954.37800632
                },
                {
                    "id": 9116048048,
                    "tags": {
                        "amenity": "parking_entrance"
                    },
                    "distance": 4126.78720431
                }
            ]
        },
        "14": {
            "execution_time": 0.019474506378173828,
            "results": [
                {
                    "id": 2191594607,
                    "tags": {
                        "amenity": "parking_entrance"
                    },
                    "distance": 3838.86703172
                },
                {
                    "id": 7308953115,
                    "tags": {
                        "amenity": "parking_entrance"
                    },
                    "distance": 3992.45908224
                },
                {
                    "id": 1253857435,
                    "tags": {
                        "amenity": "parking_entrance"
                    },
                    "distance": 4177.49358029
                },
                {
                    "id": 7311793105,
                    "tags": {
                        "amenity": "parking_entrance",
                        "parking": "multi-storey"
                    },
                    "distance": 4311.82556807
                },
                {
                    "id": 7311793140,
                    "tags": {
                        "amenity": "parking_entrance",
                        "parking": "multi-storey"
                    },
                    "distance": 4315.1945377
                },
                {
                    "id": 1253856996,
                    "tags": {
                        "amenity": "parking_entrance"
                    },
                    "distance": 4319.59006206
                },
                {
                    "id": 1253855077,
                    "tags": {
                        "amenity": "parking_entrance"
                    },
                    "distance": 4360.78927764
                },
                {
                    "id": 12229465742,
                    "tags": {
                        "amenity": "parking_entrance"
                    },
                    "distance": 6612.44396287
                },
                {
                    "id": 9593198463,
                    "tags": {
                        "access": "private",
                        "amenity": "parking_entrance",
                        "parking": "underground"
                    },
                    "distance": 7359.95333558
                },
                {
                    "id": 9162143659,
                    "tags": {
                        "amenity": "parking_entrance"
                    },
                    "distance": 7365.99950179
                }
            ]
        },
        "15": {
            "execution_time": 0.012386798858642578,
            "results": [
                {
                    "id": 2476135852,
                    "tags": {
                        "name": "Alitalia",
                        "shop": "florist",
                        "phone": "+61 3 9359 2962",
                        "addr:street": "Anderson Road",
                        "opening_hours": "Mo-Fr 08:00-16:30; Sa 08:00-17:00; Su 08:00-16:00",
                        "addr:housenumber": "85"
                    },
                    "distance": 420.04152585
                },
                {
                    "id": 2488171188,
                    "tags": {
                        "shop": "florist"
                    },
                    "distance": 2869.41276663
                },
                {
                    "id": 11432192602,
                    "tags": {
                        "name": "Westbreen Florist",
                        "shop": "florist",
                        "website": "http://www.westbreenflorist.com.au/",
                        "phone:AU": "1800 813 994",
                        "wheelchair": "yes",
                        "addr:street": "Boundary Road",
                        "addr:country": "AU",
                        "addr:postcode": "3044",
                        "addr:housenumber": "Shop 1 178"
                    },
                    "distance": 3229.61446685
                },
                {
                    "id": 7089882843,
                    "tags": {
                        "name": "Alnor Art Florist",
                        "shop": "florist",
                        "phone": "+61 410 449 999",
                        "website": "https://www.alnorartfloristflowers.com.au/",
                        "addr:street": "Edwardes Street",
                        "opening_hours": "Mo-Fr 08:00-18:00; Sa 08:00-16:00; Su 08:00-14:00",
                        "addr:housenumber": "60"
                    },
                    "distance": 4198.84762272
                },
                {
                    "id": 6648580138,
                    "tags": {
                        "name": "Lilypad Florist",
                        "shop": "florist"
                    },
                    "distance": 4448.98316213
                },
                {
                    "id": 2466461558,
                    "tags": {
                        "name": "Anthos",
                        "shop": "florist"
                    },
                    "distance": 4528.30396816
                },
                {
                    "id": 8840425049,
                    "tags": {
                        "name": "Bountiful Garden Florist",
                        "shop": "florist"
                    },
                    "distance": 4877.91365058
                },
                {
                    "id": 5222791658,
                    "tags": {
                        "shop": "florist"
                    },
                    "distance": 5047.24451202
                },
                {
                    "id": 8558715812,
                    "tags": {
                        "name": "Living Flowers",
                        "shop": "florist",
                        "addr:street": "Bell Street",
                        "addr:housenumber": "430"
                    },
                    "distance": 5423.11721814
                },
                {
                    "id": 11953020671,
                    "tags": {
                        "shop": "florist"
                    },
                    "distance": 5599.42547324
                }
            ]
        },
        "16": {
            "execution_time": 0.008692741394042969,
            "results": []
        },
        "17": {
            "execution_time": 0.016006946563720703,
            "results": [
                {
                    "id": 12433020146,
                    "tags": {
                        "amenity": "bench"
                    },
                    "distance": 340.94417123
                },
                {
                    "id": 12236451909,
                    "tags": {
                        "source": "mapillary",
                        "amenity": "bench"
                    },
                    "distance": 591.03475811
                },
                {
                    "id": 12236451901,
                    "tags": {
                        "source": "mapillary",
                        "amenity": "bench"
                    },
                    "distance": 593.69543751
                },
                {
                    "id": 12236446200,
                    "tags": {
                        "source": "mapillary",
                        "amenity": "bench"
                    },
                    "distance": 595.12169783
                },
                {
                    "id": 12236451907,
                    "tags": {
                        "source": "mapillary",
                        "amenity": "bench"
                    },
                    "distance": 596.38967977
                },
                {
                    "id": 11817969941,
                    "tags": {
                        "amenity": "bench",
                        "backrest": "yes"
                    },
                    "distance": 2053.26550161
                },
                {
                    "id": 5591683709,
                    "tags": {
                        "seats": "4",
                        "amenity": "bench",
                        "backrest": "yes",
                        "material": "wood"
                    },
                    "distance": 2078.15873995
                },
                {
                    "id": 9495459345,
                    "tags": {
                        "amenity": "bench"
                    },
                    "distance": 2113.70113363
                },
                {
                    "id": 9495459346,
                    "tags": {
                        "amenity": "bench"
                    },
                    "distance": 2121.25868387
                },
                {
                    "id": 9495459347,
                    "tags": {
                        "amenity": "bench"
                    },
                    "distance": 2165.3245234
                }
            ]
        },
        "18": {
            "execution_time": 0.005937337875366211,
            "results": []
        },
        "19": {
            "execution_time": 0.013109445571899414,
            "results": []
        },
        "20": {
            "execution_time": 0.010690927505493164,
            "results": []
        },
        "21": {
            "execution_time": 0.0206606388092041,
            "results": [
                {
                    "id": 2450391015,
                    "tags": {
                        "amenity": "bbq"
                    },
                    "distance": 1228.80649007
                },
                {
                    "id": 2450406641,
                    "tags": {
                        "amenity": "bbq"
                    },
                    "distance": 1811.31071437
                },
                {
                    "id": 2450401192,
                    "tags": {
                        "amenity": "bbq"
                    },
                    "distance": 1871.93667065
                },
                {
                    "id": 2266638019,
                    "tags": {
                        "amenity": "bbq"
                    },
                    "distance": 2218.75541416
                },
                {
                    "id": 9974155156,
                    "tags": {
                        "amenity": "bbq"
                    },
                    "distance": 3992.75504658
                },
                {
                    "id": 1818323929,
                    "tags": {
                        "amenity": "bbq"
                    },
                    "distance": 4231.3539994
                },
                {
                    "id": 1818324157,
                    "tags": {
                        "amenity": "bbq"
                    },
                    "distance": 4242.1341346
                },
                {
                    "id": 5590327903,
                    "tags": {
                        "fuel": "electric",
                        "amenity": "bbq"
                    },
                    "distance": 4870.05538786
                },
                {
                    "id": 8917616550,
                    "tags": {
                        "amenity": "bbq"
                    },
                    "distance": 4945.70905254
                },
                {
                    "id": 1432590994,
                    "tags": {
                        "amenity": "bbq"
                    },
                    "distance": 5896.65659491
                }
            ]
        },
        "22": {
            "execution_time": 0.017373323440551758,
            "results": [
                {
                    "id": 5076265979,
                    "tags": {
                        "name": "Hill Crest Medical Centre",
                        "amenity": "clinic",
                        "healthcare": "clinic",
                        "addr:street": "Bell Street",
                        "addr:housenumber": "18-22"
                    },
                    "distance": 735.3486714
                },
                {
                    "id": 5076265973,
                    "tags": {
                        "name": "Mount Street Medical Centre",
                        "amenity": "clinic",
                        "healthcare": "clinic",
                        "opening_hours": "Mo-Fr 08:30-18:30; Sa 08:30-12:00; Su off"
                    },
                    "distance": 769.02124818
                },
                {
                    "id": 9107756454,
                    "tags": {
                        "name": "Waterdale Medical Specialist Rooms",
                        "amenity": "clinic",
                        "healthcare": "clinic",
                        "addr:street": "Waterdale Road",
                        "operator:type": "private",
                        "addr:housenumber": "249"
                    },
                    "distance": 944.0541924
                },
                {
                    "id": 10259361576,
                    "tags": {
                        "name": "Ivanhoe Endoscopy Centre",
                        "amenity": "clinic",
                        "website": "https://ivanhoeendoscopy.com.au/",
                        "addr:unit": "Suite 2",
                        "healthcare": "clinic",
                        "addr:street": "Upper Heidelberg Road",
                        "addr:housenumber": "226"
                    },
                    "distance": 1092.29510027
                },
                {
                    "id": 5076266000,
                    "tags": {
                        "name": "Ostopathic Clinic",
                        "amenity": "clinic",
                        "opening_hours:signed": "no"
                    },
                    "distance": 1220.06614041
                },
                {
                    "id": 4064596500,
                    "tags": {
                        "name": "Bellfield Medical Centre",
                        "amenity": "clinic",
                        "healthcare": "clinic",
                        "addr:street": "Bell Street",
                        "addr:housenumber": "337"
                    },
                    "distance": 1831.48170414
                },
                {
                    "id": 9110130600,
                    "tags": {
                        "name": "The Local Doctor",
                        "amenity": "clinic",
                        "healthcare": "clinic"
                    },
                    "distance": 1975.03902871
                },
                {
                    "id": 5150707328,
                    "tags": {
                        "name": "The Osteo Group",
                        "amenity": "clinic",
                        "healthcare": "clinic",
                        "addr:street": "Rosanna Road ",
                        "addr:housenumber": "190"
                    },
                    "distance": 2593.38999701
                },
                {
                    "id": 5076265971,
                    "tags": {
                        "name": "The Surgery",
                        "amenity": "clinic",
                        "healthcare": "clinic"
                    },
                    "distance": 2617.76956859
                },
                {
                    "id": 4099025132,
                    "tags": {
                        "amenity": "clinic"
                    },
                    "distance": 2973.4846839
                }
            ]
        },
        "23": {
            "execution_time": 0.010383129119873047,
            "results": []
        },
        "24": {
            "execution_time": 0.010701179504394531,
            "results": []
        },
        "25": {
            "execution_time": 0.007038116455078125,
            "results": []
        },
        "26": {
            "execution_time": 0.01954817771911621,
            "results": [
                {
                    "id": 1406592744,
                    "tags": {
                        "name": "The Pint of Milk",
                        "amenity": "cafe"
                    },
                    "distance": 275.8400654
                },
                {
                    "id": 6869122848,
                    "tags": {
                        "name": "Indi Kitch",
                        "amenity": "cafe",
                        "cuisine": "coffee_shop;asian",
                        "addr:state": "VIC",
                        "addr:street": "Melbourne Road",
                        "addr:suburb": "Newport",
                        "addr:postcode": "3015",
                        "addr:housenumber": "451"
                    },
                    "distance": 1201.17740036
                },
                {
                    "id": 4017426056,
                    "tags": {
                        "name": "Routleys Bakery",
                        "amenity": "cafe",
                        "addr:state": "VIC",
                        "addr:street": "Mason Street",
                        "addr:suburb": "Newport",
                        "addr:postcode": "3015",
                        "opening_hours": "Mo-Fr 06:00-17:00; Sa 07:00-17:00; Su 07:30-17:00",
                        "outdoor_seating": "yes",
                        "addr:housenumber": "33a"
                    },
                    "distance": 1230.27554173
                },
                {
                    "id": 3881388149,
                    "tags": {
                        "name": "Parade Deli",
                        "amenity": "cafe"
                    },
                    "distance": 1278.29695567
                },
                {
                    "id": 9728609951,
                    "tags": {
                        "name": "Crowded House",
                        "phone": "+61 3 9397 5526",
                        "amenity": "cafe",
                        "cuisine": "cafe;breakfast;brunch;lunch",
                        "website": "https://m.facebook.com/Crowded-House-Cafe-Ferguson-Street-Williamstown-291901187518260/",
                        "addr:state": "VIC",
                        "addr:street": "Ferguson Street",
                        "addr:suburb": "Williamstown",
                        "addr:postcode": "3016",
                        "opening_hours": "Mo-Fr 07:00-15:00; Sa-Su 08:00-15:00",
                        "outdoor_seating": "yes",
                        "addr:housenumber": "48"
                    },
                    "distance": 1350.95091997
                },
                {
                    "id": 5050859657,
                    "tags": {
                        "name": "Newport 1881",
                        "amenity": "cafe",
                        "addr:state": "VIC",
                        "addr:street": "Mason Street",
                        "addr:suburb": "Newport",
                        "addr:postcode": "3015",
                        "addr:housenumber": "34"
                    },
                    "distance": 1363.01769644
                },
                {
                    "id": 12198320461,
                    "tags": {
                        "name": "Coffeeism",
                        "amenity": "cafe",
                        "addr:unit": "10",
                        "addr:state": "VIC",
                        "addr:street": "Kororoit Creek Road",
                        "addr:suburb": "Williamstown",
                        "addr:postcode": "3016",
                        "opening_hours": "06:30-14:00",
                        "addr:housenumber": "71-79"
                    },
                    "distance": 1497.48854379
                },
                {
                    "id": 3647371170,
                    "tags": {
                        "name": "Candied Bakery",
                        "amenity": "cafe",
                        "addr:state": "VIC",
                        "addr:street": "Hall Street",
                        "addr:postcode": "3015",
                        "opening_hours": "Tu-Sa 07:00-15:30; Su 07:30-15:30",
                        "addr:housenumber": "136"
                    },
                    "distance": 1604.93832932
                },
                {
                    "id": 2330236112,
                    "tags": {
                        "name": "Tick Tok",
                        "amenity": "cafe",
                        "addr:state": "VIC",
                        "addr:street": "Nelson Place",
                        "addr:suburb": "Williamstown",
                        "addr:postcode": "3016",
                        "outdoor_seating": "yes",
                        "addr:housenumber": "181"
                    },
                    "distance": 1903.02091655
                },
                {
                    "id": 9774418624,
                    "tags": {
                        "name": "Scwabs Galley",
                        "amenity": "cafe",
                        "addr:state": "VIC",
                        "addr:street": "Nelson Place",
                        "addr:suburb": "Williamstown",
                        "addr:postcode": "3016",
                        "outdoor_seating": "yes",
                        "addr:housenumber": "165"
                    },
                    "distance": 1940.03278475
                }
            ]
        },
        "27": {
            "execution_time": 0.014286518096923828,
            "results": []
        },
        "28": {
            "execution_time": 0.008808374404907227,
            "results": []
        },
        "29": {
            "execution_time": 0.017056703567504883,
            "results": [
                {
                    "id": 8527251555,
                    "tags": {
                        "amenity": "bbq"
                    },
                    "distance": 108.14534368
                },
                {
                    "id": 9250342474,
                    "tags": {
                        "amenity": "bbq"
                    },
                    "distance": 749.29407903
                },
                {
                    "id": 9250342475,
                    "tags": {
                        "amenity": "bbq"
                    },
                    "distance": 752.25905815
                },
                {
                    "id": 12474553119,
                    "tags": {
                        "fuel": "electric",
                        "amenity": "bbq",
                        "covered": "no"
                    },
                    "distance": 1695.30831928
                },
                {
                    "id": 1121661146,
                    "tags": {
                        "amenity": "bbq",
                        "check_date": "2022-01-28"
                    },
                    "distance": 1822.73773037
                },
                {
                    "id": 1121661117,
                    "tags": {
                        "amenity": "bbq",
                        "check_date": "2022-01-28"
                    },
                    "distance": 1832.61677959
                },
                {
                    "id": 1121661217,
                    "tags": {
                        "amenity": "bbq",
                        "check_date": "2022-01-28"
                    },
                    "distance": 1898.70112465
                },
                {
                    "id": 12474497407,
                    "tags": {
                        "fuel": "electric",
                        "amenity": "bbq",
                        "covered": "no"
                    },
                    "distance": 2135.47422301
                },
                {
                    "id": 4558405012,
                    "tags": {
                        "amenity": "bbq"
                    },
                    "distance": 2946.37786964
                },
                {
                    "id": 8370065597,
                    "tags": {
                        "amenity": "bbq"
                    },
                    "distance": 2987.43483553
                }
            ]
        },
        "30": {
            "execution_time": 0.005584239959716797,
            "results": []
        },
        "31": {
            "execution_time": 0.007390260696411133,
            "results": []
        },
        "32": {
            "execution_time": 0.010975360870361328,
            "results": []
        },
        "33": {
            "execution_time": 0.018523693084716797,
            "results": [
                {
                    "id": 11572236411,
                    "tags": {
                        "amenity": "bench",
                        "backrest": "no",
                        "material": "wood"
                    },
                    "distance": 50.92298045
                },
                {
                    "id": 11572236403,
                    "tags": {
                        "amenity": "bench",
                        "backrest": "no",
                        "material": "concrete"
                    },
                    "distance": 67.42166236
                },
                {
                    "id": 11572236410,
                    "tags": {
                        "amenity": "bench",
                        "backrest": "no",
                        "material": "concrete"
                    },
                    "distance": 73.91916153
                },
                {
                    "id": 11572236392,
                    "tags": {
                        "amenity": "bench",
                        "backrest": "no",
                        "material": "concrete"
                    },
                    "distance": 79.66807495
                },
                {
                    "id": 11572236406,
                    "tags": {
                        "colour": "brown",
                        "amenity": "bench",
                        "backrest": "yes",
                        "material": "wood"
                    },
                    "distance": 96.48943695
                },
                {
                    "id": 11572236399,
                    "tags": {
                        "colour": "brown",
                        "amenity": "bench",
                        "backrest": "yes",
                        "material": "wood"
                    },
                    "distance": 97.46024324
                },
                {
                    "id": 11572236390,
                    "tags": {
                        "colour": "brown",
                        "amenity": "bench",
                        "backrest": "yes",
                        "material": "wood"
                    },
                    "distance": 104.6873147
                },
                {
                    "id": 11572236397,
                    "tags": {
                        "lit": "no",
                        "seats": "3",
                        "colour": "brown",
                        "amenity": "bench",
                        "backrest": "yes",
                        "material": "wood"
                    },
                    "distance": 113.65622501
                },
                {
                    "id": 11527648496,
                    "tags": {
                        "access": "yes",
                        "colour": "brown",
                        "amenity": "bench",
                        "backrest": "yes",
                        "material": "wood"
                    },
                    "distance": 125.11197745
                },
                {
                    "id": 11572236404,
                    "tags": {
                        "amenity": "bench",
                        "backrest": "yes",
                        "material": "concrete"
                    },
                    "distance": 126.36352644
                }
            ]
        },
        "34": {
            "execution_time": 0.015879154205322266,
            "results": [
                {
                    "id": 9687083047,
                    "tags": {
                        "fixme": "There is a drink tap around this location, but hard to see on satellite so it is not accurate.",
                        "amenity": "drinking_water"
                    },
                    "distance": 1115.37748165
                },
                {
                    "id": 9584819857,
                    "tags": {
                        "fee": "no",
                        "access": "yes",
                        "bottle": "yes",
                        "amenity": "drinking_water",
                        "operator": "Wyndham City Council",
                        "wheelchair": "yes"
                    },
                    "distance": 2004.13163731
                },
                {
                    "id": 9588841950,
                    "tags": {
                        "fee": "no",
                        "bottle": "no",
                        "amenity": "drinking_water",
                        "wheelchair": "yes"
                    },
                    "distance": 2786.28968723
                },
                {
                    "id": 4967372348,
                    "tags": {
                        "amenity": "drinking_water"
                    },
                    "distance": 4293.30207683
                },
                {
                    "id": 4060938237,
                    "tags": {
                        "amenity": "drinking_water"
                    },
                    "distance": 4505.55446483
                },
                {
                    "id": 4060929187,
                    "tags": {
                        "amenity": "drinking_water"
                    },
                    "distance": 4954.53180416
                },
                {
                    "id": 10292558210,
                    "tags": {
                        "amenity": "drinking_water"
                    },
                    "distance": 5175.58712765
                },
                {
                    "id": 10292525103,
                    "tags": {
                        "amenity": "drinking_water"
                    },
                    "distance": 5392.08524075
                },
                {
                    "id": 10780735135,
                    "tags": {
                        "name": "Drinking Fountain",
                        "amenity": "drinking_water"
                    },
                    "distance": 5450.92863524
                },
                {
                    "id": 4060929161,
                    "tags": {
                        "fee": "no",
                        "access": "yes",
                        "amenity": "drinking_water"
                    },
                    "distance": 5455.00946556
                }
            ]
        },
        "35": {
            "execution_time": 0.009492635726928711,
            "results": []
        },
        "36": {
            "execution_time": 0.01848578453063965,
            "results": [
                {
                    "id": 9502128788,
                    "tags": {
                        "amenity": "bench"
                    },
                    "distance": 1164.20212201
                },
                {
                    "id": 9485902913,
                    "tags": {
                        "amenity": "bench"
                    },
                    "distance": 1438.79669493
                },
                {
                    "id": 11866439839,
                    "tags": {
                        "amenity": "bench",
                        "backrest": "yes"
                    },
                    "distance": 1800.42868683
                },
                {
                    "id": 11866439838,
                    "tags": {
                        "amenity": "bench",
                        "backrest": "yes"
                    },
                    "distance": 1802.94953324
                },
                {
                    "id": 11866465674,
                    "tags": {
                        "amenity": "bench",
                        "backrest": "yes"
                    },
                    "distance": 1816.80089949
                },
                {
                    "id": 11866465675,
                    "tags": {
                        "amenity": "bench",
                        "backrest": "yes"
                    },
                    "distance": 1840.5384949
                },
                {
                    "id": 11866439837,
                    "tags": {
                        "amenity": "bench",
                        "backrest": "yes"
                    },
                    "distance": 1857.44272787
                },
                {
                    "id": 10284551403,
                    "tags": {
                        "amenity": "bench"
                    },
                    "distance": 1857.97303642
                },
                {
                    "id": 10284551402,
                    "tags": {
                        "amenity": "bench"
                    },
                    "distance": 1862.03652041
                },
                {
                    "id": 11866465676,
                    "tags": {
                        "amenity": "bench",
                        "backrest": "yes"
                    },
                    "distance": 1875.91709666
                }
            ]
        },
        "37": {
            "execution_time": 0.015616178512573242,
            "results": [
                {
                    "id": 8646118958,
                    "tags": {
                        "name": "Daiso Japan",
                        "shop": "variety_store",
                        "brand": "Daiso",
                        "short_name": "Daiso",
                        "brand:wikidata": "Q866991",
                        "brand:wikipedia": "en:Daiso"
                    },
                    "distance": 4673.27882772
                },
                {
                    "id": 8646118957,
                    "tags": {
                        "name": "The Reject Shop",
                        "shop": "variety_store",
                        "brand": "The Reject Shop",
                        "brand:wikidata": "Q7760092",
                        "brand:wikipedia": "en:The Reject Shop"
                    },
                    "distance": 4829.94657196
                },
                {
                    "id": 5009375192,
                    "tags": {
                        "name": "The Reject Shop",
                        "shop": "variety_store",
                        "brand": "The Reject Shop",
                        "addr:unit": "T02",
                        "addr:street": "Tarneit Road",
                        "addr:postcode": "3029",
                        "opening_hours": "Mo-Su 08:30-18:00",
                        "brand:wikidata": "Q7760092",
                        "brand:wikipedia": "en:The Reject Shop",
                        "addr:housenumber": "747"
                    },
                    "distance": 7387.75535889
                }
            ]
        },
        "38": {
            "execution_time": 0.01155710220336914,
            "results": [
                {
                    "id": 2246467872,
                    "tags": {
                        "bin": "yes",
                        "bus": "yes",
                        "lit": "no",
                        "name": "Oakleigh Station",
                        "bench": "yes",
                        "highway": "bus_stop",
                        "shelter": "no",
                        "description": "Train replacement bus stop",
                        "tactile_paving": "no",
                        "public_transport": "platform"
                    },
                    "distance": 1917.9399819
                },
                {
                    "id": 677454002,
                    "tags": {
                        "bus": "yes",
                        "name": "Oakleigh Station",
                        "bench": "yes",
                        "source": "survey",
                        "highway": "bus_stop",
                        "network": "PTV \u2013 Metropolitan Buses",
                        "ref:ptv": "19800",
                        "shelter": "yes",
                        "website": "https://ptv.vic.gov.au/stop/10004",
                        "operator": "Transdev;Ventura;CDC Melbourne",
                        "public_transport": "platform"
                    },
                    "distance": 1950.75128627
                },
                {
                    "id": 12057874477,
                    "tags": {
                        "bus": "yes",
                        "name": "Oakleigh Station",
                        "network": "PTV \u2013 Metropolitan Buses",
                        "ref:ptv": "19800",
                        "website": "https://ptv.vic.gov.au/stop/10004",
                        "operator": "Transdev;Ventura;CDC Melbourne",
                        "public_transport": "stop_position"
                    },
                    "distance": 1952.78758768
                },
                {
                    "id": 8797080025,
                    "tags": {
                        "bus": "yes",
                        "name": "Oakleigh Station",
                        "network": "PTV \u2013 Metropolitan Buses",
                        "ref:ptv": "19800",
                        "website": "https://ptv.vic.gov.au/stop/10004",
                        "operator": "Transdev;Ventura;CDC Melbourne",
                        "public_transport": "stop_position"
                    },
                    "distance": 1953.00467893
                },
                {
                    "id": 8797080024,
                    "tags": {
                        "bus": "yes",
                        "name": "Oakleigh Station",
                        "network": "PTV \u2013 Metropolitan Buses",
                        "ref:ptv": "12964",
                        "website": "https://ptv.vic.gov.au/stop/13989",
                        "operator": "Ventura",
                        "public_transport": "stop_position"
                    },
                    "distance": 1974.50508342
                },
                {
                    "id": 1789715414,
                    "tags": {
                        "bus": "yes",
                        "name": "Oakleigh Station",
                        "source": "survey",
                        "highway": "bus_stop",
                        "network": "PTV \u2013 Metropolitan Buses",
                        "ref:ptv": "12964",
                        "website": "https://ptv.vic.gov.au/stop/13989",
                        "operator": "Ventura",
                        "route_ref": "625;701;733",
                        "public_transport": "platform"
                    },
                    "distance": 1980.97065225
                },
                {
                    "id": 8797080026,
                    "tags": {
                        "bus": "yes",
                        "name": "Oakleigh Station",
                        "network": "PTV \u2013 Metropolitan Buses",
                        "ref:ptv": "19805",
                        "website": "https://ptv.vic.gov.au/stop/10004",
                        "operator": "Transdev;Ventura;CDC Melbourne",
                        "public_transport": "stop_position"
                    },
                    "distance": 1994.29612624
                },
                {
                    "id": 677453210,
                    "tags": {
                        "bin": "no",
                        "bus": "yes",
                        "lit": "no",
                        "name": "Oakleigh Station",
                        "note": "742 to Chadstone, 900 to Caulfield, 903 to Altona",
                        "bench": "yes",
                        "source": "survey",
                        "highway": "bus_stop",
                        "network": "PTV \u2013 Metropolitan Buses",
                        "ref:ptv": "19805",
                        "shelter": "yes",
                        "website": "https://ptv.vic.gov.au/stop/10004",
                        "operator": "Transdev;Ventura;CDC Melbourne",
                        "route_ref": "742;900;903",
                        "tactile_paving": "yes",
                        "public_transport": "platform",
                        "passenger_information_display": "yes"
                    },
                    "distance": 2002.14821368
                },
                {
                    "id": 8797080027,
                    "tags": {
                        "bus": "yes",
                        "name": "Oakleigh Station",
                        "network": "PTV \u2013 Metropolitan Buses",
                        "ref:ptv": "19804",
                        "website": "https://ptv.vic.gov.au/stop/10004",
                        "operator": "Ventura",
                        "public_transport": "stop_position"
                    },
                    "distance": 2013.71344185
                },
                {
                    "id": 677453176,
                    "tags": {
                        "bin": "yes",
                        "bus": "yes",
                        "lit": "no",
                        "name": "Oakleigh Station",
                        "note": "800, 802, 804, 862 to Chadstone",
                        "bench": "yes",
                        "source": "survey",
                        "highway": "bus_stop",
                        "network": "PTV - Metropolitan Buses",
                        "ref:ptv": "19804",
                        "shelter": "yes",
                        "website": "https://ptv.vic.gov.au/stop/10004",
                        "operator": "Ventura",
                        "route_ref": "800;802;804;862",
                        "tactile_paving": "yes",
                        "network:wikidata": "Q7257648",
                        "public_transport": "platform"
                    },
                    "distance": 2019.59643908
                }
            ]
        },
        "39": {
            "execution_time": 0.013198137283325195,
            "results": [
                {
                    "id": 9085329021,
                    "tags": {
                        "amenity": "parking_space",
                        "capacity": "1",
                        "parking_space": "disabled"
                    },
                    "distance": 679.79464375
                },
                {
                    "id": 9085329022,
                    "tags": {
                        "amenity": "parking_space",
                        "capacity": "1",
                        "parking_space": "disabled"
                    },
                    "distance": 712.2528469
                },
                {
                    "id": 12381754190,
                    "tags": {
                        "amenity": "parking_space",
                        "parking_space": "disabled"
                    },
                    "distance": 938.71080633
                },
                {
                    "id": 12381754189,
                    "tags": {
                        "amenity": "parking_space",
                        "parking_space": "disabled"
                    },
                    "distance": 942.48432255
                },
                {
                    "id": 12381754194,
                    "tags": {
                        "amenity": "parking_space",
                        "parking_space": "disabled"
                    },
                    "distance": 950.70177835
                },
                {
                    "id": 12381754191,
                    "tags": {
                        "amenity": "parking_space",
                        "parking_space": "disabled"
                    },
                    "distance": 1017.91209165
                },
                {
                    "id": 12381754192,
                    "tags": {
                        "amenity": "parking_space",
                        "parking_space": "disabled"
                    },
                    "distance": 1035.59135497
                },
                {
                    "id": 12381754193,
                    "tags": {
                        "amenity": "parking_space",
                        "parking_space": "disabled"
                    },
                    "distance": 1100.87974688
                },
                {
                    "id": 9085329058,
                    "tags": {
                        "amenity": "parking_space",
                        "capacity": "1",
                        "parking_space": "disabled"
                    },
                    "distance": 1365.18777232
                },
                {
                    "id": 7821431604,
                    "tags": {
                        "amenity": "parking_space",
                        "capacity": "1",
                        "parking_space": "disabled"
                    },
                    "distance": 1423.49956586
                }
            ]
        },
        "40": {
            "execution_time": 0.02352309226989746,
            "results": [
                {
                    "id": 7441496730,
                    "tags": {
                        "amenity": "toilets"
                    },
                    "distance": 376.60699833
                },
                {
                    "id": 9923615333,
                    "tags": {
                        "access": "private",
                        "amenity": "toilets"
                    },
                    "distance": 610.09852911
                },
                {
                    "id": 10074114556,
                    "tags": {
                        "access": "yes",
                        "unisex": "yes",
                        "amenity": "toilets",
                        "wheelchair": "yes",
                        "changing_table": "yes",
                        "toilets:disposal": "flush"
                    },
                    "distance": 1048.42584295
                },
                {
                    "id": 9644632238,
                    "tags": {
                        "access": "yes",
                        "unisex": "yes",
                        "amenity": "toilets",
                        "wheelchair": "yes",
                        "changing_table": "yes",
                        "toilets:disposal": "flush"
                    },
                    "distance": 1105.22152039
                },
                {
                    "id": 5619037936,
                    "tags": {
                        "unisex": "yes",
                        "amenity": "toilets",
                        "opening_hours": "Mo-Fr 07:00-09:00",
                        "toilets:disposal": "flush"
                    },
                    "distance": 1297.62840072
                },
                {
                    "id": 1375714630,
                    "tags": {
                        "access": "yes",
                        "unisex": "yes",
                        "amenity": "toilets",
                        "wheelchair": "yes",
                        "toilets:disposal": "flush"
                    },
                    "distance": 1759.4868221
                },
                {
                    "id": 1305743317,
                    "tags": {
                        "access": "yes",
                        "unisex": "yes",
                        "amenity": "toilets",
                        "wheelchair": "yes",
                        "changing_table": "no",
                        "toilets:disposal": "flush"
                    },
                    "distance": 1917.1904665
                },
                {
                    "id": 9351602725,
                    "tags": {
                        "access": "yes",
                        "amenity": "toilets"
                    },
                    "distance": 2321.47824728
                },
                {
                    "id": 2355803757,
                    "tags": {
                        "access": "yes",
                        "amenity": "toilets"
                    },
                    "distance": 2380.03971717
                },
                {
                    "id": 1864187452,
                    "tags": {
                        "name": "Public Toilets",
                        "amenity": "toilets"
                    },
                    "distance": 2391.10618528
                }
            ]
        },
        "41": {
            "execution_time": 0.014327526092529297,
            "results": [
                {
                    "id": 983925693,
                    "tags": {
                        "name": "Nom Nom's",
                        "phone": "+61 3 9824 8326",
                        "amenity": "cafe",
                        "cuisine": "vietnamese;fusion",
                        "smoking": "no",
                        "addr:state": "VIC",
                        "addr:street": "Glenferrie Road",
                        "addr:suburb": "Kooyong",
                        "addr:postcode": "3144",
                        "opening_hours": "Tu-Sa 11:30-19:30",
                        "internet_access": "no",
                        "outdoor_seating": "yes",
                        "addr:housenumber": "487"
                    },
                    "distance": 326.27962409
                },
                {
                    "id": 992123199,
                    "tags": {
                        "name": "Ionsky's Bakehouse Cafe",
                        "amenity": "cafe"
                    },
                    "distance": 1257.7009895
                },
                {
                    "id": 4308263764,
                    "tags": {
                        "name": "Mirror Image",
                        "amenity": "cafe"
                    },
                    "distance": 1292.75018335
                },
                {
                    "id": 7833964853,
                    "tags": {
                        "name": "Hall St. Provider",
                        "amenity": "cafe",
                        "cuisine": "coffee;sandwich;salad",
                        "takeaway": "yes",
                        "addr:state": "VIC",
                        "addr:street": "Hall Street",
                        "addr:suburb": "Hawthorn East",
                        "addr:postcode": "3123",
                        "opening_hours": "Mo-Fr 07:00-15:30",
                        "internet_access": "no",
                        "outdoor_seating": "yes",
                        "addr:housenumber": "8"
                    },
                    "distance": 1333.10845503
                },
                {
                    "id": 2714886447,
                    "tags": {
                        "name": "Zia's Cafe",
                        "amenity": "cafe",
                        "addr:street": "Riversdale Road",
                        "opening_hours": "Tu-Th 17:00-22:30; Fr,Sa 17:00-23:00; Su 17:00-22:00",
                        "addr:housenumber": "93 - 95"
                    },
                    "distance": 1392.19384331
                },
                {
                    "id": 5272996698,
                    "tags": {
                        "amenity": "cafe"
                    },
                    "distance": 1500.80645621
                },
                {
                    "id": 4308263746,
                    "tags": {
                        "name": "Neon Tiger",
                        "amenity": "cafe",
                        "addr:street": "Malvern Road",
                        "addr:housenumber": "1250"
                    },
                    "distance": 1537.94915306
                },
                {
                    "id": 7926975946,
                    "tags": {
                        "name": "Mr & Mrs Andersons",
                        "amenity": "cafe"
                    },
                    "distance": 1562.42763946
                },
                {
                    "id": 12110061301,
                    "tags": {
                        "name": "Yuca Melbourne",
                        "amenity": "cafe"
                    },
                    "distance": 1562.70512435
                },
                {
                    "id": 2290004294,
                    "tags": {
                        "name": "Saint Helen Cafe",
                        "amenity": "cafe",
                        "addr:street": "Riversdale Road",
                        "addr:housenumber": "173"
                    },
                    "distance": 1639.40330355
                }
            ]
        },
        "42": {
            "execution_time": 0.013712167739868164,
            "results": [
                {
                    "id": 3909127680,
                    "tags": {
                        "amenity": "cafe"
                    },
                    "distance": 1351.61710063
                },
                {
                    "id": 4411019441,
                    "tags": {
                        "name": "Sweet Lime Cafe",
                        "amenity": "cafe"
                    },
                    "distance": 1823.31043466
                },
                {
                    "id": 2727799557,
                    "tags": {
                        "amenity": "cafe",
                        "cuisine": "coffee_shop",
                        "addr:street": "Vision Drive",
                        "addr:suburb": "Burwood East",
                        "addr:postcode": "3151",
                        "opening_hours": "Mo-Th 07:30-15:30",
                        "internet_access": "no",
                        "addr:housenumber": "1",
                        "contact:facebook": "https://www.facebook.com/Cafe-Atrium-World-Vision-Australia-187528781284075/"
                    },
                    "distance": 2119.22066798
                },
                {
                    "id": 10724774964,
                    "tags": {
                        "name": "The Bakery Cafe",
                        "amenity": "cafe"
                    },
                    "distance": 2146.8772923
                },
                {
                    "id": 4010457747,
                    "tags": {
                        "name": "The Coffee Club",
                        "brand": "The Coffee Club",
                        "amenity": "cafe",
                        "cuisine": "coffee_shop",
                        "takeaway": "yes",
                        "brand:wikidata": "Q7726599",
                        "brand:wikipedia": "en:The Coffee Club"
                    },
                    "distance": 2150.62159622
                },
                {
                    "id": 10724774957,
                    "tags": {
                        "name": "Two Brothers",
                        "amenity": "cafe"
                    },
                    "distance": 2190.02098004
                },
                {
                    "id": 10724774950,
                    "tags": {
                        "name": "Mylk Bar",
                        "amenity": "cafe"
                    },
                    "distance": 2218.54465834
                },
                {
                    "id": 10232432198,
                    "tags": {
                        "name": "Miss Lucy",
                        "phone": "+61 3 9259 2022",
                        "amenity": "cafe",
                        "website": "https://www.misslucy.com.au/",
                        "addr:state": "VIC",
                        "addr:street": "Central Road",
                        "addr:suburb": "Nunawading",
                        "addr:postcode": "3131",
                        "opening_hours": "Su-Fr 08:00-15:00",
                        "outdoor_seating": "yes",
                        "addr:housenumber": "133"
                    },
                    "distance": 2963.00485869
                },
                {
                    "id": 4358160402,
                    "tags": {
                        "name": "Peach Orchard Grove",
                        "source": "Bing",
                        "amenity": "cafe"
                    },
                    "distance": 3180.41969647
                },
                {
                    "id": 4451211161,
                    "tags": {
                        "amenity": "cafe"
                    },
                    "distance": 3330.17036998
                }
            ]
        },
        "43": {
            "execution_time": 0.010479211807250977,
            "results": [
                {
                    "id": 9733826861,
                    "tags": {
                        "amenity": "parking_space",
                        "parking_space": "disabled"
                    },
                    "distance": 3300.86460126
                },
                {
                    "id": 9733826860,
                    "tags": {
                        "amenity": "parking_space",
                        "parking_space": "disabled"
                    },
                    "distance": 3301.79758083
                },
                {
                    "id": 9733826859,
                    "tags": {
                        "amenity": "parking_space",
                        "parking_space": "disabled"
                    },
                    "distance": 3302.15937979
                },
                {
                    "id": 10292459752,
                    "tags": {
                        "amenity": "parking_space"
                    },
                    "distance": 3682.27164031
                },
                {
                    "id": 10292459755,
                    "tags": {
                        "amenity": "parking_space",
                        "capacity": "6"
                    },
                    "distance": 3687.97235596
                },
                {
                    "id": 9150636820,
                    "tags": {
                        "amenity": "parking_space",
                        "capacity": "1",
                        "parking_space": "disabled"
                    },
                    "distance": 3782.441278
                },
                {
                    "id": 9150636821,
                    "tags": {
                        "amenity": "parking_space",
                        "capacity": "1",
                        "parking_space": "disabled"
                    },
                    "distance": 3791.36767068
                },
                {
                    "id": 9768624369,
                    "tags": {
                        "amenity": "parking_space",
                        "parking_space": "disabled"
                    },
                    "distance": 4243.79423621
                },
                {
                    "id": 10041085047,
                    "tags": {
                        "amenity": "parking_space",
                        "parking_space": "disabled"
                    },
                    "distance": 5217.87211506
                },
                {
                    "id": 10041085046,
                    "tags": {
                        "amenity": "parking_space",
                        "parking_space": "disabled"
                    },
                    "distance": 5222.04021251
                }
            ]
        },
        "44": {
            "execution_time": 0.014028787612915039,
            "results": []
        },
        "45": {
            "execution_time": 0.012564420700073242,
            "results": [
                {
                    "id": 10187396282,
                    "tags": {
                        "name": "Rosebud Skin Cancer Centre",
                        "amenity": "clinic",
                        "healthcare": "clinic"
                    },
                    "distance": 2630.57910859
                },
                {
                    "id": 5302905670,
                    "tags": {
                        "name": "McCrae Medical",
                        "amenity": "clinic"
                    },
                    "distance": 3609.31473327
                },
                {
                    "id": 5302929952,
                    "tags": {
                        "name": "Beachside Doctors",
                        "amenity": "clinic",
                        "addr:street": "Point Nepean Road",
                        "addr:housenumber": "191"
                    },
                    "distance": 7107.98766122
                }
            ]
        },
        "46": {
            "execution_time": 0.005819797515869141,
            "results": []
        },
        "47": {
            "execution_time": 0.013897895812988281,
            "results": []
        },
        "48": {
            "execution_time": 0.019655466079711914,
            "results": [
                {
                    "id": 12107874946,
                    "tags": {
                        "name": "TerryWhite Chemmart",
                        "brand": "TerryWhite Chemmart",
                        "amenity": "pharmacy",
                        "healthcare": "pharmacy",
                        "brand:wikidata": "Q24089773"
                    },
                    "distance": 1003.01067647
                },
                {
                    "id": 3064203254,
                    "tags": {
                        "fax": "+61 3 8794 7924",
                        "name": "PharmaSave",
                        "brand": "PharmaSave",
                        "email": "edenrise@berwickpharmacy.com.au",
                        "phone": "+61 3 8794 7920",
                        "amenity": "pharmacy",
                        "website": "https://www.edenrisepharmacy.com.au/",
                        "operator": "Pharmasave",
                        "addr:unit": "Shop 30",
                        "addr:state": "VIC",
                        "dispensing": "yes",
                        "healthcare": "pharmacy",
                        "addr:street": "O'Shea Road",
                        "addr:suburb": "Berwick",
                        "payment:cash": "yes",
                        "payment:visa": "yes",
                        "addr:postcode": "3806",
                        "drive_through": "no",
                        "opening_hours": "Mo-Fr 09:00-21:00, Sa-Su 09:00-18:00",
                        "payment:coins": "yes",
                        "payment:notes": "yes",
                        "brand:wikidata": "Q63367906",
                        "addr:housenumber": "1",
                        "payment:mastercard": "yes",
                        "payment:credit_cards": "yes",
                        "payment:american_express": "yes"
                    },
                    "distance": 1761.43714694
                },
                {
                    "id": 11829420782,
                    "tags": {
                        "name": "Priceline Pharmacy",
                        "brand": "Priceline Pharmacy",
                        "amenity": "pharmacy",
                        "healthcare": "pharmacy",
                        "brand:wikidata": "Q7242652"
                    },
                    "distance": 2387.77277971
                },
                {
                    "id": 2497973759,
                    "tags": {
                        "name": "24 hour pharmacy",
                        "amenity": "pharmacy",
                        "dispensing": "yes",
                        "healthcare": "pharmacy",
                        "opening_hours": "24/7"
                    },
                    "distance": 3886.74244522
                },
                {
                    "id": 10830947853,
                    "tags": {
                        "name": "Amcal",
                        "brand": "Amcal",
                        "amenity": "pharmacy",
                        "addr:unit": "18",
                        "addr:state": "VIC",
                        "healthcare": "pharmacy",
                        "addr:street": "Old Princes Highway",
                        "addr:suburb": "Beaconsfield",
                        "addr:postcode": "3807",
                        "brand:wikidata": "Q63367373",
                        "addr:housenumber": "55"
                    },
                    "distance": 3960.58274234
                },
                {
                    "id": 1121174295,
                    "tags": {
                        "name": "Casey Central Pharmacy",
                        "brand": "Chemmart",
                        "amenity": "pharmacy",
                        "website": "www.chemmart.com.au",
                        "full_name": "Chemmart Pharmacy Casey Central",
                        "healthcare": "pharmacy"
                    },
                    "distance": 4304.6928626
                },
                {
                    "id": 5153140747,
                    "tags": {
                        "name": "Chemist Warehouse",
                        "brand": "Chemist Warehouse",
                        "amenity": "pharmacy",
                        "dispensing": "yes",
                        "healthcare": "pharmacy",
                        "addr:street": "Springhill Drive",
                        "addr:suburb": "Cranbourne",
                        "addr:postcode": "3977",
                        "brand:wikidata": "Q48782120",
                        "brand:wikipedia": "en:Chemist Warehouse"
                    },
                    "distance": 5020.24294919
                },
                {
                    "id": 2953650596,
                    "tags": {
                        "name": "Park Avenue Pharmacy",
                        "amenity": "pharmacy",
                        "healthcare": "pharmacy"
                    },
                    "distance": 5092.81160768
                },
                {
                    "id": 1955889303,
                    "tags": {
                        "name": "Berwick Pharmacy",
                        "amenity": "pharmacy",
                        "healthcare": "pharmacy"
                    },
                    "distance": 5122.37737
                },
                {
                    "id": 1955890105,
                    "tags": {
                        "fax": "+61 3 9707 4728",
                        "name": "PharmaSave",
                        "brand": "PharmaSave",
                        "phone": "+61 3 9707 1555",
                        "amenity": "pharmacy",
                        "website": "https://www.berwickpharmacy.com.au/",
                        "operator": "Pharmasave",
                        "addr:state": "VIC",
                        "dispensing": "yes",
                        "healthcare": "pharmacy",
                        "addr:street": "High Street",
                        "addr:suburb": "Berwick",
                        "payment:cash": "yes",
                        "payment:visa": "yes",
                        "addr:postcode": "3806",
                        "drive_through": "no",
                        "opening_hours": "Mo-Fr 08:00-21:00, Sa 08:00-18:00, Su 09:00-18:00",
                        "brand:wikidata": "Q63367906",
                        "addr:housenumber": "51",
                        "payment:mastercard": "yes",
                        "payment:debit_cards": "yes",
                        "payment:american_express": "yes"
                    },
                    "distance": 5127.1493973
                }
            ]
        },
        "49": {
            "execution_time": 0.014956951141357422,
            "results": [
                {
                    "id": 4103896390,
                    "tags": {
                        "name": "Subway",
                        "brand": "Subway",
                        "amenity": "fast_food",
                        "cuisine": "sandwich",
                        "website": "https://www.subway.com.au/",
                        "takeaway": "yes",
                        "addr:street": "Burwood Highway",
                        "brand:wikidata": "Q244457",
                        "brand:wikipedia": "en:Subway (restaurant)"
                    },
                    "distance": 637.71998427
                },
                {
                    "id": 4103929089,
                    "tags": {
                        "name": "Domino's",
                        "brand": "Domino's",
                        "amenity": "fast_food",
                        "cuisine": "pizza",
                        "website": "https://www.dominos.com.au",
                        "takeaway": "yes",
                        "addr:street": "Burwood Highway",
                        "brand:wikidata": "Q839466",
                        "brand:wikipedia": "en:Domino's Pizza"
                    },
                    "distance": 647.87337731
                },
                {
                    "id": 5130500170,
                    "tags": {
                        "name": "Chookstar",
                        "amenity": "fast_food"
                    },
                    "distance": 1103.60854242
                },
                {
                    "id": 258968886,
                    "tags": {
                        "name": "Hungry Jack's",
                        "brand": "Hungry Jack's",
                        "phone": "+61 3 9808 3026",
                        "amenity": "fast_food",
                        "cuisine": "burger",
                        "website": "https://www.hungryjacks.com.au/",
                        "takeaway": "yes",
                        "addr:street": "Burwood Highway",
                        "brand:wikidata": "Q3036373",
                        "brand:wikipedia": "en:Hungry Jack's",
                        "internet_access": "wlan",
                        "addr:housenumber": "171"
                    },
                    "distance": 1302.44168825
                },
                {
                    "id": 3471355723,
                    "tags": {
                        "name": "Clarice Cafe",
                        "amenity": "fast_food",
                        "building": "yes",
                        "addr:street": "Clarice Road",
                        "addr:suburb": "Box Hill South",
                        "addr:housenumber": "11"
                    },
                    "distance": 1526.45333028
                },
                {
                    "id": 11979167615,
                    "tags": {
                        "name": "Secret Souv",
                        "amenity": "fast_food",
                        "addr:unit": "1",
                        "addr:street": "Yertchuk Avenue",
                        "addr:housenumber": "3"
                    },
                    "distance": 2152.58913983
                },
                {
                    "id": 8565954127,
                    "tags": {
                        "name": "Schnitz",
                        "brand": "Schnitz",
                        "amenity": "fast_food",
                        "cuisine": "chicken",
                        "takeaway": "yes",
                        "brand:wikidata": "Q48792277",
                        "brand:wikipedia": "en:Schnitz"
                    },
                    "distance": 2310.24877838
                },
                {
                    "id": 4451211164,
                    "tags": {
                        "name": "Grill'd",
                        "brand": "Grill'd",
                        "amenity": "fast_food",
                        "cuisine": "burger",
                        "website": "https://www.grilld.com.au/",
                        "takeaway": "yes",
                        "brand:wikidata": "Q18165852",
                        "brand:wikipedia": "en:Grill'd"
                    },
                    "distance": 2344.48650672
                },
                {
                    "id": 261560429,
                    "tags": {
                        "name": "McDonald's",
                        "note": "Apparently this is the first ever McCafe to open",
                        "brand": "McDonald's",
                        "phone": "+61 3 9808 2235",
                        "amenity": "fast_food",
                        "cuisine": "burger",
                        "website": "https://www.mcdonalds.com.au/",
                        "takeaway": "yes",
                        "addr:street": "Burwood Highway",
                        "drive_through": "yes",
                        "brand:wikidata": "Q38076",
                        "brand:wikipedia": "en:McDonald's",
                        "addr:housenumber": "52"
                    },
                    "distance": 2347.24855412
                },
                {
                    "id": 4358160403,
                    "tags": {
                        "source": "survey",
                        "amenity": "fast_food",
                        "cuisine": "pizza"
                    },
                    "distance": 2376.30273527
                }
            ]
        }
    }
}