{
    "insertion_time": 108.21799087524414,
    "index_creation": {
        "func": [
            "CREATE INDEX IF NOT EXISTS idx_pois_geom ON PoIs USING GIST (geom);"
        ],
        "time": 2.3920164108276367
    },
    "query_results": {
        "0": {
            "execution_time": 0.0478363037109375,
            "results": []
        },
        "1": {
            "execution_time": 0.17483019828796387,
            "results": [
                {
                    "id": 580734122,
                    "tags": {
                        "foot": "yes",
                        "name": "Back Gate",
                        "barrier": "gate",
                        "bicycle": "yes",
                        "motor_vehicle": "no"
                    },
                    "distance": 8410.4186101
                }
            ]
        },
        "2": {
            "execution_time": 0.16794466972351074,
            "results": []
        },
        "3": {
            "execution_time": 0.17418670654296875,
            "results": [
                {
                    "id": 2117565519,
                    "tags": {
                        "name": "Rivers",
                        "shop": "clothes",
                        "brand": "Rivers",
                        "website": "https://www.rivers.com.au/",
                        "wheelchair": "yes",
                        "brand:wikidata": "Q106224813",
                        "toilets:wheelchair": "no"
                    },
                    "distance": 1762.49644677
                },
                {
                    "id": 10234904806,
                    "tags": {
                        "name": "Cotton On",
                        "shop": "clothes",
                        "brand": "Cotton On",
                        "wheelchair": "yes",
                        "brand:wikidata": "Q5175717"
                    },
                    "distance": 1950.88553245
                },
                {
                    "id": 10234968506,
                    "tags": {
                        "name": "Cotton On Kids",
                        "shop": "clothes",
                        "brand": "Cotton On Kids",
                        "clothes": "children",
                        "clothing": "children",
                        "wheelchair": "yes",
                        "brand:wikidata": "Q113961498"
                    },
                    "distance": 1959.45199368
                },
                {
                    "id": 10234968083,
                    "tags": {
                        "name": "Under Armour",
                        "shop": "clothes",
                        "brand": "Under Armour",
                        "clothes": "men;women",
                        "wheelchair": "yes",
                        "brand:wikidata": "Q2031485"
                    },
                    "distance": 1961.19728546
                },
                {
                    "id": 10234937799,
                    "tags": {
                        "name": "2XU",
                        "shop": "clothes",
                        "clothes": "sports",
                        "website": "https://2xu.com/"
                    },
                    "distance": 1963.00687338
                }
            ]
        },
        "4": {
            "execution_time": 0.17809820175170898,
            "results": [
                {
                    "id": 9669639026,
                    "tags": {
                        "amenity": "bench"
                    },
                    "distance": 263.75923056
                },
                {
                    "id": 9669639025,
                    "tags": {
                        "amenity": "bench"
                    },
                    "distance": 272.12279499
                },
                {
                    "id": 9669639028,
                    "tags": {
                        "amenity": "bench"
                    },
                    "distance": 282.63628665
                },
                {
                    "id": 9669639027,
                    "tags": {
                        "amenity": "bench"
                    },
                    "distance": 300.14369007
                },
                {
                    "id": 10175111965,
                    "tags": {
                        "amenity": "bench"
                    },
                    "distance": 743.71649022
                }
            ]
        },
        "5": {
            "execution_time": 0.17190909385681152,
            "results": [
                {
                    "id": 4901271941,
                    "tags": {
                        "name": "Abby's Pizza & Fish 'n' Chips",
                        "amenity": "restaurant",
                        "cuisine": "fish_and_chips;pizza",
                        "website": "https://abbyspizzaandfishnchips.com.au/",
                        "addr:street": "Queen Street",
                        "addr:suburb": "Altona Meadows",
                        "addr:postcode": "3028",
                        "outdoor_seating": "no",
                        "addr:housenumber": "307"
                    },
                    "distance": 495.10383679
                },
                {
                    "id": 5070542022,
                    "tags": {
                        "name": "La Porchetta",
                        "amenity": "restaurant",
                        "cuisine": "pizza",
                        "name:en": "La Porchetta"
                    },
                    "distance": 705.28957372
                },
                {
                    "id": 6371453481,
                    "tags": {
                        "name": "Spice Junction",
                        "phone": "+61 3 9931 0826",
                        "amenity": "restaurant",
                        "cuisine": "indian",
                        "delivery": "yes",
                        "takeaway": "yes",
                        "addr:unit": "2",
                        "addr:street": "Neville Avenue",
                        "addr:suburb": "Laverton",
                        "addr:postcode": "3028",
                        "addr:housenumber": "6"
                    },
                    "distance": 2283.65852327
                },
                {
                    "id": 7998321310,
                    "tags": {
                        "name": "Dragon Temple Restaurant",
                        "amenity": "restaurant",
                        "cuisine": "chinese",
                        "addr:state": "VIC",
                        "addr:street": "Somers Parade",
                        "addr:suburb": "Altona",
                        "addr:postcode": "3018",
                        "addr:housenumber": "25"
                    },
                    "distance": 2519.54603114
                },
                {
                    "id": 4776007452,
                    "tags": {
                        "name": "Pirate Pizza",
                        "amenity": "restaurant",
                        "cuisine": "pizza",
                        "delivery": "yes",
                        "takeaway": "yes",
                        "addr:street": "Bladin Street",
                        "addr:suburb": "Laverton",
                        "addr:postcode": "3028",
                        "opening_hours": "17:00-22:00",
                        "addr:housenumber": "60"
                    },
                    "distance": 2779.69246247
                }
            ]
        },
        "6": {
            "execution_time": 0.17175722122192383,
            "results": []
        },
        "7": {
            "execution_time": 0.1736736297607422,
            "results": []
        },
        "8": {
            "execution_time": 0.17161059379577637,
            "results": []
        },
        "9": {
            "execution_time": 0.17488813400268555,
            "results": [
                {
                    "id": 12547809136,
                    "tags": {
                        "lit": "no",
                        "access": "yes",
                        "colour": "brown",
                        "source": "survey",
                        "amenity": "bench",
                        "armrest": "no",
                        "backrest": "yes",
                        "material": "wood",
                        "check_date": "2025-02-01"
                    },
                    "distance": 434.52477624
                },
                {
                    "id": 12547809144,
                    "tags": {
                        "lit": "no",
                        "access": "yes",
                        "colour": "brown",
                        "source": "survey",
                        "amenity": "bench",
                        "armrest": "no",
                        "backrest": "yes",
                        "material": "wood",
                        "check_date": "2025-02-01"
                    },
                    "distance": 459.11337115
                },
                {
                    "id": 12547809149,
                    "tags": {
                        "lit": "no",
                        "access": "yes",
                        "colour": "brown",
                        "source": "survey",
                        "amenity": "bench",
                        "armrest": "no",
                        "backrest": "yes",
                        "material": "wood",
                        "check_date": "2025-02-01"
                    },
                    "distance": 475.18001149
                },
                {
                    "id": 12547809176,
                    "tags": {
                        "amenity": "bench",
                        "armrest": "no",
                        "backrest": "yes",
                        "material": "wood"
                    },
                    "distance": 475.45011214
                },
                {
                    "id": 12547809186,
                    "tags": {
                        "lit": "no",
                        "access": "yes",
                        "colour": "brown",
                        "source": "survey",
                        "amenity": "bench",
                        "armrest": "no",
                        "backrest": "yes",
                        "material": "wood",
                        "check_date": "2025-02-01"
                    },
                    "distance": 477.20155233
                }
            ]
        },
        "10": {
            "execution_time": 0.17469477653503418,
            "results": []
        },
        "11": {
            "execution_time": 0.16896486282348633,
            "results": [
                {
                    "id": 2669782451,
                    "tags": {
                        "amenity": "waste_basket"
                    },
                    "distance": 1586.15963892
                },
                {
                    "id": 4689910373,
                    "tags": {
                        "amenity": "waste_basket"
                    },
                    "distance": 1618.49681795
                },
                {
                    "id": 4199576612,
                    "tags": {
                        "amenity": "waste_basket"
                    },
                    "distance": 1773.94924507
                },
                {
                    "id": 4678134785,
                    "tags": {
                        "amenity": "waste_basket"
                    },
                    "distance": 1891.56295809
                },
                {
                    "id": 2694285224,
                    "tags": {
                        "amenity": "waste_basket"
                    },
                    "distance": 1933.05038392
                }
            ]
        },
        "12": {
            "execution_time": 0.17191123962402344,
            "results": [
                {
                    "id": 10748148741,
                    "tags": {
                        "amenity": "cafe"
                    },
                    "distance": 110.60129622
                },
                {
                    "id": 10010494122,
                    "tags": {
                        "name": "Monza Carspa & Cafe",
                        "amenity": "cafe",
                        "addr:street": "Melville Road",
                        "addr:suburb": "Pascoe Vale South",
                        "addr:postcode": "3044",
                        "addr:housenumber": "1"
                    },
                    "distance": 337.51290515
                },
                {
                    "id": 10237566236,
                    "tags": {
                        "name": "Dope Donuts",
                        "amenity": "cafe",
                        "website": "https://www.facebook.com/people/Dope-Donuts/100057099264147/",
                        "addr:street": "Moreland Road",
                        "addr:postcode": "3055",
                        "addr:housenumber": "366"
                    },
                    "distance": 682.15257454
                },
                {
                    "id": 2128117105,
                    "tags": {
                        "name": "LoLo & Wren",
                        "amenity": "cafe"
                    },
                    "distance": 690.34872112
                },
                {
                    "id": 11571700051,
                    "tags": {
                        "amenity": "cafe"
                    },
                    "distance": 717.38801126
                }
            ]
        },
        "13": {
            "execution_time": 0.1718893051147461,
            "results": [
                {
                    "id": 10597938986,
                    "tags": {
                        "access": "private",
                        "amenity": "parking_entrance",
                        "parking": "underground"
                    },
                    "distance": 2835.71466602
                },
                {
                    "id": 9737038147,
                    "tags": {
                        "access": "yes",
                        "amenity": "parking_entrance",
                        "parking": "multi-storey"
                    },
                    "distance": 2976.01580156
                },
                {
                    "id": 10115654093,
                    "tags": {
                        "access": "private",
                        "amenity": "parking_entrance"
                    },
                    "distance": 3000.59904579
                },
                {
                    "id": 10115654095,
                    "tags": {
                        "access": "private",
                        "amenity": "parking_entrance"
                    },
                    "distance": 3015.88069358
                },
                {
                    "id": 6449257438,
                    "tags": {
                        "amenity": "parking_entrance"
                    },
                    "distance": 3101.95338221
                }
            ]
        },
        "14": {
            "execution_time": 0.17398762702941895,
            "results": [
                {
                    "id": 2191594607,
                    "tags": {
                        "amenity": "parking_entrance"
                    },
                    "distance": 3838.86703172
                },
                {
                    "id": 7308953115,
                    "tags": {
                        "amenity": "parking_entrance"
                    },
                    "distance": 3992.45908224
                },
                {
                    "id": 1253857435,
                    "tags": {
                        "amenity": "parking_entrance"
                    },
                    "distance": 4177.49358029
                },
                {
                    "id": 7311793105,
                    "tags": {
                        "amenity": "parking_entrance",
                        "parking": "multi-storey"
                    },
                    "distance": 4311.82556807
                },
                {
                    "id": 7311793140,
                    "tags": {
                        "amenity": "parking_entrance",
                        "parking": "multi-storey"
                    },
                    "distance": 4315.1945377
                }
            ]
        },
        "15": {
            "execution_time": 0.17342519760131836,
            "results": [
                {
                    "id": 2476135852,
                    "tags": {
                        "name": "Alitalia",
                        "shop": "florist",
                        "phone": "+61 3 9359 2962",
                        "addr:street": "Anderson Road",
                        "opening_hours": "Mo-Fr 08:00-16:30; Sa 08:00-17:00; Su 08:00-16:00",
                        "addr:housenumber": "85"
                    },
                    "distance": 420.04152585
                },
                {
                    "id": 2488171188,
                    "tags": {
                        "shop": "florist"
                    },
                    "distance": 2869.41276663
                },
                {
                    "id": 11432192602,
                    "tags": {
                        "name": "Westbreen Florist",
                        "shop": "florist",
                        "website": "http://www.westbreenflorist.com.au/",
                        "phone:AU": "1800 813 994",
                        "wheelchair": "yes",
                        "addr:street": "Boundary Road",
                        "addr:country": "AU",
                        "addr:postcode": "3044",
                        "addr:housenumber": "Shop 1 178"
                    },
                    "distance": 3229.61446685
                },
                {
                    "id": 7089882843,
                    "tags": {
                        "name": "Alnor Art Florist",
                        "shop": "florist",
                        "phone": "+61 410 449 999",
                        "website": "https://www.alnorartfloristflowers.com.au/",
                        "addr:street": "Edwardes Street",
                        "opening_hours": "Mo-Fr 08:00-18:00; Sa 08:00-16:00; Su 08:00-14:00",
                        "addr:housenumber": "60"
                    },
                    "distance": 4198.84762272
                },
                {
                    "id": 6648580138,
                    "tags": {
                        "name": "Lilypad Florist",
                        "shop": "florist"
                    },
                    "distance": 4448.98316213
                }
            ]
        },
        "16": {
            "execution_time": 0.10692882537841797,
            "results": []
        },
        "17": {
            "execution_time": 0.16801905632019043,
            "results": [
                {
                    "id": 12433020146,
                    "tags": {
                        "amenity": "bench"
                    },
                    "distance": 340.94417123
                },
                {
                    "id": 12236451909,
                    "tags": {
                        "source": "mapillary",
                        "amenity": "bench"
                    },
                    "distance": 591.03475811
                },
                {
                    "id": 12236451901,
                    "tags": {
                        "source": "mapillary",
                        "amenity": "bench"
                    },
                    "distance": 593.69543751
                },
                {
                    "id": 12236446200,
                    "tags": {
                        "source": "mapillary",
                        "amenity": "bench"
                    },
                    "distance": 595.12169783
                },
                {
                    "id": 12236451907,
                    "tags": {
                        "source": "mapillary",
                        "amenity": "bench"
                    },
                    "distance": 596.38967977
                }
            ]
        },
        "18": {
            "execution_time": 0.17497515678405762,
            "results": []
        },
        "19": {
            "execution_time": 0.17429280281066895,
            "results": []
        },
        "20": {
            "execution_time": 0.17127537727355957,
            "results": []
        },
        "21": {
            "execution_time": 0.1755514144897461,
            "results": [
                {
                    "id": 2450391015,
                    "tags": {
                        "amenity": "bbq"
                    },
                    "distance": 1228.80649007
                },
                {
                    "id": 2450406641,
                    "tags": {
                        "amenity": "bbq"
                    },
                    "distance": 1811.31071437
                },
                {
                    "id": 2450401192,
                    "tags": {
                        "amenity": "bbq"
                    },
                    "distance": 1871.93667065
                },
                {
                    "id": 2266638019,
                    "tags": {
                        "amenity": "bbq"
                    },
                    "distance": 2218.75541416
                },
                {
                    "id": 9974155156,
                    "tags": {
                        "amenity": "bbq"
                    },
                    "distance": 3992.75504658
                }
            ]
        },
        "22": {
            "execution_time": 0.17152857780456543,
            "results": [
                {
                    "id": 5076265979,
                    "tags": {
                        "name": "Hill Crest Medical Centre",
                        "amenity": "clinic",
                        "healthcare": "clinic",
                        "addr:street": "Bell Street",
                        "addr:housenumber": "18-22"
                    },
                    "distance": 735.3486714
                },
                {
                    "id": 5076265973,
                    "tags": {
                        "name": "Mount Street Medical Centre",
                        "amenity": "clinic",
                        "healthcare": "clinic",
                        "opening_hours": "Mo-Fr 08:30-18:30; Sa 08:30-12:00; Su off"
                    },
                    "distance": 769.02124818
                },
                {
                    "id": 9107756454,
                    "tags": {
                        "name": "Waterdale Medical Specialist Rooms",
                        "amenity": "clinic",
                        "healthcare": "clinic",
                        "addr:street": "Waterdale Road",
                        "operator:type": "private",
                        "addr:housenumber": "249"
                    },
                    "distance": 944.0541924
                },
                {
                    "id": 10259361576,
                    "tags": {
                        "name": "Ivanhoe Endoscopy Centre",
                        "amenity": "clinic",
                        "website": "https://ivanhoeendoscopy.com.au/",
                        "addr:unit": "Suite 2",
                        "healthcare": "clinic",
                        "addr:street": "Upper Heidelberg Road",
                        "addr:housenumber": "226"
                    },
                    "distance": 1092.29510027
                },
                {
                    "id": 5076266000,
                    "tags": {
                        "name": "Ostopathic Clinic",
                        "amenity": "clinic",
                        "opening_hours:signed": "no"
                    },
                    "distance": 1220.06614041
                }
            ]
        },
        "23": {
            "execution_time": 0.16971945762634277,
            "results": []
        },
        "24": {
            "execution_time": 0.10485625267028809,
            "results": []
        },
        "25": {
            "execution_time": 0.17441487312316895,
            "results": []
        },
        "26": {
            "execution_time": 0.1705155372619629,
            "results": [
                {
                    "id": 1406592744,
                    "tags": {
                        "name": "The Pint of Milk",
                        "amenity": "cafe"
                    },
                    "distance": 275.8400654
                },
                {
                    "id": 6869122848,
                    "tags": {
                        "name": "Indi Kitch",
                        "amenity": "cafe",
                        "cuisine": "coffee_shop;asian",
                        "addr:state": "VIC",
                        "addr:street": "Melbourne Road",
                        "addr:suburb": "Newport",
                        "addr:postcode": "3015",
                        "addr:housenumber": "451"
                    },
                    "distance": 1201.17740036
                },
                {
                    "id": 4017426056,
                    "tags": {
                        "name": "Routleys Bakery",
                        "amenity": "cafe",
                        "addr:state": "VIC",
                        "addr:street": "Mason Street",
                        "addr:suburb": "Newport",
                        "addr:postcode": "3015",
                        "opening_hours": "Mo-Fr 06:00-17:00; Sa 07:00-17:00; Su 07:30-17:00",
                        "outdoor_seating": "yes",
                        "addr:housenumber": "33a"
                    },
                    "distance": 1230.27554173
                },
                {
                    "id": 3881388149,
                    "tags": {
                        "name": "Parade Deli",
                        "amenity": "cafe"
                    },
                    "distance": 1278.29695567
                },
                {
                    "id": 9728609951,
                    "tags": {
                        "name": "Crowded House",
                        "phone": "+61 3 9397 5526",
                        "amenity": "cafe",
                        "cuisine": "cafe;breakfast;brunch;lunch",
                        "website": "https://m.facebook.com/Crowded-House-Cafe-Ferguson-Street-Williamstown-291901187518260/",
                        "addr:state": "VIC",
                        "addr:street": "Ferguson Street",
                        "addr:suburb": "Williamstown",
                        "addr:postcode": "3016",
                        "opening_hours": "Mo-Fr 07:00-15:00; Sa-Su 08:00-15:00",
                        "outdoor_seating": "yes",
                        "addr:housenumber": "48"
                    },
                    "distance": 1350.95091997
                }
            ]
        },
        "27": {
            "execution_time": 0.1698606014251709,
            "results": []
        },
        "28": {
            "execution_time": 0.10268950462341309,
            "results": []
        },
        "29": {
            "execution_time": 0.16826200485229492,
            "results": [
                {
                    "id": 8527251555,
                    "tags": {
                        "amenity": "bbq"
                    },
                    "distance": 108.14534368
                },
                {
                    "id": 9250342474,
                    "tags": {
                        "amenity": "bbq"
                    },
                    "distance": 749.29407903
                },
                {
                    "id": 9250342475,
                    "tags": {
                        "amenity": "bbq"
                    },
                    "distance": 752.25905815
                },
                {
                    "id": 12474553119,
                    "tags": {
                        "fuel": "electric",
                        "amenity": "bbq",
                        "covered": "no"
                    },
                    "distance": 1695.30831928
                },
                {
                    "id": 1121661146,
                    "tags": {
                        "amenity": "bbq",
                        "check_date": "2022-01-28"
                    },
                    "distance": 1822.73773037
                }
            ]
        },
        "30": {
            "execution_time": 0.17351841926574707,
            "results": []
        },
        "31": {
            "execution_time": 0.17374801635742188,
            "results": []
        },
        "32": {
            "execution_time": 0.17228221893310547,
            "results": []
        },
        "33": {
            "execution_time": 0.17623257637023926,
            "results": [
                {
                    "id": 11572236411,
                    "tags": {
                        "amenity": "bench",
                        "backrest": "no",
                        "material": "wood"
                    },
                    "distance": 50.92298045
                },
                {
                    "id": 11572236403,
                    "tags": {
                        "amenity": "bench",
                        "backrest": "no",
                        "material": "concrete"
                    },
                    "distance": 67.42166236
                },
                {
                    "id": 11572236410,
                    "tags": {
                        "amenity": "bench",
                        "backrest": "no",
                        "material": "concrete"
                    },
                    "distance": 73.91916153
                },
                {
                    "id": 11572236392,
                    "tags": {
                        "amenity": "bench",
                        "backrest": "no",
                        "material": "concrete"
                    },
                    "distance": 79.66807495
                },
                {
                    "id": 11572236406,
                    "tags": {
                        "colour": "brown",
                        "amenity": "bench",
                        "backrest": "yes",
                        "material": "wood"
                    },
                    "distance": 96.48943695
                }
            ]
        },
        "34": {
            "execution_time": 0.17190337181091309,
            "results": [
                {
                    "id": 9687083047,
                    "tags": {
                        "fixme": "There is a drink tap around this location, but hard to see on satellite so it is not accurate.",
                        "amenity": "drinking_water"
                    },
                    "distance": 1115.37748165
                },
                {
                    "id": 9584819857,
                    "tags": {
                        "fee": "no",
                        "access": "yes",
                        "bottle": "yes",
                        "amenity": "drinking_water",
                        "operator": "Wyndham City Council",
                        "wheelchair": "yes"
                    },
                    "distance": 2004.13163731
                },
                {
                    "id": 9588841950,
                    "tags": {
                        "fee": "no",
                        "bottle": "no",
                        "amenity": "drinking_water",
                        "wheelchair": "yes"
                    },
                    "distance": 2786.28968723
                },
                {
                    "id": 4967372348,
                    "tags": {
                        "amenity": "drinking_water"
                    },
                    "distance": 4293.30207683
                },
                {
                    "id": 4060938237,
                    "tags": {
                        "amenity": "drinking_water"
                    },
                    "distance": 4505.55446483
                }
            ]
        },
        "35": {
            "execution_time": 0.10568499565124512,
            "results": []
        },
        "36": {
            "execution_time": 0.16843152046203613,
            "results": [
                {
                    "id": 9502128788,
                    "tags": {
                        "amenity": "bench"
                    },
                    "distance": 1164.20212201
                },
                {
                    "id": 9485902913,
                    "tags": {
                        "amenity": "bench"
                    },
                    "distance": 1438.79669493
                },
                {
                    "id": 11866439839,
                    "tags": {
                        "amenity": "bench",
                        "backrest": "yes"
                    },
                    "distance": 1800.42868683
                },
                {
                    "id": 11866439838,
                    "tags": {
                        "amenity": "bench",
                        "backrest": "yes"
                    },
                    "distance": 1802.94953324
                },
                {
                    "id": 11866465674,
                    "tags": {
                        "amenity": "bench",
                        "backrest": "yes"
                    },
                    "distance": 1816.80089949
                }
            ]
        },
        "37": {
            "execution_time": 0.10727357864379883,
            "results": [
                {
                    "id": 8646118958,
                    "tags": {
                        "name": "Daiso Japan",
                        "shop": "variety_store",
                        "brand": "Daiso",
                        "short_name": "Daiso",
                        "brand:wikidata": "Q866991",
                        "brand:wikipedia": "en:Daiso"
                    },
                    "distance": 4673.27882772
                },
                {
                    "id": 8646118957,
                    "tags": {
                        "name": "The Reject Shop",
                        "shop": "variety_store",
                        "brand": "The Reject Shop",
                        "brand:wikidata": "Q7760092",
                        "brand:wikipedia": "en:The Reject Shop"
                    },
                    "distance": 4829.94657196
                },
                {
                    "id": 5009375192,
                    "tags": {
                        "name": "The Reject Shop",
                        "shop": "variety_store",
                        "brand": "The Reject Shop",
                        "addr:unit": "T02",
                        "addr:street": "Tarneit Road",
                        "addr:postcode": "3029",
                        "opening_hours": "Mo-Su 08:30-18:00",
                        "brand:wikidata": "Q7760092",
                        "brand:wikipedia": "en:The Reject Shop",
                        "addr:housenumber": "747"
                    },
                    "distance": 7387.75535889
                }
            ]
        },
        "38": {
            "execution_time": 0.1737661361694336,
            "results": [
                {
                    "id": 2246467872,
                    "tags": {
                        "bin": "yes",
                        "bus": "yes",
                        "lit": "no",
                        "name": "Oakleigh Station",
                        "bench": "yes",
                        "highway": "bus_stop",
                        "shelter": "no",
                        "description": "Train replacement bus stop",
                        "tactile_paving": "no",
                        "public_transport": "platform"
                    },
                    "distance": 1917.9399819
                },
                {
                    "id": 677454002,
                    "tags": {
                        "bus": "yes",
                        "name": "Oakleigh Station",
                        "bench": "yes",
                        "source": "survey",
                        "highway": "bus_stop",
                        "network": "PTV \u2013 Metropolitan Buses",
                        "ref:ptv": "19800",
                        "shelter": "yes",
                        "website": "https://ptv.vic.gov.au/stop/10004",
                        "operator": "Transdev;Ventura;CDC Melbourne",
                        "public_transport": "platform"
                    },
                    "distance": 1950.75128627
                },
                {
                    "id": 12057874477,
                    "tags": {
                        "bus": "yes",
                        "name": "Oakleigh Station",
                        "network": "PTV \u2013 Metropolitan Buses",
                        "ref:ptv": "19800",
                        "website": "https://ptv.vic.gov.au/stop/10004",
                        "operator": "Transdev;Ventura;CDC Melbourne",
                        "public_transport": "stop_position"
                    },
                    "distance": 1952.78758768
                },
                {
                    "id": 8797080025,
                    "tags": {
                        "bus": "yes",
                        "name": "Oakleigh Station",
                        "network": "PTV \u2013 Metropolitan Buses",
                        "ref:ptv": "19800",
                        "website": "https://ptv.vic.gov.au/stop/10004",
                        "operator": "Transdev;Ventura;CDC Melbourne",
                        "public_transport": "stop_position"
                    },
                    "distance": 1953.00467893
                },
                {
                    "id": 8797080024,
                    "tags": {
                        "bus": "yes",
                        "name": "Oakleigh Station",
                        "network": "PTV \u2013 Metropolitan Buses",
                        "ref:ptv": "12964",
                        "website": "https://ptv.vic.gov.au/stop/13989",
                        "operator": "Ventura",
                        "public_transport": "stop_position"
                    },
                    "distance": 1974.50508342
                }
            ]
        },
        "39": {
            "execution_time": 0.18189287185668945,
            "results": [
                {
                    "id": 9085329021,
                    "tags": {
                        "amenity": "parking_space",
                        "capacity": "1",
                        "parking_space": "disabled"
                    },
                    "distance": 679.79464375
                },
                {
                    "id": 9085329022,
                    "tags": {
                        "amenity": "parking_space",
                        "capacity": "1",
                        "parking_space": "disabled"
                    },
                    "distance": 712.2528469
                },
                {
                    "id": 12381754190,
                    "tags": {
                        "amenity": "parking_space",
                        "parking_space": "disabled"
                    },
                    "distance": 938.71080633
                },
                {
                    "id": 12381754189,
                    "tags": {
                        "amenity": "parking_space",
                        "parking_space": "disabled"
                    },
                    "distance": 942.48432255
                },
                {
                    "id": 12381754194,
                    "tags": {
                        "amenity": "parking_space",
                        "parking_space": "disabled"
                    },
                    "distance": 950.70177835
                }
            ]
        },
        "40": {
            "execution_time": 0.17200565338134766,
            "results": [
                {
                    "id": 7441496730,
                    "tags": {
                        "amenity": "toilets"
                    },
                    "distance": 376.60699833
                },
                {
                    "id": 9923615333,
                    "tags": {
                        "access": "private",
                        "amenity": "toilets"
                    },
                    "distance": 610.09852911
                },
                {
                    "id": 10074114556,
                    "tags": {
                        "access": "yes",
                        "unisex": "yes",
                        "amenity": "toilets",
                        "wheelchair": "yes",
                        "changing_table": "yes",
                        "toilets:disposal": "flush"
                    },
                    "distance": 1048.42584295
                },
                {
                    "id": 9644632238,
                    "tags": {
                        "access": "yes",
                        "unisex": "yes",
                        "amenity": "toilets",
                        "wheelchair": "yes",
                        "changing_table": "yes",
                        "toilets:disposal": "flush"
                    },
                    "distance": 1105.22152039
                },
                {
                    "id": 5619037936,
                    "tags": {
                        "unisex": "yes",
                        "amenity": "toilets",
                        "opening_hours": "Mo-Fr 07:00-09:00",
                        "toilets:disposal": "flush"
                    },
                    "distance": 1297.62840072
                }
            ]
        },
        "41": {
            "execution_time": 0.18459129333496094,
            "results": [
                {
                    "id": 983925693,
                    "tags": {
                        "name": "Nom Nom's",
                        "phone": "+61 3 9824 8326",
                        "amenity": "cafe",
                        "cuisine": "vietnamese;fusion",
                        "smoking": "no",
                        "addr:state": "VIC",
                        "addr:street": "Glenferrie Road",
                        "addr:suburb": "Kooyong",
                        "addr:postcode": "3144",
                        "opening_hours": "Tu-Sa 11:30-19:30",
                        "internet_access": "no",
                        "outdoor_seating": "yes",
                        "addr:housenumber": "487"
                    },
                    "distance": 326.27962409
                },
                {
                    "id": 992123199,
                    "tags": {
                        "name": "Ionsky's Bakehouse Cafe",
                        "amenity": "cafe"
                    },
                    "distance": 1257.7009895
                },
                {
                    "id": 4308263764,
                    "tags": {
                        "name": "Mirror Image",
                        "amenity": "cafe"
                    },
                    "distance": 1292.75018335
                },
                {
                    "id": 7833964853,
                    "tags": {
                        "name": "Hall St. Provider",
                        "amenity": "cafe",
                        "cuisine": "coffee;sandwich;salad",
                        "takeaway": "yes",
                        "addr:state": "VIC",
                        "addr:street": "Hall Street",
                        "addr:suburb": "Hawthorn East",
                        "addr:postcode": "3123",
                        "opening_hours": "Mo-Fr 07:00-15:30",
                        "internet_access": "no",
                        "outdoor_seating": "yes",
                        "addr:housenumber": "8"
                    },
                    "distance": 1333.10845503
                },
                {
                    "id": 2714886447,
                    "tags": {
                        "name": "Zia's Cafe",
                        "amenity": "cafe",
                        "addr:street": "Riversdale Road",
                        "opening_hours": "Tu-Th 17:00-22:30; Fr,Sa 17:00-23:00; Su 17:00-22:00",
                        "addr:housenumber": "93 - 95"
                    },
                    "distance": 1392.19384331
                }
            ]
        },
        "42": {
            "execution_time": 0.17580890655517578,
            "results": [
                {
                    "id": 3909127680,
                    "tags": {
                        "amenity": "cafe"
                    },
                    "distance": 1351.61710063
                },
                {
                    "id": 4411019441,
                    "tags": {
                        "name": "Sweet Lime Cafe",
                        "amenity": "cafe"
                    },
                    "distance": 1823.31043466
                },
                {
                    "id": 2727799557,
                    "tags": {
                        "amenity": "cafe",
                        "cuisine": "coffee_shop",
                        "addr:street": "Vision Drive",
                        "addr:suburb": "Burwood East",
                        "addr:postcode": "3151",
                        "opening_hours": "Mo-Th 07:30-15:30",
                        "internet_access": "no",
                        "addr:housenumber": "1",
                        "contact:facebook": "https://www.facebook.com/Cafe-Atrium-World-Vision-Australia-187528781284075/"
                    },
                    "distance": 2119.22066798
                },
                {
                    "id": 10724774964,
                    "tags": {
                        "name": "The Bakery Cafe",
                        "amenity": "cafe"
                    },
                    "distance": 2146.8772923
                },
                {
                    "id": 4010457747,
                    "tags": {
                        "name": "The Coffee Club",
                        "brand": "The Coffee Club",
                        "amenity": "cafe",
                        "cuisine": "coffee_shop",
                        "takeaway": "yes",
                        "brand:wikidata": "Q7726599",
                        "brand:wikipedia": "en:The Coffee Club"
                    },
                    "distance": 2150.62159622
                }
            ]
        },
        "43": {
            "execution_time": 0.17284464836120605,
            "results": [
                {
                    "id": 9733826861,
                    "tags": {
                        "amenity": "parking_space",
                        "parking_space": "disabled"
                    },
                    "distance": 3300.86460126
                },
                {
                    "id": 9733826860,
                    "tags": {
                        "amenity": "parking_space",
                        "parking_space": "disabled"
                    },
                    "distance": 3301.79758083
                },
                {
                    "id": 9733826859,
                    "tags": {
                        "amenity": "parking_space",
                        "parking_space": "disabled"
                    },
                    "distance": 3302.15937979
                },
                {
                    "id": 10292459752,
                    "tags": {
                        "amenity": "parking_space"
                    },
                    "distance": 3682.27164031
                },
                {
                    "id": 10292459755,
                    "tags": {
                        "amenity": "parking_space",
                        "capacity": "6"
                    },
                    "distance": 3687.97235596
                }
            ]
        },
        "44": {
            "execution_time": 0.1659071445465088,
            "results": []
        },
        "45": {
            "execution_time": 0.0407872200012207,
            "results": [
                {
                    "id": 10187396282,
                    "tags": {
                        "name": "Rosebud Skin Cancer Centre",
                        "amenity": "clinic",
                        "healthcare": "clinic"
                    },
                    "distance": 2630.57910859
                },
                {
                    "id": 5302905670,
                    "tags": {
                        "name": "McCrae Medical",
                        "amenity": "clinic"
                    },
                    "distance": 3609.31473327
                },
                {
                    "id": 5302929952,
                    "tags": {
                        "name": "Beachside Doctors",
                        "amenity": "clinic",
                        "addr:street": "Point Nepean Road",
                        "addr:housenumber": "191"
                    },
                    "distance": 7107.98766122
                }
            ]
        },
        "46": {
            "execution_time": 0.17312860488891602,
            "results": []
        },
        "47": {
            "execution_time": 0.17577075958251953,
            "results": []
        },
        "48": {
            "execution_time": 0.1749858856201172,
            "results": [
                {
                    "id": 12107874946,
                    "tags": {
                        "name": "TerryWhite Chemmart",
                        "brand": "TerryWhite Chemmart",
                        "amenity": "pharmacy",
                        "healthcare": "pharmacy",
                        "brand:wikidata": "Q24089773"
                    },
                    "distance": 1003.01067647
                },
                {
                    "id": 3064203254,
                    "tags": {
                        "fax": "+61 3 8794 7924",
                        "name": "PharmaSave",
                        "brand": "PharmaSave",
                        "email": "edenrise@berwickpharmacy.com.au",
                        "phone": "+61 3 8794 7920",
                        "amenity": "pharmacy",
                        "website": "https://www.edenrisepharmacy.com.au/",
                        "operator": "Pharmasave",
                        "addr:unit": "Shop 30",
                        "addr:state": "VIC",
                        "dispensing": "yes",
                        "healthcare": "pharmacy",
                        "addr:street": "O'Shea Road",
                        "addr:suburb": "Berwick",
                        "payment:cash": "yes",
                        "payment:visa": "yes",
                        "addr:postcode": "3806",
                        "drive_through": "no",
                        "opening_hours": "Mo-Fr 09:00-21:00, Sa-Su 09:00-18:00",
                        "payment:coins": "yes",
                        "payment:notes": "yes",
                        "brand:wikidata": "Q63367906",
                        "addr:housenumber": "1",
                        "payment:mastercard": "yes",
                        "payment:credit_cards": "yes",
                        "payment:american_express": "yes"
                    },
                    "distance": 1761.43714694
                },
                {
                    "id": 11829420782,
                    "tags": {
                        "name": "Priceline Pharmacy",
                        "brand": "Priceline Pharmacy",
                        "amenity": "pharmacy",
                        "healthcare": "pharmacy",
                        "brand:wikidata": "Q7242652"
                    },
                    "distance": 2387.77277971
                },
                {
                    "id": 2497973759,
                    "tags": {
                        "name": "24 hour pharmacy",
                        "amenity": "pharmacy",
                        "dispensing": "yes",
                        "healthcare": "pharmacy",
                        "opening_hours": "24/7"
                    },
                    "distance": 3886.74244522
                },
                {
                    "id": 10830947853,
                    "tags": {
                        "name": "Amcal",
                        "brand": "Amcal",
                        "amenity": "pharmacy",
                        "addr:unit": "18",
                        "addr:state": "VIC",
                        "healthcare": "pharmacy",
                        "addr:street": "Old Princes Highway",
                        "addr:suburb": "Beaconsfield",
                        "addr:postcode": "3807",
                        "brand:wikidata": "Q63367373",
                        "addr:housenumber": "55"
                    },
                    "distance": 3960.58274234
                }
            ]
        },
        "49": {
            "execution_time": 0.1771988868713379,
            "results": [
                {
                    "id": 4103896390,
                    "tags": {
                        "name": "Subway",
                        "brand": "Subway",
                        "amenity": "fast_food",
                        "cuisine": "sandwich",
                        "website": "https://www.subway.com.au/",
                        "takeaway": "yes",
                        "addr:street": "Burwood Highway",
                        "brand:wikidata": "Q244457",
                        "brand:wikipedia": "en:Subway (restaurant)"
                    },
                    "distance": 637.71998427
                },
                {
                    "id": 4103929089,
                    "tags": {
                        "name": "Domino's",
                        "brand": "Domino's",
                        "amenity": "fast_food",
                        "cuisine": "pizza",
                        "website": "https://www.dominos.com.au",
                        "takeaway": "yes",
                        "addr:street": "Burwood Highway",
                        "brand:wikidata": "Q839466",
                        "brand:wikipedia": "en:Domino's Pizza"
                    },
                    "distance": 647.87337731
                },
                {
                    "id": 5130500170,
                    "tags": {
                        "name": "Chookstar",
                        "amenity": "fast_food"
                    },
                    "distance": 1103.60854242
                },
                {
                    "id": 258968886,
                    "tags": {
                        "name": "Hungry Jack's",
                        "brand": "Hungry Jack's",
                        "phone": "+61 3 9808 3026",
                        "amenity": "fast_food",
                        "cuisine": "burger",
                        "website": "https://www.hungryjacks.com.au/",
                        "takeaway": "yes",
                        "addr:street": "Burwood Highway",
                        "brand:wikidata": "Q3036373",
                        "brand:wikipedia": "en:Hungry Jack's",
                        "internet_access": "wlan",
                        "addr:housenumber": "171"
                    },
                    "distance": 1302.44168825
                },
                {
                    "id": 3471355723,
                    "tags": {
                        "name": "Clarice Cafe",
                        "amenity": "fast_food",
                        "building": "yes",
                        "addr:street": "Clarice Road",
                        "addr:suburb": "Box Hill South",
                        "addr:housenumber": "11"
                    },
                    "distance": 1526.45333028
                }
            ]
        }
    }
}