{
    "insertion_time": 54.35378336906433,
    "index_creation": {
        "func": [
            "CREATE INDEX IF NOT EXISTS idx_pois_embedding ON PoIs USING hnsw (embedding vector_cosine_ops) WITH (m = 16, ef_construction = 64);"
        ],
        "time": 18.542210817337036
    },
    "query_results": {
        "0": {
            "execution_time": 0.19307398796081543,
            "results": [
                {
                    "id": 7903498955,
                    "tags": {
                        "building": "yes"
                    },
                    "distance": 11326.10113356,
                    "sims": 0.6075855493545576
                },
                {
                    "id": 6057027964,
                    "tags": {
                        "building": "yes"
                    },
                    "distance": 12440.04682603,
                    "sims": 0.6042034265873785
                },
                {
                    "id": 6057027950,
                    "tags": {
                        "building": "yes"
                    },
                    "distance": 12554.76852089,
                    "sims": 0.6036305067759461
                },
                {
                    "id": 6057027966,
                    "tags": {
                        "building": "yes"
                    },
                    "distance": 12570.08653159,
                    "sims": 0.6027333736419721
                },
                {
                    "id": 3238971772,
                    "tags": {
                        "access": "yes",
                        "leisure": "playground"
                    },
                    "distance": 6612.26942496,
                    "sims": 0.5994348347355498
                },
                {
                    "id": 8940301696,
                    "tags": {
                        "building": "yes"
                    },
                    "distance": 23662.47752262,
                    "sims": 0.5967837456722562
                },
                {
                    "id": 3221430137,
                    "tags": {
                        "access": "yes",
                        "leisure": "playground"
                    },
                    "distance": 11539.25073426,
                    "sims": 0.5924988035858401
                },
                {
                    "id": 9650949821,
                    "tags": {
                        "bus": "yes",
                        "name": "Lesay Drive",
                        "highway": "bus_stop",
                        "public_transport": "platform"
                    },
                    "distance": 8399.04581258,
                    "sims": 0.58295222622441
                },
                {
                    "id": 11715644414,
                    "tags": {
                        "bus": "yes",
                        "name": "Bella Vista Way/Lakeview Dr",
                        "highway": "bus_stop",
                        "public_transport": "platform"
                    },
                    "distance": 21909.78134147,
                    "sims": 0.5827417199986684
                },
                {
                    "id": 6487196134,
                    "tags": {
                        "fee": "no",
                        "access": "yes",
                        "unisex": "yes",
                        "amenity": "toilets",
                        "wheelchair": "yes",
                        "changing_table": "yes",
                        "toilets:disposal": "flush",
                        "toilets:position": "seated"
                    },
                    "distance": 4652.86605013,
                    "sims": 0.5827121387295651
                }
            ]
        },
        "1": {
            "execution_time": 0.18530797958374023,
            "results": [
                {
                    "id": 12411502002,
                    "tags": {
                        "addr:unit": "2",
                        "addr:street": "Eglinton Street",
                        "addr:housenumber": "42A"
                    },
                    "distance": 3922.81750545,
                    "sims": 0.8960004634856492
                },
                {
                    "id": 12411500184,
                    "tags": {
                        "addr:unit": "1",
                        "addr:street": "Eglinton Street",
                        "addr:housenumber": "168"
                    },
                    "distance": 3573.27885246,
                    "sims": 0.8903018432316011
                },
                {
                    "id": 12410849862,
                    "tags": {
                        "addr:unit": "2",
                        "addr:street": "Station Street",
                        "addr:housenumber": "286"
                    },
                    "distance": 7852.64070594,
                    "sims": 0.8831154317053522
                },
                {
                    "id": 12418299119,
                    "tags": {
                        "addr:unit": "2",
                        "addr:street": "Cobden Street",
                        "addr:housenumber": "82"
                    },
                    "distance": 3814.69297941,
                    "sims": 0.8822414489552909
                },
                {
                    "id": 12411530894,
                    "tags": {
                        "addr:unit": "1",
                        "addr:street": "Pascoe Street",
                        "addr:housenumber": "82"
                    },
                    "distance": 4680.13313206,
                    "sims": 0.8819661947549374
                },
                {
                    "id": 12418343853,
                    "tags": {
                        "addr:street": "Palmer Street",
                        "addr:housenumber": "109"
                    },
                    "distance": 4139.84679389,
                    "sims": 0.8818989607276532
                },
                {
                    "id": 12411709933,
                    "tags": {
                        "addr:unit": "2",
                        "addr:street": "Ercildoune Street",
                        "addr:housenumber": "46-46A"
                    },
                    "distance": 5268.51362239,
                    "sims": 0.880120716073399
                },
                {
                    "id": 12418302623,
                    "tags": {
                        "addr:unit": "2",
                        "addr:street": "Tennyson Street",
                        "addr:housenumber": "66"
                    },
                    "distance": 4144.08984756,
                    "sims": 0.8799866056466352
                },
                {
                    "id": 12411708722,
                    "tags": {
                        "addr:unit": "1",
                        "addr:street": "Ercildoune Street",
                        "addr:housenumber": "46-46A"
                    },
                    "distance": 5257.81389249,
                    "sims": 0.8798125005103787
                },
                {
                    "id": 12418162556,
                    "tags": {
                        "addr:unit": "2",
                        "addr:street": "Station Street",
                        "addr:housenumber": "9"
                    },
                    "distance": 3758.06274378,
                    "sims": 0.8798064208376988
                }
            ]
        },
        "2": {
            "execution_time": 0.18053197860717773,
            "results": [
                {
                    "id": 1021893836,
                    "tags": {
                        "name": "Gilligan Grant Gallery",
                        "shop": "art",
                        "website": "http://www.gilligangrantgallery.com.au/",
                        "addr:street": "Stanley Street",
                        "addr:suburb": "Collingwood",
                        "addr:postcode": "3066",
                        "addr:housenumber": "1B"
                    },
                    "distance": 2912.57979338,
                    "sims": 0.8335367738836945
                },
                {
                    "id": 5811371416,
                    "tags": {
                        "name": "Royal Melbourne Hospital LPO",
                        "brand": "Australia Post",
                        "amenity": "post_office",
                        "operator": "Australia Post",
                        "addr:unit": "12",
                        "addr:street": "Grattan Street",
                        "addr:housenumber": "300",
                        "operator:wikidata": "Q1142936"
                    },
                    "distance": 2835.87388542,
                    "sims": 0.8334589401581489
                },
                {
                    "id": 7012481673,
                    "tags": {
                        "name": "Stanley St Dentist",
                        "amenity": "dentist",
                        "healthcare": "dentist"
                    },
                    "distance": 2968.81905052,
                    "sims": 0.831029862577357
                },
                {
                    "id": 12418322667,
                    "tags": {
                        "addr:flats": "1-5;101-107;201-207;301-305",
                        "addr:street": "Penola Street",
                        "addr:housenumber": "15-19"
                    },
                    "distance": 3898.46613733,
                    "sims": 0.8308164779872173
                },
                {
                    "id": 246581745,
                    "tags": {
                        "name": "Carlton North Post Office",
                        "brand": "Australia Post",
                        "amenity": "post_office",
                        "operator": "Australia Post",
                        "wikidata": "Q28929004",
                        "wheelchair": "yes",
                        "operator:wikidata": "Q1142936"
                    },
                    "distance": 797.2603551,
                    "sims": 0.8291705556207034
                },
                {
                    "id": 5159833054,
                    "tags": {
                        "building": "yes",
                        "addr:street": "Johnston Street",
                        "addr:housenumber": "273a"
                    },
                    "distance": 3207.09278016,
                    "sims": 0.826358170564515
                },
                {
                    "id": 307586499,
                    "tags": {
                        "amenity": "telephone",
                        "operator": "Telstra",
                        "check_date": "2023-09-28",
                        "wheelchair": "yes",
                        "internet_access": "wlan",
                        "operator:wikidata": "Q721162"
                    },
                    "distance": 4181.24025753,
                    "sims": 0.8233144003186834
                },
                {
                    "id": 9710115853,
                    "tags": {
                        "name": "Jellis Criag",
                        "office": "estate_agent",
                        "addr:state": "VIC",
                        "addr:street": "Johnston Street",
                        "addr:suburb": "Fitzroy",
                        "addr:postcode": "3065",
                        "addr:housenumber": "189"
                    },
                    "distance": 2456.08654846,
                    "sims": 0.8231166566734707
                },
                {
                    "id": 6143875585,
                    "tags": {
                        "name": "Abbotsford Convent Foundation Office (upstairs)",
                        "office": "yes"
                    },
                    "distance": 3944.37656709,
                    "sims": 0.8223416526898898
                },
                {
                    "id": 12411525090,
                    "tags": {
                        "addr:street": "Lennox Street",
                        "addr:housenumber": "322-324"
                    },
                    "distance": 5551.69298896,
                    "sims": 0.8206530534053481
                }
            ]
        },
        "3": {
            "execution_time": 0.17928576469421387,
            "results": [
                {
                    "id": 412761492,
                    "tags": {
                        "amenity": "toilets"
                    },
                    "distance": 12184.67426085,
                    "sims": 0.901254138462619
                },
                {
                    "id": 9513144194,
                    "tags": {
                        "amenity": "toilets"
                    },
                    "distance": 11244.60444798,
                    "sims": 0.8820006443858758
                },
                {
                    "id": 348189212,
                    "tags": {
                        "amenity": "toilets"
                    },
                    "distance": 15656.60936392,
                    "sims": 0.8810073995890536
                },
                {
                    "id": 6089226542,
                    "tags": {
                        "amenity": "toilets"
                    },
                    "distance": 14402.65456159,
                    "sims": 0.863827850336676
                },
                {
                    "id": 1749638437,
                    "tags": {
                        "amenity": "toilets"
                    },
                    "distance": 59588.62929647,
                    "sims": 0.8079014065236362
                },
                {
                    "id": 7023231436,
                    "tags": {
                        "name": "Pizza Hut",
                        "brand": "Pizza Hut",
                        "amenity": "restaurant",
                        "cuisine": "pizza",
                        "toilets": "no",
                        "delivery": "yes",
                        "takeaway": "yes",
                        "wheelchair": "yes",
                        "brand:wikidata": "Q191615",
                        "brand:wikipedia": "en:Pizza Hut"
                    },
                    "distance": 14977.02298755,
                    "sims": 0.7944355721267111
                },
                {
                    "id": 2402084241,
                    "tags": {
                        "amenity": "vending_machine",
                        "vending": "parking_tickets"
                    },
                    "distance": 13244.81267726,
                    "sims": 0.7882454503994124
                },
                {
                    "id": 357080124,
                    "tags": {
                        "amenity": "toilets"
                    },
                    "distance": 62398.52270564,
                    "sims": 0.7861702080419809
                },
                {
                    "id": 12412508406,
                    "tags": {
                        "addr:street": "Leeds Walkway",
                        "addr:housenumber": "1A"
                    },
                    "distance": 7134.79302557,
                    "sims": 0.7849447236905777
                },
                {
                    "id": 12410659802,
                    "tags": {
                        "addr:street": "Octagonal Street",
                        "addr:housenumber": "8"
                    },
                    "distance": 6658.61440627,
                    "sims": 0.7849446512676259
                }
            ]
        },
        "4": {
            "execution_time": 0.18477320671081543,
            "results": [
                {
                    "id": 9203584815,
                    "tags": {
                        "name": "The Mexican House",
                        "amenity": "restaurant",
                        "cuisine": "mexican",
                        "name:es": "La Casa Mexicana"
                    },
                    "distance": 12295.67423956,
                    "sims": 0.7354767953212802
                },
                {
                    "id": 2451314686,
                    "tags": {
                        "name": "Elders",
                        "shop": "doityourself"
                    },
                    "distance": 2543.40863948,
                    "sims": 0.7222481436137862
                },
                {
                    "id": 5695786119,
                    "tags": {
                        "name": "The Cheesecake Shop",
                        "shop": "bakery",
                        "brand": "The Cheesecake Shop",
                        "brand:wikidata": "Q117717103"
                    },
                    "distance": 16565.35081617,
                    "sims": 0.7219676872549732
                },
                {
                    "id": 12414335553,
                    "tags": {
                        "addr:street": "Cultivation Circuit",
                        "addr:housenumber": "52"
                    },
                    "distance": 13038.02240645,
                    "sims": 0.7146832261056014
                },
                {
                    "id": 9407152397,
                    "tags": {
                        "leisure": "picnic_table"
                    },
                    "distance": 4111.92636761,
                    "sims": 0.7076851056185289
                },
                {
                    "id": 11620054949,
                    "tags": {
                        "name": "Biddy Martha's Caf\u00e9",
                        "amenity": "cafe"
                    },
                    "distance": 22063.04250573,
                    "sims": 0.7070442365925002
                },
                {
                    "id": 9182813538,
                    "tags": {
                        "name": "Taco Bill",
                        "amenity": "restaurant",
                        "cuisine": "mexican"
                    },
                    "distance": 18731.71510242,
                    "sims": 0.7068767475706307
                },
                {
                    "id": 12417868466,
                    "tags": {
                        "addr:street": "Pottery Circuit",
                        "addr:housenumber": "11"
                    },
                    "distance": 2815.09258075,
                    "sims": 0.7057841350226274
                },
                {
                    "id": 8820203510,
                    "tags": {
                        "name": "The Orchard at Montague",
                        "amenity": "restaurant"
                    },
                    "distance": 19364.67214878,
                    "sims": 0.7005515216466187
                },
                {
                    "id": 9234201695,
                    "tags": {
                        "leisure": "picnic_table"
                    },
                    "distance": 13032.28209873,
                    "sims": 0.6988252523362085
                }
            ]
        },
        "5": {
            "execution_time": 0.18188261985778809,
            "results": [
                {
                    "id": 7903498955,
                    "tags": {
                        "building": "yes"
                    },
                    "distance": 1732.15994006,
                    "sims": 0.6501251012459803
                },
                {
                    "id": 6057027964,
                    "tags": {
                        "building": "yes"
                    },
                    "distance": 1818.41528473,
                    "sims": 0.64992300270154
                },
                {
                    "id": 6057027966,
                    "tags": {
                        "building": "yes"
                    },
                    "distance": 1865.27402814,
                    "sims": 0.649558737742535
                },
                {
                    "id": 6057027950,
                    "tags": {
                        "building": "yes"
                    },
                    "distance": 1763.67821895,
                    "sims": 0.6495066641585211
                },
                {
                    "id": 8940301696,
                    "tags": {
                        "building": "yes"
                    },
                    "distance": 21640.14162113,
                    "sims": 0.6328207193888801
                },
                {
                    "id": 9186243207,
                    "tags": {
                        "bus": "yes",
                        "name": "Thomas Mitchell Drive/Hallam North Road",
                        "highway": "bus_stop",
                        "public_transport": "platform"
                    },
                    "distance": 17652.97872253,
                    "sims": 0.6015291456053775
                },
                {
                    "id": 353682379,
                    "tags": {
                        "access": "yes",
                        "leisure": "playground"
                    },
                    "distance": 4315.30864407,
                    "sims": 0.5941846949412605
                },
                {
                    "id": 6153096860,
                    "tags": {
                        "access": "yes",
                        "leisure": "playground"
                    },
                    "distance": 18795.45927578,
                    "sims": 0.5930899007534912
                },
                {
                    "id": 3221430137,
                    "tags": {
                        "access": "yes",
                        "leisure": "playground"
                    },
                    "distance": 8444.32776991,
                    "sims": 0.5910113670853228
                },
                {
                    "id": 10241824137,
                    "tags": {
                        "bus": "yes",
                        "name": "Ern Barker Reserve/Saffron Drive",
                        "highway": "bus_stop",
                        "public_transport": "platform"
                    },
                    "distance": 20019.85425248,
                    "sims": 0.5908375002950599
                }
            ]
        },
        "6": {
            "execution_time": 0.18011212348937988,
            "results": [
                {
                    "id": 9696622148,
                    "tags": {
                        "leisure": "picnic_table"
                    },
                    "distance": 3898.37441549,
                    "sims": 0.7988490345838215
                },
                {
                    "id": 9326536582,
                    "tags": {
                        "leisure": "picnic_table"
                    },
                    "distance": 7439.79035696,
                    "sims": 0.794382919220251
                },
                {
                    "id": 12474524491,
                    "tags": {
                        "fee": "no",
                        "amenity": "toilets",
                        "wheelchair": "yes",
                        "changing_table": "yes"
                    },
                    "distance": 7944.85745383,
                    "sims": 0.7915956278811613
                },
                {
                    "id": 9223553270,
                    "tags": {
                        "leisure": "picnic_table"
                    },
                    "distance": 9248.26451029,
                    "sims": 0.7914562362375052
                },
                {
                    "id": 9223553274,
                    "tags": {
                        "leisure": "picnic_table"
                    },
                    "distance": 9264.58550211,
                    "sims": 0.7914173379986629
                },
                {
                    "id": 2605749191,
                    "tags": {
                        "name": "Student Lounge, Bar & Bistro",
                        "amenity": "cafe"
                    },
                    "distance": 9852.90124635,
                    "sims": 0.7908257273359046
                },
                {
                    "id": 9234201695,
                    "tags": {
                        "leisure": "picnic_table"
                    },
                    "distance": 10817.29364968,
                    "sims": 0.7888329062363911
                },
                {
                    "id": 5417586389,
                    "tags": {
                        "leisure": "picnic_table"
                    },
                    "distance": 11196.11937771,
                    "sims": 0.7884268073018281
                },
                {
                    "id": 10989437213,
                    "tags": {
                        "covered": "no",
                        "leisure": "picnic_table"
                    },
                    "distance": 17433.15859284,
                    "sims": 0.7882670072872845
                },
                {
                    "id": 9407152397,
                    "tags": {
                        "leisure": "picnic_table"
                    },
                    "distance": 15251.28888251,
                    "sims": 0.787603369330579
                }
            ]
        },
        "7": {
            "execution_time": 0.17917776107788086,
            "results": [
                {
                    "id": 6083837720,
                    "tags": {
                        "amenity": "toilets"
                    },
                    "distance": 8422.20511291,
                    "sims": 0.893844199914438
                },
                {
                    "id": 12399063001,
                    "tags": {
                        "amenity": "toilets"
                    },
                    "distance": 6720.18760469,
                    "sims": 0.8899197113609721
                },
                {
                    "id": 11921189794,
                    "tags": {
                        "amenity": "toilets"
                    },
                    "distance": 5217.53816486,
                    "sims": 0.8852523106035879
                },
                {
                    "id": 1067157379,
                    "tags": {
                        "amenity": "toilets"
                    },
                    "distance": 6585.99588377,
                    "sims": 0.8845136566895055
                },
                {
                    "id": 710382297,
                    "tags": {
                        "amenity": "toilets"
                    },
                    "distance": 7479.95599454,
                    "sims": 0.8745584116175646
                },
                {
                    "id": 710383136,
                    "tags": {
                        "amenity": "toilets"
                    },
                    "distance": 7041.27838176,
                    "sims": 0.8745511323748731
                },
                {
                    "id": 354163710,
                    "tags": {
                        "amenity": "toilets",
                        "created_by": "Potlatch 0.10f"
                    },
                    "distance": 1872.20245411,
                    "sims": 0.8547717419402889
                },
                {
                    "id": 6016882831,
                    "tags": {
                        "amenity": "toilets"
                    },
                    "distance": 11206.98720419,
                    "sims": 0.8451313561044567
                },
                {
                    "id": 3164334096,
                    "tags": {
                        "fee": "no",
                        "access": "yes",
                        "unisex": "yes",
                        "amenity": "toilets",
                        "wheelchair": "yes",
                        "toilets:disposal": "flush"
                    },
                    "distance": 4566.92093158,
                    "sims": 0.8347603279637958
                },
                {
                    "id": 1889074995,
                    "tags": {
                        "fee": "no",
                        "access": "yes",
                        "unisex": "yes",
                        "amenity": "toilets",
                        "portable": "no",
                        "wheelchair": "limited",
                        "changing_table": "no",
                        "toilets:disposal": "flush",
                        "toilets:position": "seated",
                        "toilets:handwashing": "yes"
                    },
                    "distance": 8554.02079707,
                    "sims": 0.8344394165945808
                }
            ]
        },
        "8": {
            "execution_time": 0.19163107872009277,
            "results": [
                {
                    "id": 10023832883,
                    "tags": {
                        "amenity": "bench"
                    },
                    "distance": 1648.87801185,
                    "sims": 0.8898607093344992
                },
                {
                    "id": 12313729766,
                    "tags": {
                        "bench": "yes",
                        "leisure": "picnic_table"
                    },
                    "distance": 9261.99259502,
                    "sims": 0.889649616234081
                },
                {
                    "id": 12313993388,
                    "tags": {
                        "bench": "yes",
                        "leisure": "picnic_table"
                    },
                    "distance": 9271.74248576,
                    "sims": 0.889649616234081
                },
                {
                    "id": 9457166913,
                    "tags": {
                        "amenity": "bench",
                        "backrest": "no"
                    },
                    "distance": 13018.31984191,
                    "sims": 0.8875879846356084
                },
                {
                    "id": 790633699,
                    "tags": {
                        "amenity": "bench"
                    },
                    "distance": 5910.6407514,
                    "sims": 0.8861665333211802
                },
                {
                    "id": 790633695,
                    "tags": {
                        "amenity": "bench"
                    },
                    "distance": 6026.1778827,
                    "sims": 0.8861665333211802
                },
                {
                    "id": 9803333902,
                    "tags": {
                        "amenity": "bench"
                    },
                    "distance": 10620.40291328,
                    "sims": 0.8856091703875498
                },
                {
                    "id": 9140968965,
                    "tags": {
                        "amenity": "bench"
                    },
                    "distance": 7533.96268553,
                    "sims": 0.885574182467323
                },
                {
                    "id": 7965248125,
                    "tags": {
                        "amenity": "bench",
                        "backrest": "no"
                    },
                    "distance": 14214.19824568,
                    "sims": 0.8848076072679409
                },
                {
                    "id": 10996565563,
                    "tags": {
                        "amenity": "bench"
                    },
                    "distance": 13211.53368341,
                    "sims": 0.8834530323529923
                }
            ]
        },
        "9": {
            "execution_time": 0.1923210620880127,
            "results": [
                {
                    "id": 7918442655,
                    "tags": {
                        "name": "Endota Spa",
                        "shop": "massage"
                    },
                    "distance": 8894.80810203,
                    "sims": 0.654798592115093
                },
                {
                    "id": 6741632383,
                    "tags": {
                        "name": "Mediattion",
                        "shop": "massage"
                    },
                    "distance": 10515.03744711,
                    "sims": 0.6473711605124797
                },
                {
                    "id": 6180386412,
                    "tags": {
                        "name": "Domenico\u2019s Pizza",
                        "amenity": "restaurant",
                        "cuisine": "pizza"
                    },
                    "distance": 5764.42894431,
                    "sims": 0.6449026735446861
                },
                {
                    "id": 6928763149,
                    "tags": {
                        "name": "Hot Pepper Massage",
                        "shop": "massage"
                    },
                    "distance": 9217.08905054,
                    "sims": 0.6421819247332389
                },
                {
                    "id": 4186252200,
                    "tags": {
                        "name": "Subway",
                        "brand": "Subway",
                        "amenity": "fast_food",
                        "cuisine": "sandwich",
                        "takeaway": "yes",
                        "brand:wikidata": "Q244457",
                        "brand:wikipedia": "en:Subway (restaurant)"
                    },
                    "distance": 9389.73123047,
                    "sims": 0.6413443988913383
                },
                {
                    "id": 6342456646,
                    "tags": {
                        "shop": "massage"
                    },
                    "distance": 5602.61774211,
                    "sims": 0.640631348823398
                },
                {
                    "id": 6110271656,
                    "tags": {
                        "name": "Chef Lagenda",
                        "amenity": "restaurant"
                    },
                    "distance": 5958.51119119,
                    "sims": 0.6403927515299126
                },
                {
                    "id": 12489333402,
                    "tags": {
                        "name": "Chatime",
                        "amenity": "cafe",
                        "cuisine": "bubble_tea",
                        "brand:wikidata": "Q16829306"
                    },
                    "distance": 26568.66605641,
                    "sims": 0.639183731419731
                },
                {
                    "id": 2200740935,
                    "tags": {
                        "name": "Subway",
                        "brand": "Subway",
                        "amenity": "fast_food",
                        "cuisine": "sandwich",
                        "takeaway": "yes",
                        "brand:wikidata": "Q244457",
                        "brand:wikipedia": "en:Subway (restaurant)"
                    },
                    "distance": 14531.59872107,
                    "sims": 0.6349814051456917
                },
                {
                    "id": 10752047580,
                    "tags": {
                        "name": "Door 322"
                    },
                    "distance": 11935.23749634,
                    "sims": 0.6276172165084124
                }
            ]
        },
        "10": {
            "execution_time": 0.19264674186706543,
            "results": [
                {
                    "id": 11345589322,
                    "tags": {
                        "amenity": "bicycle_parking"
                    },
                    "distance": 7328.57945038,
                    "sims": 0.9365982843581778
                },
                {
                    "id": 600674103,
                    "tags": {
                        "amenity": "bicycle_parking"
                    },
                    "distance": 8745.35156376,
                    "sims": 0.9123321332338024
                },
                {
                    "id": 2404645673,
                    "tags": {
                        "amenity": "bicycle_parking",
                        "capacity": "8",
                        "bicycle_parking": "stands"
                    },
                    "distance": 3795.84501758,
                    "sims": 0.9121219401105499
                },
                {
                    "id": 6180386388,
                    "tags": {
                        "amenity": "bicycle_parking",
                        "capacity": "2",
                        "bicycle_parking": "stands"
                    },
                    "distance": 4446.07883112,
                    "sims": 0.9090285518101588
                },
                {
                    "id": 2404357761,
                    "tags": {
                        "amenity": "bicycle_parking",
                        "bicycle_parking": "stands"
                    },
                    "distance": 3789.72808114,
                    "sims": 0.9071531191447157
                },
                {
                    "id": 2017402077,
                    "tags": {
                        "amenity": "bicycle_parking",
                        "capacity": "10"
                    },
                    "distance": 5900.13805439,
                    "sims": 0.9061753377496649
                },
                {
                    "id": 4688417140,
                    "tags": {
                        "amenity": "bicycle_parking",
                        "covered": "yes",
                        "capacity": "6",
                        "bicycle_parking": "stands"
                    },
                    "distance": 2308.82172448,
                    "sims": 0.9050199672520403
                },
                {
                    "id": 6760877968,
                    "tags": {
                        "amenity": "bicycle_parking",
                        "capacity": "6"
                    },
                    "distance": 8035.1417828,
                    "sims": 0.9049915301820225
                },
                {
                    "id": 11927507938,
                    "tags": {
                        "amenity": "bicycle_parking",
                        "covered": "no",
                        "capacity": "4",
                        "bicycle_parking": "stands"
                    },
                    "distance": 3031.67553672,
                    "sims": 0.9048252985402196
                },
                {
                    "id": 6743436188,
                    "tags": {
                        "amenity": "bicycle_parking",
                        "capacity": "6"
                    },
                    "distance": 8121.22965402,
                    "sims": 0.9033412510142874
                }
            ]
        },
        "11": {
            "execution_time": 0.18401241302490234,
            "results": [
                {
                    "id": 12412489486,
                    "tags": {
                        "addr:street": "Jacaranda Lane",
                        "addr:housenumber": "21"
                    },
                    "distance": 11814.54296858,
                    "sims": 0.7838268972475451
                },
                {
                    "id": 12420110691,
                    "tags": {
                        "addr:street": "Jacana Avenue",
                        "addr:housenumber": "13"
                    },
                    "distance": 5583.60973942,
                    "sims": 0.776232766517362
                },
                {
                    "id": 12420107047,
                    "tags": {
                        "addr:street": "Taylors Road",
                        "addr:housenumber": "490"
                    },
                    "distance": 4740.17198378,
                    "sims": 0.7739412670416439
                },
                {
                    "id": 12419587902,
                    "tags": {
                        "addr:street": "Jacaranda Avenue",
                        "addr:housenumber": "16"
                    },
                    "distance": 19015.77689751,
                    "sims": 0.7726166736524155
                },
                {
                    "id": 12419824760,
                    "tags": {
                        "addr:street": "Taylors Road",
                        "addr:housenumber": "757"
                    },
                    "distance": 6868.27686972,
                    "sims": 0.7707044979551725
                },
                {
                    "id": 2094263831,
                    "tags": {
                        "addr:street": "Jacinta Court",
                        "addr:postcode": "3195",
                        "addr:housenumber": "10"
                    },
                    "distance": 11671.90284792,
                    "sims": 0.7706597348882908
                },
                {
                    "id": 12414983731,
                    "tags": {
                        "addr:street": "Jacaranda Court",
                        "addr:housenumber": "10"
                    },
                    "distance": 22010.80669771,
                    "sims": 0.7699138427192406
                },
                {
                    "id": 12419588061,
                    "tags": {
                        "addr:street": "Jacaranda Avenue",
                        "addr:housenumber": "26"
                    },
                    "distance": 19104.00444444,
                    "sims": 0.7696052696203775
                },
                {
                    "id": 12420052765,
                    "tags": {
                        "addr:street": "Colemans Road",
                        "addr:housenumber": "11R"
                    },
                    "distance": 3435.56364903,
                    "sims": 0.7690062432260227
                },
                {
                    "id": 12413720269,
                    "tags": {
                        "addr:street": "Cranbourne Road",
                        "addr:housenumber": "293"
                    },
                    "distance": 5454.60592107,
                    "sims": 0.7686754009089558
                }
            ]
        },
        "12": {
            "execution_time": 0.18169498443603516,
            "results": [
                {
                    "id": 11466821032,
                    "tags": {
                        "name": "Income Asset Management Group",
                        "level": "6",
                        "office": "company"
                    },
                    "distance": 15317.936472,
                    "sims": 0.7796107096292368
                },
                {
                    "id": 5001302979,
                    "tags": {
                        "fee": "yes",
                        "name": "Parkiteer",
                        "access": "customers",
                        "amenity": "bicycle_parking",
                        "covered": "yes",
                        "operator": "Bicycle Network",
                        "bicycle_parking": "lockers"
                    },
                    "distance": 597.89405253,
                    "sims": 0.7743530811421898
                },
                {
                    "id": 12554798947,
                    "tags": {
                        "access": "yes",
                        "amenity": "bench",
                        "armrest": "no",
                        "backrest": "no",
                        "material": "wood"
                    },
                    "distance": 1522.99956435,
                    "sims": 0.769807333992185
                },
                {
                    "id": 610639355,
                    "tags": {
                        "amenity": "bicycle_parking",
                        "covered": "no",
                        "capacity": "6",
                        "check_date": "2023-08-12",
                        "bicycle_parking": "stands"
                    },
                    "distance": 7605.38407694,
                    "sims": 0.7663176020818924
                },
                {
                    "id": 11980174373,
                    "tags": {
                        "bus": "yes",
                        "name": "East Balwyn Shopping Centre/354 Belmore Road",
                        "bench": "yes",
                        "highway": "bus_stop",
                        "network": "PTV - Metropolitan Buses",
                        "shelter": "yes",
                        "operator": "Kinetic",
                        "departures_board": "timetable",
                        "public_transport": "platform"
                    },
                    "distance": 4167.15809383,
                    "sims": 0.7661115349332074
                },
                {
                    "id": 7725817076,
                    "tags": {
                        "name": "Rotary Club Recycling",
                        "amenity": "recycling",
                        "recycling_type": "centre"
                    },
                    "distance": 3369.46440198,
                    "sims": 0.7655328475158796
                },
                {
                    "id": 12418916596,
                    "tags": {
                        "addr:street": "Sell Street",
                        "addr:housenumber": "6A"
                    },
                    "distance": 3621.20927818,
                    "sims": 0.7644477083941389
                },
                {
                    "id": 12329311512,
                    "tags": {
                        "building": "yes",
                        "addr:street": "Duncan Street",
                        "addr:housenumber": "33"
                    },
                    "distance": 2229.89101407,
                    "sims": 0.7612116906138421
                },
                {
                    "id": 7255148757,
                    "tags": {
                        "name": "I Love Books",
                        "shop": "books",
                        "level": "0",
                        "wheelchair": "no",
                        "second_hand": "yes",
                        "opening_hours": "Mo-Fr 10:00-16:00; Sa 10:00-13:00; PH closed; Su closed"
                    },
                    "distance": 3473.317278,
                    "sims": 0.7607673976976139
                },
                {
                    "id": 3299929984,
                    "tags": {
                        "name": "Barry Street Lunch Bar",
                        "amenity": "fast_food",
                        "opening_hours": "Mo-Fr 06:30-17:00; Sa 06:30-14:00"
                    },
                    "distance": 12312.14351333,
                    "sims": 0.7603911279466489
                }
            ]
        },
        "13": {
            "execution_time": 0.18167757987976074,
            "results": [
                {
                    "id": 6187393732,
                    "tags": {
                        "access": "yes",
                        "leisure": "playground"
                    },
                    "distance": 2043.17471228,
                    "sims": 0.5899087816748936
                },
                {
                    "id": 3238971772,
                    "tags": {
                        "access": "yes",
                        "leisure": "playground"
                    },
                    "distance": 6339.03646833,
                    "sims": 0.5797146791985313
                },
                {
                    "id": 7903498955,
                    "tags": {
                        "building": "yes"
                    },
                    "distance": 10270.57049708,
                    "sims": 0.5788950732004838
                },
                {
                    "id": 1427015790,
                    "tags": {
                        "access": "yes",
                        "leisure": "playground"
                    },
                    "distance": 3715.44427861,
                    "sims": 0.5773870416322483
                },
                {
                    "id": 6057027964,
                    "tags": {
                        "building": "yes"
                    },
                    "distance": 11204.12745558,
                    "sims": 0.576357669723754
                },
                {
                    "id": 7839222961,
                    "tags": {
                        "fee": "no",
                        "seats": "3",
                        "access": "yes",
                        "bottle": "no",
                        "colour": "green",
                        "amenity": "bench",
                        "backrest": "yes",
                        "material": "wood",
                        "wheelchair": "yes"
                    },
                    "distance": 4049.94281324,
                    "sims": 0.5758838129390099
                },
                {
                    "id": 6057027966,
                    "tags": {
                        "building": "yes"
                    },
                    "distance": 11319.58479801,
                    "sims": 0.5755437432423618
                },
                {
                    "id": 6057027950,
                    "tags": {
                        "building": "yes"
                    },
                    "distance": 11367.43829512,
                    "sims": 0.5747737959701686
                },
                {
                    "id": 3387041097,
                    "tags": {
                        "bus": "yes",
                        "ref": "ID.501",
                        "name": "Willsmere Shopping Centre/Willsmere Road",
                        "bench": "yes",
                        "highway": "bus_stop",
                        "network": "PTV - Metropolitan Buses",
                        "shelter": "no",
                        "route_ref": "200;207;609",
                        "tactile_paving": "no",
                        "public_transport": "platform"
                    },
                    "distance": 814.05435876,
                    "sims": 0.5743102507858976
                },
                {
                    "id": 353682379,
                    "tags": {
                        "access": "yes",
                        "leisure": "playground"
                    },
                    "distance": 10936.70657174,
                    "sims": 0.5737520280475916
                }
            ]
        },
        "14": {
            "execution_time": 0.18336200714111328,
            "results": [
                {
                    "id": 12420345716,
                    "tags": {
                        "addr:street": "Gerard Court",
                        "addr:housenumber": "14"
                    },
                    "distance": 11911.24800828,
                    "sims": 0.8768892810874764
                },
                {
                    "id": 12413700750,
                    "tags": {
                        "addr:street": "Carole Court",
                        "addr:housenumber": "6"
                    },
                    "distance": 7452.48032419,
                    "sims": 0.8761559202578131
                },
                {
                    "id": 12414244921,
                    "tags": {
                        "addr:street": "Jack William Way",
                        "addr:housenumber": "8"
                    },
                    "distance": 2447.15483028,
                    "sims": 0.8759685680847522
                },
                {
                    "id": 12414245631,
                    "tags": {
                        "addr:street": "Maralee Court",
                        "addr:housenumber": "6"
                    },
                    "distance": 2676.424459,
                    "sims": 0.8756601810455322
                },
                {
                    "id": 12420348814,
                    "tags": {
                        "addr:street": "Rebecca Court",
                        "addr:housenumber": "21"
                    },
                    "distance": 7204.99407321,
                    "sims": 0.8752982020378113
                },
                {
                    "id": 12420209233,
                    "tags": {
                        "addr:street": "Kirrilee Court",
                        "addr:housenumber": "5"
                    },
                    "distance": 3643.14721556,
                    "sims": 0.8750925064086914
                },
                {
                    "id": 12420352673,
                    "tags": {
                        "addr:street": "Catherine Place",
                        "addr:housenumber": "25"
                    },
                    "distance": 9390.6780072,
                    "sims": 0.8745195344376857
                },
                {
                    "id": 12420039971,
                    "tags": {
                        "addr:street": "William Leonard Court",
                        "addr:housenumber": "5I"
                    },
                    "distance": 3663.57515669,
                    "sims": 0.8731396869933807
                },
                {
                    "id": 12413700645,
                    "tags": {
                        "addr:street": "Carole Court",
                        "addr:housenumber": "1"
                    },
                    "distance": 7411.24414928,
                    "sims": 0.8729945421218872
                },
                {
                    "id": 12414301984,
                    "tags": {
                        "addr:street": "Kemsley Green",
                        "addr:housenumber": "8"
                    },
                    "distance": 4897.52097341,
                    "sims": 0.8728614525281533
                }
            ]
        },
        "15": {
            "execution_time": 0.1820356845855713,
            "results": [
                {
                    "id": 9203802330,
                    "tags": {
                        "amenity": "bicycle_parking"
                    },
                    "distance": 9660.5183186,
                    "sims": 0.9360668101270925
                },
                {
                    "id": 3494855069,
                    "tags": {
                        "amenity": "bicycle_parking"
                    },
                    "distance": 11206.18627974,
                    "sims": 0.9347417989527124
                },
                {
                    "id": 940960187,
                    "tags": {
                        "amenity": "bicycle_parking"
                    },
                    "distance": 12178.28655878,
                    "sims": 0.9300842922875724
                },
                {
                    "id": 10836221699,
                    "tags": {
                        "amenity": "bicycle_parking"
                    },
                    "distance": 11773.56727744,
                    "sims": 0.9228507326334294
                },
                {
                    "id": 10133912158,
                    "tags": {
                        "amenity": "bicycle_parking"
                    },
                    "distance": 14263.72197697,
                    "sims": 0.9196311927281389
                },
                {
                    "id": 5274784283,
                    "tags": {
                        "amenity": "bicycle_parking",
                        "capacity": "2",
                        "bicycle_parking": "stands"
                    },
                    "distance": 4234.07152873,
                    "sims": 0.9136629156075187
                },
                {
                    "id": 12611717733,
                    "tags": {
                        "amenity": "bicycle_parking",
                        "capacity": "3"
                    },
                    "distance": 15738.99903133,
                    "sims": 0.9133006437658496
                },
                {
                    "id": 6040816108,
                    "tags": {
                        "amenity": "bicycle_parking",
                        "capacity": "2",
                        "bicycle_parking": "stands"
                    },
                    "distance": 2798.65625782,
                    "sims": 0.9132285118103092
                },
                {
                    "id": 11206955084,
                    "tags": {
                        "amenity": "bicycle_parking"
                    },
                    "distance": 10628.73838131,
                    "sims": 0.9098182374347323
                },
                {
                    "id": 11090691369,
                    "tags": {
                        "amenity": "bicycle_parking",
                        "capacity": "7",
                        "bicycle_parking": "rack"
                    },
                    "distance": 4363.14817614,
                    "sims": 0.9026033994432212
                }
            ]
        },
        "16": {
            "execution_time": 0.1867833137512207,
            "results": [
                {
                    "id": 12412516457,
                    "tags": {
                        "addr:street": "Butcher Crescent",
                        "addr:housenumber": "13"
                    },
                    "distance": 9989.797876,
                    "sims": 0.8000784158846898
                },
                {
                    "id": 12412516452,
                    "tags": {
                        "addr:street": "Butcher Crescent",
                        "addr:housenumber": "7"
                    },
                    "distance": 9974.69667793,
                    "sims": 0.7892660247404661
                },
                {
                    "id": 12412105242,
                    "tags": {
                        "addr:street": "Ovens Street",
                        "addr:housenumber": "17"
                    },
                    "distance": 2369.20344128,
                    "sims": 0.7652257401020272
                },
                {
                    "id": 12412105245,
                    "tags": {
                        "addr:street": "Ovens Street",
                        "addr:housenumber": "20"
                    },
                    "distance": 2392.94815822,
                    "sims": 0.7650188155500347
                },
                {
                    "id": 12419665762,
                    "tags": {
                        "addr:unit": "5",
                        "addr:street": "Stapley Crescent",
                        "addr:housenumber": "18"
                    },
                    "distance": 1982.75006036,
                    "sims": 0.761963980549095
                },
                {
                    "id": 6741632383,
                    "tags": {
                        "name": "Mediattion",
                        "shop": "massage"
                    },
                    "distance": 5690.06947794,
                    "sims": 0.7619437518632073
                },
                {
                    "id": 5074827121,
                    "tags": {
                        "name": "burgerlove",
                        "amenity": "restaurant",
                        "cuisine": "burger",
                        "addr:street": "George Street",
                        "addr:housenumber": "2"
                    },
                    "distance": 6027.70338904,
                    "sims": 0.7604871929417868
                },
                {
                    "id": 12412208870,
                    "tags": {
                        "addr:street": "Vernier Street",
                        "addr:housenumber": "9"
                    },
                    "distance": 1569.95079328,
                    "sims": 0.7603278554169833
                },
                {
                    "id": 12412105231,
                    "tags": {
                        "addr:street": "Ovens Street",
                        "addr:housenumber": "3"
                    },
                    "distance": 2382.15851581,
                    "sims": 0.7601953089528276
                },
                {
                    "id": 12419379391,
                    "tags": {
                        "addr:unit": "11",
                        "addr:street": "Gordon Parade",
                        "addr:housenumber": "20"
                    },
                    "distance": 1721.93280426,
                    "sims": 0.7598295068639345
                }
            ]
        },
        "17": {
            "execution_time": 0.18435215950012207,
            "results": [
                {
                    "id": 8940301696,
                    "tags": {
                        "building": "yes"
                    },
                    "distance": 11818.76618572,
                    "sims": 0.6399985265727621
                },
                {
                    "id": 919254737,
                    "tags": {
                        "name": "053",
                        "note_1": "18-SEP-10 3:15:55PM",
                        "_waypoint_": "yes",
                        "_description_": "18-SEP-10 3:15:55PM"
                    },
                    "distance": 40922.01065083,
                    "sims": 0.621570566998709
                },
                {
                    "id": 6153096860,
                    "tags": {
                        "access": "yes",
                        "leisure": "playground"
                    },
                    "distance": 4353.52525695,
                    "sims": 0.6068812575774752
                },
                {
                    "id": 6057027950,
                    "tags": {
                        "building": "yes"
                    },
                    "distance": 17990.41481821,
                    "sims": 0.5993892488498016
                },
                {
                    "id": 6057027964,
                    "tags": {
                        "building": "yes"
                    },
                    "distance": 18138.47916559,
                    "sims": 0.598801368010619
                },
                {
                    "id": 7903498955,
                    "tags": {
                        "building": "yes"
                    },
                    "distance": 18519.85664615,
                    "sims": 0.5987652832710841
                },
                {
                    "id": 6057027966,
                    "tags": {
                        "building": "yes"
                    },
                    "distance": 18090.4401136,
                    "sims": 0.5982901744351892
                },
                {
                    "id": 10239585569,
                    "tags": {
                        "bus": "yes",
                        "name": "Lawson Way/John Fawkner Drive",
                        "highway": "bus_stop",
                        "public_transport": "platform"
                    },
                    "distance": 13027.05921516,
                    "sims": 0.588744332005912
                },
                {
                    "id": 11715644414,
                    "tags": {
                        "bus": "yes",
                        "name": "Bella Vista Way/Lakeview Dr",
                        "highway": "bus_stop",
                        "public_transport": "platform"
                    },
                    "distance": 11317.23849495,
                    "sims": 0.5772614503401978
                },
                {
                    "id": 3221430137,
                    "tags": {
                        "access": "yes",
                        "leisure": "playground"
                    },
                    "distance": 13127.45857939,
                    "sims": 0.5766803472294202
                }
            ]
        },
        "18": {
            "execution_time": 0.18326044082641602,
            "results": [
                {
                    "id": 9908673437,
                    "tags": {
                        "name": "Lysterfield Lake College",
                        "note": "Currently co-located with Harkaway Hills until new campus is built.",
                        "grades": "0-12",
                        "amenity": "school",
                        "operator": "Pared Victoria Limited",
                        "religion": "christian",
                        "addr:street": "A'Beckett Road",
                        "isced:level": "1-3",
                        "denomination": "catholic",
                        "operator:type": "private",
                        "addr:housenumber": "20",
                        "operator:wikidata": "Q7136823"
                    },
                    "distance": 18622.99901412,
                    "sims": 0.8305457133380019
                },
                {
                    "id": 12420344536,
                    "tags": {
                        "addr:street": "Dame Pattie Avenue",
                        "addr:housenumber": "18"
                    },
                    "distance": 2333.27294807,
                    "sims": 0.830116644214092
                },
                {
                    "id": 12420337870,
                    "tags": {
                        "addr:street": "Green Gully Road",
                        "addr:housenumber": "32B"
                    },
                    "distance": 16492.66250393,
                    "sims": 0.8234339952468931
                },
                {
                    "id": 12421169047,
                    "tags": {
                        "addr:street": "Anfield Road",
                        "addr:housenumber": "36E"
                    },
                    "distance": 14502.53231202,
                    "sims": 0.8197950154237476
                },
                {
                    "id": 10794838198,
                    "tags": {
                        "addr:street": "Dame Avenue",
                        "addr:housenumber": "18"
                    },
                    "distance": 15719.40143544,
                    "sims": 0.8196105497727293
                },
                {
                    "id": 12421169488,
                    "tags": {
                        "addr:street": "Tuition Drive",
                        "addr:housenumber": "16"
                    },
                    "distance": 13703.37003637,
                    "sims": 0.8188302408951679
                },
                {
                    "id": 12421169496,
                    "tags": {
                        "addr:street": "Tuition Drive",
                        "addr:housenumber": "18"
                    },
                    "distance": 13695.65713405,
                    "sims": 0.8186378966950131
                },
                {
                    "id": 12414246640,
                    "tags": {
                        "addr:street": "Marisa Crescent",
                        "addr:housenumber": "54-56"
                    },
                    "distance": 12507.02352299,
                    "sims": 0.8181349526724205
                },
                {
                    "id": 12420212384,
                    "tags": {
                        "addr:street": "Edrington Park Drive",
                        "addr:housenumber": "17"
                    },
                    "distance": 12991.38151942,
                    "sims": 0.8176748643919759
                },
                {
                    "id": 12413556543,
                    "tags": {
                        "addr:street": "Wesley Drive",
                        "addr:housenumber": "33"
                    },
                    "distance": 16858.03824289,
                    "sims": 0.8176497112303814
                }
            ]
        },
        "19": {
            "execution_time": 0.18631720542907715,
            "results": [
                {
                    "id": 6176046755,
                    "tags": {
                        "name": "Berth 3",
                        "bench": "yes",
                        "ferry": "yes",
                        "shelter": "yes",
                        "tactile_paving": "yes",
                        "public_transport": "platform"
                    },
                    "distance": 2420.33019671,
                    "sims": 0.5862647931978816
                },
                {
                    "id": 6822003747,
                    "tags": {
                        "shop": "newsagent",
                        "wheelchair": "yes",
                        "toilets:wheelchair": "yes"
                    },
                    "distance": 3047.8284942,
                    "sims": 0.5842439853781798
                },
                {
                    "id": 10572742041,
                    "tags": {
                        "seats": "3",
                        "access": "yes",
                        "amenity": "bench",
                        "backrest": "yes"
                    },
                    "distance": 2833.43311763,
                    "sims": 0.5739115554357992
                },
                {
                    "id": 7248901077,
                    "tags": {
                        "bin": "yes",
                        "bus": "yes",
                        "lit": "no",
                        "ref": "ID.344",
                        "name": "Victoria Street/Rathdowne Street",
                        "bench": "yes",
                        "image": "https://storage12.openstreetcam.org/files/photo/2019/10/2/lth/2030257_75de9_5d946664b444b.jpg",
                        "highway": "bus_stop",
                        "network": "PTV - Metropolitan Buses",
                        "shelter": "yes",
                        "route_ref": "250;251;402",
                        "survey:date": "2019-10-02",
                        "tactile_paving": "yes",
                        "network:wikidata": "Q7257648",
                        "public_transport": "platform",
                        "network:wikipedia": "en:Public Transport Victoria"
                    },
                    "distance": 3153.29362659,
                    "sims": 0.5693080429686423
                },
                {
                    "id": 10572742055,
                    "tags": {
                        "seats": "3",
                        "access": "yes",
                        "amenity": "bench",
                        "backrest": "yes"
                    },
                    "distance": 4184.81117121,
                    "sims": 0.5684174732166755
                },
                {
                    "id": 4242200260,
                    "tags": {
                        "access": "yes",
                        "leisure": "playground"
                    },
                    "distance": 1892.92861117,
                    "sims": 0.5670409638784178
                },
                {
                    "id": 11411830350,
                    "tags": {
                        "name": "Sushi Hub",
                        "level": "0",
                        "amenity": "fast_food",
                        "cuisine": "japanese;sushi",
                        "wheelchair": "yes"
                    },
                    "distance": 2584.56343492,
                    "sims": 0.5645591034915136
                },
                {
                    "id": 12437695845,
                    "tags": {
                        "name": "Pazzi",
                        "level": "2",
                        "amenity": "fast_food",
                        "cuisine": "italian;pasta;pizza",
                        "takeaway": "yes",
                        "wheelchair": "yes",
                        "indoor_seating": "yes"
                    },
                    "distance": 2507.4925142,
                    "sims": 0.564164325198112
                },
                {
                    "id": 7246258957,
                    "tags": {
                        "bus": "yes",
                        "name": "Southern Cross Coach Terminal (Bay 76)",
                        "level": "0",
                        "highway": "bus_stop",
                        "shelter": "yes",
                        "public_transport": "platform"
                    },
                    "distance": 1340.01530583,
                    "sims": 0.5635170785148117
                },
                {
                    "id": 11466832520,
                    "tags": {
                        "name": "Sushi Land",
                        "level": "0",
                        "amenity": "fast_food",
                        "cuisine": "sushi",
                        "takeaway": "yes",
                        "wheelchair": "yes"
                    },
                    "distance": 2951.22016449,
                    "sims": 0.560617995077978
                }
            ]
        },
        "20": {
            "execution_time": 0.18668198585510254,
            "results": [
                {
                    "id": 10601105871,
                    "tags": {
                        "amenity": "bench"
                    },
                    "distance": 18069.98567018,
                    "sims": 0.8883081937754874
                },
                {
                    "id": 9234286169,
                    "tags": {
                        "amenity": "bench"
                    },
                    "distance": 11627.22117053,
                    "sims": 0.8882907362677674
                },
                {
                    "id": 10631076293,
                    "tags": {
                        "amenity": "bench"
                    },
                    "distance": 21579.16722016,
                    "sims": 0.8880292573027869
                },
                {
                    "id": 10580707146,
                    "tags": {
                        "amenity": "bench"
                    },
                    "distance": 17943.57186701,
                    "sims": 0.8876932591660893
                },
                {
                    "id": 11975317310,
                    "tags": {
                        "amenity": "bench"
                    },
                    "distance": 18101.72568264,
                    "sims": 0.887676682375887
                },
                {
                    "id": 9884552780,
                    "tags": {
                        "amenity": "bench"
                    },
                    "distance": 18138.17367959,
                    "sims": 0.8876718677888075
                },
                {
                    "id": 10570438145,
                    "tags": {
                        "amenity": "bench"
                    },
                    "distance": 17819.36268538,
                    "sims": 0.8874473966564448
                },
                {
                    "id": 9407153824,
                    "tags": {
                        "amenity": "bench"
                    },
                    "distance": 18992.18030851,
                    "sims": 0.887197699307724
                },
                {
                    "id": 9407153390,
                    "tags": {
                        "amenity": "bench"
                    },
                    "distance": 18604.39579938,
                    "sims": 0.8870457141508626
                },
                {
                    "id": 10775624029,
                    "tags": {
                        "amenity": "bench"
                    },
                    "distance": 17909.8762808,
                    "sims": 0.8870176999611391
                }
            ]
        },
        "21": {
            "execution_time": 0.18164467811584473,
            "results": [
                {
                    "id": 4192572946,
                    "tags": {
                        "name": "Barry Plant",
                        "office": "estate_agent"
                    },
                    "distance": 9333.0960422,
                    "sims": 0.8611297011375427
                },
                {
                    "id": 6110272017,
                    "tags": {
                        "name": "Barry Plant",
                        "office": "estate_agent"
                    },
                    "distance": 12636.14212352,
                    "sims": 0.8605366945266724
                },
                {
                    "id": 12420070981,
                    "tags": {
                        "addr:street": "Clementine Boulevard",
                        "addr:housenumber": "93"
                    },
                    "distance": 2806.37767893,
                    "sims": 0.7170700858277146
                },
                {
                    "id": 2402084241,
                    "tags": {
                        "amenity": "vending_machine",
                        "vending": "parking_tickets"
                    },
                    "distance": 7305.70255962,
                    "sims": 0.7157934308052063
                },
                {
                    "id": 12417735874,
                    "tags": {
                        "addr:street": "Clementine Boulevard",
                        "addr:housenumber": "98"
                    },
                    "distance": 2885.41555526,
                    "sims": 0.7131863065473036
                },
                {
                    "id": 12417724635,
                    "tags": {
                        "addr:street": "Kingston Boulevard",
                        "addr:housenumber": "139"
                    },
                    "distance": 5791.0321785,
                    "sims": 0.7130489945411682
                },
                {
                    "id": 12417735884,
                    "tags": {
                        "addr:street": "Clementine Boulevard",
                        "addr:housenumber": "106"
                    },
                    "distance": 2813.24671049,
                    "sims": 0.7123763561248779
                },
                {
                    "id": 11260135055,
                    "tags": {
                        "amenity": "vending_machine",
                        "vending": "public_transport_tickets",
                        "operator": "PTV"
                    },
                    "distance": 3828.30140433,
                    "sims": 0.7106149369111707
                },
                {
                    "id": 12412509278,
                    "tags": {
                        "addr:street": "Palmer Parade",
                        "addr:housenumber": "50"
                    },
                    "distance": 10358.41867677,
                    "sims": 0.7090675408203888
                },
                {
                    "id": 12417718090,
                    "tags": {
                        "addr:street": "Kingston Boulevard",
                        "addr:housenumber": "145"
                    },
                    "distance": 5849.5070424,
                    "sims": 0.7081032395362854
                }
            ]
        },
        "22": {
            "execution_time": 0.18462848663330078,
            "results": [
                {
                    "id": 12419625058,
                    "tags": {
                        "addr:street": "Mentone Parade",
                        "addr:housenumber": "47-79"
                    },
                    "distance": 12467.75570194,
                    "sims": 0.8537139470918302
                },
                {
                    "id": 12414260372,
                    "tags": {
                        "addr:street": "Manuka Mews",
                        "addr:housenumber": "8"
                    },
                    "distance": 8415.19216923,
                    "sims": 0.8354003723739927
                },
                {
                    "id": 12420121922,
                    "tags": {
                        "addr:street": "Menzies Close",
                        "addr:housenumber": "24"
                    },
                    "distance": 9608.65605347,
                    "sims": 0.8283714856658654
                },
                {
                    "id": 12413725095,
                    "tags": {
                        "addr:street": "Manuka Court",
                        "addr:housenumber": "10"
                    },
                    "distance": 12033.62157091,
                    "sims": 0.8269325701078748
                },
                {
                    "id": 12420358113,
                    "tags": {
                        "addr:street": "Pottery Road",
                        "addr:housenumber": "6"
                    },
                    "distance": 18874.68103864,
                    "sims": 0.824810645006824
                },
                {
                    "id": 12420123579,
                    "tags": {
                        "addr:street": "Rock Lodge Court",
                        "addr:housenumber": "2"
                    },
                    "distance": 11237.78616822,
                    "sims": 0.8194277149950612
                },
                {
                    "id": 12413719232,
                    "tags": {
                        "addr:street": "The Mews",
                        "addr:housenumber": "5"
                    },
                    "distance": 9671.37527082,
                    "sims": 0.8191029752904831
                },
                {
                    "id": 12420302377,
                    "tags": {
                        "addr:street": "Alverstone Grove",
                        "addr:housenumber": "13"
                    },
                    "distance": 14135.45771011,
                    "sims": 0.8189296450144702
                },
                {
                    "id": 12414306403,
                    "tags": {
                        "addr:street": "Baxter Tooradin Road",
                        "addr:housenumber": "71"
                    },
                    "distance": 13294.57224918,
                    "sims": 0.8188003517627355
                },
                {
                    "id": 12414952623,
                    "tags": {
                        "addr:street": "Seacombe Grove",
                        "addr:housenumber": "11"
                    },
                    "distance": 17014.17200358,
                    "sims": 0.8184471590715298
                }
            ]
        },
        "23": {
            "execution_time": 0.18047189712524414,
            "results": [
                {
                    "id": 12099989743,
                    "tags": {
                        "amenity": "charging_station",
                        "operator": "Chargefox",
                        "socket:type2": "8",
                        "operator:wikidata": "Q105775824"
                    },
                    "distance": 27196.69559506,
                    "sims": 0.715684439621506
                },
                {
                    "id": 12417734384,
                    "tags": {
                        "addr:street": "Apricot Circuit",
                        "addr:housenumber": "44"
                    },
                    "distance": 6766.06617519,
                    "sims": 0.7146945851677212
                },
                {
                    "id": 7599704873,
                    "tags": {
                        "name": "LicorZone",
                        "shop": "alcohol"
                    },
                    "distance": 9699.77894583,
                    "sims": 0.7101825553505234
                },
                {
                    "id": 12413569893,
                    "tags": {
                        "addr:street": "Merryfield Circuit",
                        "addr:housenumber": "44"
                    },
                    "distance": 5083.03139147,
                    "sims": 0.7101243984847594
                },
                {
                    "id": 12413570857,
                    "tags": {
                        "addr:street": "Polaris Circuit",
                        "addr:housenumber": "28"
                    },
                    "distance": 5890.11885461,
                    "sims": 0.7094650095382452
                },
                {
                    "id": 12417734362,
                    "tags": {
                        "addr:street": "Apricot Circuit",
                        "addr:housenumber": "27"
                    },
                    "distance": 6721.74383658,
                    "sims": 0.7067715982752468
                },
                {
                    "id": 12417734382,
                    "tags": {
                        "addr:street": "Apricot Circuit",
                        "addr:housenumber": "9"
                    },
                    "distance": 6690.9550841,
                    "sims": 0.706657570997343
                },
                {
                    "id": 12413570838,
                    "tags": {
                        "addr:street": "Polaris Circuit",
                        "addr:housenumber": "40"
                    },
                    "distance": 5935.36656459,
                    "sims": 0.7058124191537454
                },
                {
                    "id": 12417786650,
                    "tags": {
                        "addr:street": "Freemont Circuit",
                        "addr:housenumber": "45"
                    },
                    "distance": 2943.41661794,
                    "sims": 0.7056867129429286
                },
                {
                    "id": 12417777865,
                    "tags": {
                        "addr:street": "Seaford Circuit",
                        "addr:housenumber": "23"
                    },
                    "distance": 3098.20138216,
                    "sims": 0.7046587535128761
                }
            ]
        },
        "24": {
            "execution_time": 0.18625330924987793,
            "results": [
                {
                    "id": 8940301696,
                    "tags": {
                        "building": "yes"
                    },
                    "distance": 13124.49335951,
                    "sims": 0.6351248348057282
                },
                {
                    "id": 919254737,
                    "tags": {
                        "name": "053",
                        "note_1": "18-SEP-10 3:15:55PM",
                        "_waypoint_": "yes",
                        "_description_": "18-SEP-10 3:15:55PM"
                    },
                    "distance": 22061.00931983,
                    "sims": 0.6305198540162698
                },
                {
                    "id": 6153096860,
                    "tags": {
                        "access": "yes",
                        "leisure": "playground"
                    },
                    "distance": 21325.31939051,
                    "sims": 0.5968294730274564
                },
                {
                    "id": 12420367720,
                    "tags": {
                        "addr:street": "Warburton Highway",
                        "addr:housenumber": "2667"
                    },
                    "distance": 9728.83304054,
                    "sims": 0.5831421314986388
                },
                {
                    "id": 11715644414,
                    "tags": {
                        "bus": "yes",
                        "name": "Bella Vista Way/Lakeview Dr",
                        "highway": "bus_stop",
                        "public_transport": "platform"
                    },
                    "distance": 14892.52568249,
                    "sims": 0.5692722875474646
                },
                {
                    "id": 3221430137,
                    "tags": {
                        "access": "yes",
                        "leisure": "playground"
                    },
                    "distance": 26639.33852897,
                    "sims": 0.5679539942604539
                },
                {
                    "id": 9033898183,
                    "tags": {
                        "building": "yes",
                        "addr:street": "Warburton Highway",
                        "addr:housenumber": "2807"
                    },
                    "distance": 10569.35265965,
                    "sims": 0.5671635768305247
                },
                {
                    "id": 12420306457,
                    "tags": {
                        "addr:street": "Warburton Highway",
                        "addr:housenumber": "1810"
                    },
                    "distance": 2674.55888997,
                    "sims": 0.5648030533799939
                },
                {
                    "id": 12420405739,
                    "tags": {
                        "addr:street": "Warburton Highway",
                        "addr:housenumber": "3372"
                    },
                    "distance": 14547.67283694,
                    "sims": 0.5639268052360086
                },
                {
                    "id": 10239585569,
                    "tags": {
                        "bus": "yes",
                        "name": "Lawson Way/John Fawkner Drive",
                        "highway": "bus_stop",
                        "public_transport": "platform"
                    },
                    "distance": 31604.99878475,
                    "sims": 0.5636257420855242
                }
            ]
        },
        "25": {
            "execution_time": 0.18725013732910156,
            "results": [
                {
                    "id": 2889038871,
                    "tags": {
                        "bus": "yes",
                        "name": "Verona Drive/Melton Highway",
                        "highway": "bus_stop",
                        "shelter": "no",
                        "operator": "PTV - Metropolitan Buses",
                        "public_transport": "platform"
                    },
                    "distance": 4564.26609166,
                    "sims": 0.560854139786248
                },
                {
                    "id": 11445879313,
                    "tags": {
                        "bus": "yes",
                        "ref": "21650",
                        "name": "Abbotswood Drive/Tarneit Road",
                        "highway": "bus_stop",
                        "public_transport": "platform"
                    },
                    "distance": 16183.32334971,
                    "sims": 0.5577609814458439
                },
                {
                    "id": 11436852061,
                    "tags": {
                        "bus": "yes",
                        "ref": "50233",
                        "name": "Evergreen Drive/Ballan Road",
                        "highway": "bus_stop",
                        "public_transport": "platform"
                    },
                    "distance": 21370.63793433,
                    "sims": 0.5545404547968449
                },
                {
                    "id": 11436851973,
                    "tags": {
                        "bus": "yes",
                        "ref": "50156",
                        "name": "Eppalock Drive/Manor Lakes Boulevard",
                        "highway": "bus_stop",
                        "public_transport": "platform"
                    },
                    "distance": 21413.7977382,
                    "sims": 0.5531133666579716
                },
                {
                    "id": 11435401810,
                    "tags": {
                        "bus": "yes",
                        "ref": "51888",
                        "name": "Memory Crescent/Welcome Parade",
                        "highway": "bus_stop",
                        "public_transport": "platform"
                    },
                    "distance": 20654.34192003,
                    "sims": 0.5499971151338798
                },
                {
                    "id": 9929031671,
                    "tags": {
                        "bus": "yes",
                        "name": "Overton Lea Boulevard/Melton Highway",
                        "highway": "bus_stop",
                        "shelter": "yes",
                        "public_transport": "platform"
                    },
                    "distance": 2991.28339828,
                    "sims": 0.5488800043488193
                },
                {
                    "id": 8381850673,
                    "tags": {
                        "bus": "yes",
                        "ref": "ID.4561",
                        "name": "Elizabeth Drive/Heysen Drive",
                        "highway": "bus_stop",
                        "network": "PTV - Metropolitan Buses",
                        "public_transport": "platform"
                    },
                    "distance": 16058.73780185,
                    "sims": 0.5471744925370279
                },
                {
                    "id": 7934407566,
                    "tags": {
                        "bus": "yes",
                        "ref": "27564",
                        "name": "Blamey Drive/Bridge Road",
                        "highway": "bus_stop",
                        "network": "PTV Metropolitan Buses",
                        "operator": "Public Transport Victoria",
                        "departures_board": "timetable",
                        "public_transport": "platform"
                    },
                    "distance": 15155.31478626,
                    "sims": 0.5445212013512686
                },
                {
                    "id": 11445879317,
                    "tags": {
                        "bus": "yes",
                        "ref": "28020",
                        "name": "Eagleridge Promenade/Leakes Road",
                        "highway": "bus_stop",
                        "public_transport": "platform"
                    },
                    "distance": 14450.08383752,
                    "sims": 0.5388002580644543
                },
                {
                    "id": 10292525080,
                    "tags": {
                        "bin": "no",
                        "name": "Conquest Drive",
                        "bench": "no",
                        "covered": "no",
                        "highway": "bus_stop",
                        "route_ref": "170",
                        "tactile_paving": "yes",
                        "public_transport": "platform"
                    },
                    "distance": 20877.74606468,
                    "sims": 0.5378693522784617
                }
            ]
        },
        "26": {
            "execution_time": 0.18331050872802734,
            "results": [
                {
                    "id": 2188972996,
                    "tags": {
                        "shop": "greengrocer"
                    },
                    "distance": 9119.25160981,
                    "sims": 0.9015432151471435
                },
                {
                    "id": 12413677152,
                    "tags": {
                        "addr:street": "Greenside Circuit",
                        "addr:housenumber": "23"
                    },
                    "distance": 12319.15580044,
                    "sims": 0.8259747416943063
                },
                {
                    "id": 12413677175,
                    "tags": {
                        "addr:street": "Greenside Circuit",
                        "addr:housenumber": "38"
                    },
                    "distance": 12252.94465166,
                    "sims": 0.8239569454141848
                },
                {
                    "id": 12413677187,
                    "tags": {
                        "addr:street": "Greenside Circuit",
                        "addr:housenumber": "47"
                    },
                    "distance": 12257.71185191,
                    "sims": 0.8204949880236432
                },
                {
                    "id": 12421168991,
                    "tags": {
                        "addr:street": "Greenfinch Drive",
                        "addr:housenumber": "19"
                    },
                    "distance": 1222.64184994,
                    "sims": 0.8126397151708211
                },
                {
                    "id": 12417448231,
                    "tags": {
                        "addr:street": "Greenfinch Drive",
                        "addr:housenumber": "20"
                    },
                    "distance": 1210.42548999,
                    "sims": 0.8093151818889653
                },
                {
                    "id": 12421161779,
                    "tags": {
                        "addr:street": "Greenfinch Drive",
                        "addr:housenumber": "1"
                    },
                    "distance": 1183.73845311,
                    "sims": 0.8005936026927124
                },
                {
                    "id": 12417454072,
                    "tags": {
                        "addr:street": "Carora Circuit",
                        "addr:housenumber": "26"
                    },
                    "distance": 1442.27867586,
                    "sims": 0.7988347291251984
                },
                {
                    "id": 12421168722,
                    "tags": {
                        "addr:street": "Koalas Circuit",
                        "addr:housenumber": "36"
                    },
                    "distance": 2483.42041101,
                    "sims": 0.7988165853291619
                },
                {
                    "id": 12414304696,
                    "tags": {
                        "addr:street": "Leafy Circuit",
                        "addr:housenumber": "29"
                    },
                    "distance": 4598.0052353,
                    "sims": 0.7966617699458381
                }
            ]
        },
        "27": {
            "execution_time": 0.18520593643188477,
            "results": [
                {
                    "id": 12418110110,
                    "tags": {
                        "addr:street": "Princes Street",
                        "addr:housenumber": "46"
                    },
                    "distance": 6898.31455328,
                    "sims": 0.8381319431944267
                },
                {
                    "id": 12410834343,
                    "tags": {
                        "addr:street": "Estelle Street",
                        "addr:housenumber": "55"
                    },
                    "distance": 1580.22352217,
                    "sims": 0.8353093063094124
                },
                {
                    "id": 12418315633,
                    "tags": {
                        "addr:street": "Power Street",
                        "addr:housenumber": "40"
                    },
                    "distance": 5228.04278494,
                    "sims": 0.8317956133376326
                },
                {
                    "id": 12418098341,
                    "tags": {
                        "addr:street": "Dalvey Street",
                        "addr:housenumber": "34"
                    },
                    "distance": 2759.22243496,
                    "sims": 0.8314288064411385
                },
                {
                    "id": 12418914980,
                    "tags": {
                        "addr:street": "Ascot Street",
                        "addr:housenumber": "22"
                    },
                    "distance": 5626.31819941,
                    "sims": 0.8299273163296962
                },
                {
                    "id": 12418108384,
                    "tags": {
                        "addr:street": "Estelle Street",
                        "addr:housenumber": "67"
                    },
                    "distance": 1769.89235844,
                    "sims": 0.8297046727470517
                },
                {
                    "id": 12411533368,
                    "tags": {
                        "addr:street": "Unwin Street",
                        "addr:housenumber": "35"
                    },
                    "distance": 2641.48863188,
                    "sims": 0.8296056301577134
                },
                {
                    "id": 12410827870,
                    "tags": {
                        "addr:street": "May Street",
                        "addr:housenumber": "57"
                    },
                    "distance": 5024.89356469,
                    "sims": 0.8279195242120205
                },
                {
                    "id": 12418376664,
                    "tags": {
                        "addr:street": "Coolabah Street",
                        "addr:housenumber": "43"
                    },
                    "distance": 4347.26128747,
                    "sims": 0.8278981364077056
                },
                {
                    "id": 12411534695,
                    "tags": {
                        "addr:street": "High Street",
                        "addr:housenumber": "54"
                    },
                    "distance": 2119.04770077,
                    "sims": 0.8265519555683477
                }
            ]
        },
        "28": {
            "execution_time": 0.18649792671203613,
            "results": [
                {
                    "id": 10989437110,
                    "tags": {
                        "amenity": "bench"
                    },
                    "distance": 11845.7029237,
                    "sims": 0.8907180233093606
                },
                {
                    "id": 9832413287,
                    "tags": {
                        "amenity": "bench"
                    },
                    "distance": 2928.88907412,
                    "sims": 0.8885054653745406
                },
                {
                    "id": 9832413286,
                    "tags": {
                        "amenity": "bench"
                    },
                    "distance": 2940.84021161,
                    "sims": 0.8883872428632876
                },
                {
                    "id": 9250342678,
                    "tags": {
                        "amenity": "bench"
                    },
                    "distance": 970.13181162,
                    "sims": 0.8880198133021413
                },
                {
                    "id": 10223025219,
                    "tags": {
                        "amenity": "bench"
                    },
                    "distance": 345.10475087,
                    "sims": 0.8876460258222312
                },
                {
                    "id": 10223025192,
                    "tags": {
                        "amenity": "bench"
                    },
                    "distance": 573.51710896,
                    "sims": 0.8875279557001623
                },
                {
                    "id": 9858347361,
                    "tags": {
                        "amenity": "bench"
                    },
                    "distance": 2149.53318527,
                    "sims": 0.8869761954212578
                },
                {
                    "id": 9858347349,
                    "tags": {
                        "amenity": "bench"
                    },
                    "distance": 2173.87211389,
                    "sims": 0.8869076433287151
                },
                {
                    "id": 9858347352,
                    "tags": {
                        "amenity": "bench"
                    },
                    "distance": 2203.64179336,
                    "sims": 0.8868365017977973
                },
                {
                    "id": 9256129186,
                    "tags": {
                        "amenity": "bench"
                    },
                    "distance": 3842.7931184,
                    "sims": 0.8860609659643519
                }
            ]
        },
        "29": {
            "execution_time": 0.18511629104614258,
            "results": [
                {
                    "id": 687164065,
                    "tags": {
                        "shop": "car_repair"
                    },
                    "distance": 9271.93640529,
                    "sims": 0.8901313543319702
                },
                {
                    "id": 12076418809,
                    "tags": {
                        "name": "The Landy Place",
                        "shop": "car_repair"
                    },
                    "distance": 11106.91263473,
                    "sims": 0.835490991800488
                },
                {
                    "id": 5960549360,
                    "tags": {
                        "name": "Auto Repairs",
                        "shop": "car_repair"
                    },
                    "distance": 25290.43208668,
                    "sims": 0.819899320602417
                },
                {
                    "id": 392643731,
                    "tags": {
                        "name": "DJS Auto Electrical",
                        "shop": "car_repair"
                    },
                    "distance": 4188.00121115,
                    "sims": 0.7962404610967375
                },
                {
                    "id": 10078543827,
                    "tags": {
                        "name": "T and A Automotive",
                        "shop": "car_repair",
                        "addr:street": "Park Road",
                        "addr:housenumber": "35"
                    },
                    "distance": 9317.39786233,
                    "sims": 0.7949449297752949
                },
                {
                    "id": 1826198580,
                    "tags": {
                        "amenity": "car_wash"
                    },
                    "distance": 8153.71792344,
                    "sims": 0.7769827379594615
                },
                {
                    "id": 8726577234,
                    "tags": {
                        "name": "Auto Salone",
                        "shop": "car_repair",
                        "addr:street": "Sarton Road",
                        "addr:housenumber": "77"
                    },
                    "distance": 9321.44877425,
                    "sims": 0.7722669108073076
                },
                {
                    "id": 4066348929,
                    "tags": {
                        "name": "Kittens Car Wash",
                        "amenity": "car_wash"
                    },
                    "distance": 4352.38247477,
                    "sims": 0.7660952349844449
                },
                {
                    "id": 5197565832,
                    "tags": {
                        "name": "Car Wash Service Repaire",
                        "phone": "+61 3 9574 1223",
                        "amenity": "car_wash",
                        "automated": "no",
                        "self_service": "no"
                    },
                    "distance": 10592.25121393,
                    "sims": 0.7657049894332886
                },
                {
                    "id": 5341866327,
                    "tags": {
                        "name": "Repairs",
                        "shop": "tailor"
                    },
                    "distance": 2637.07769943,
                    "sims": 0.7654908299446106
                }
            ]
        },
        "30": {
            "execution_time": 0.18285274505615234,
            "results": [
                {
                    "id": 12414324368,
                    "tags": {
                        "addr:street": "Manuka Grove",
                        "addr:housenumber": "19"
                    },
                    "distance": 26083.11753825,
                    "sims": 0.8310045398479388
                },
                {
                    "id": 12414324353,
                    "tags": {
                        "addr:street": "Manuka Grove",
                        "addr:housenumber": "41"
                    },
                    "distance": 26057.81143573,
                    "sims": 0.8305272156943005
                },
                {
                    "id": 12414324878,
                    "tags": {
                        "addr:street": "Manuka Grove",
                        "addr:housenumber": "49"
                    },
                    "distance": 25981.43774358,
                    "sims": 0.8302076751365214
                },
                {
                    "id": 12414325371,
                    "tags": {
                        "addr:street": "Manuka Grove",
                        "addr:housenumber": "25"
                    },
                    "distance": 26095.16420681,
                    "sims": 0.8294939093877047
                },
                {
                    "id": 12410653690,
                    "tags": {
                        "addr:street": "Pigato Crescent",
                        "addr:housenumber": "33"
                    },
                    "distance": 4220.20154492,
                    "sims": 0.828645377512953
                },
                {
                    "id": 12410653540,
                    "tags": {
                        "addr:street": "Pigato Crescent",
                        "addr:housenumber": "12"
                    },
                    "distance": 4241.27044929,
                    "sims": 0.8275434066432977
                },
                {
                    "id": 12419920987,
                    "tags": {
                        "addr:street": "Sarkis Mews",
                        "addr:housenumber": "13"
                    },
                    "distance": 738.60506974,
                    "sims": 0.8267969179386482
                },
                {
                    "id": 12410655005,
                    "tags": {
                        "addr:street": "Clipstone Crescent",
                        "addr:housenumber": "73"
                    },
                    "distance": 2988.8983693,
                    "sims": 0.8258363293116814
                },
                {
                    "id": 12417728577,
                    "tags": {
                        "addr:street": "Mandrake Street",
                        "addr:housenumber": "6"
                    },
                    "distance": 18059.58157781,
                    "sims": 0.8242071202233479
                },
                {
                    "id": 12420354086,
                    "tags": {
                        "addr:street": "Mapstone Court",
                        "addr:housenumber": "21"
                    },
                    "distance": 14918.53001056,
                    "sims": 0.8238988203821589
                }
            ]
        },
        "31": {
            "execution_time": 0.18564224243164062,
            "results": [
                {
                    "id": 12417866947,
                    "tags": {
                        "addr:unit": "2",
                        "addr:street": "Thomas Street",
                        "addr:housenumber": "14"
                    },
                    "distance": 2419.05139218,
                    "sims": 0.7644343026515572
                },
                {
                    "id": 12419818051,
                    "tags": {
                        "addr:unit": "6",
                        "addr:street": "Thomas Street",
                        "addr:housenumber": "96"
                    },
                    "distance": 27399.50649478,
                    "sims": 0.7634306062965117
                },
                {
                    "id": 12419818525,
                    "tags": {
                        "addr:street": "Thomas Street",
                        "addr:housenumber": "310"
                    },
                    "distance": 27719.43938521,
                    "sims": 0.7604103349172088
                },
                {
                    "id": 12419619031,
                    "tags": {
                        "addr:street": "Thomas Street",
                        "addr:housenumber": "14"
                    },
                    "distance": 31222.03923537,
                    "sims": 0.7598139763433149
                },
                {
                    "id": 12417861804,
                    "tags": {
                        "addr:street": "Thomas Street",
                        "addr:housenumber": "18"
                    },
                    "distance": 2392.38186198,
                    "sims": 0.7578168041060295
                },
                {
                    "id": 12419820949,
                    "tags": {
                        "addr:flats": "1-4",
                        "addr:street": "Thomas Street",
                        "addr:housenumber": "309-315"
                    },
                    "distance": 27761.4754663,
                    "sims": 0.7576087839577582
                },
                {
                    "id": 12420042199,
                    "tags": {
                        "addr:street": "St Ives Drive",
                        "addr:housenumber": "37-37A"
                    },
                    "distance": 16142.81911137,
                    "sims": 0.7564087494829782
                },
                {
                    "id": 12414245085,
                    "tags": {
                        "addr:street": "St Boswells Avenue",
                        "addr:housenumber": "46"
                    },
                    "distance": 14185.99993595,
                    "sims": 0.7550390125706866
                },
                {
                    "id": 12412054061,
                    "tags": {
                        "addr:street": "St Thomas Avenue",
                        "addr:housenumber": "7"
                    },
                    "distance": 36792.49439228,
                    "sims": 0.7524777792460718
                },
                {
                    "id": 12420209335,
                    "tags": {
                        "addr:street": "St Boswells Avenue",
                        "addr:housenumber": "13"
                    },
                    "distance": 14207.89598669,
                    "sims": 0.7511729743561558
                }
            ]
        },
        "32": {
            "execution_time": 0.18732357025146484,
            "results": [
                {
                    "id": 4696830494,
                    "tags": {
                        "amenity": "drinking_water"
                    },
                    "distance": 12656.87689883,
                    "sims": 0.7907648280931104
                },
                {
                    "id": 9789744819,
                    "tags": {
                        "amenity": "drinking_water"
                    },
                    "distance": 13712.47116469,
                    "sims": 0.785442416011312
                },
                {
                    "id": 9789737812,
                    "tags": {
                        "amenity": "drinking_water"
                    },
                    "distance": 14487.50692422,
                    "sims": 0.7825695898013233
                },
                {
                    "id": 2646549725,
                    "tags": {
                        "amenity": "drinking_water",
                        "wheelchair": "yes"
                    },
                    "distance": 10732.91510482,
                    "sims": 0.7797483812413999
                },
                {
                    "id": 6720432779,
                    "tags": {
                        "name": "Water Plaza",
                        "tourism": "information",
                        "information": "board"
                    },
                    "distance": 20493.05048135,
                    "sims": 0.7773864267158339
                },
                {
                    "id": 5999588617,
                    "tags": {
                        "amenity": "drinking_water"
                    },
                    "distance": 17684.43969241,
                    "sims": 0.7687413277056377
                },
                {
                    "id": 10292348700,
                    "tags": {
                        "amenity": "drinking_water"
                    },
                    "distance": 18438.27085128,
                    "sims": 0.7661829528599039
                },
                {
                    "id": 3797996647,
                    "tags": {
                        "amenity": "drinking_water",
                        "fountain": "bubbler",
                        "check_date": "2022-12-02"
                    },
                    "distance": 16786.15937347,
                    "sims": 0.7632413655993114
                },
                {
                    "id": 5551530322,
                    "tags": {
                        "amenity": "drinking_water"
                    },
                    "distance": 16258.39419886,
                    "sims": 0.7599989676471081
                },
                {
                    "id": 11554844285,
                    "tags": {
                        "amenity": "drinking_water",
                        "fountain": "bubbler"
                    },
                    "distance": 17068.45222464,
                    "sims": 0.7594266435409561
                }
            ]
        },
        "33": {
            "execution_time": 0.1855640411376953,
            "results": [
                {
                    "id": 412761492,
                    "tags": {
                        "amenity": "toilets"
                    },
                    "distance": 1730.42423217,
                    "sims": 0.899856579320845
                },
                {
                    "id": 348189212,
                    "tags": {
                        "amenity": "toilets"
                    },
                    "distance": 16949.38174907,
                    "sims": 0.8780386069944027
                },
                {
                    "id": 9513144194,
                    "tags": {
                        "amenity": "toilets"
                    },
                    "distance": 24382.28744639,
                    "sims": 0.8628830477138763
                },
                {
                    "id": 6089226542,
                    "tags": {
                        "amenity": "toilets"
                    },
                    "distance": 27200.7298224,
                    "sims": 0.8406144665573017
                },
                {
                    "id": 12420354048,
                    "tags": {
                        "addr:street": "Gillies Street",
                        "addr:housenumber": "24"
                    },
                    "distance": 871.58926388,
                    "sims": 0.7853917373366678
                },
                {
                    "id": 1749638437,
                    "tags": {
                        "amenity": "toilets"
                    },
                    "distance": 66945.59917007,
                    "sims": 0.7841853289272807
                },
                {
                    "id": 7023231436,
                    "tags": {
                        "name": "Pizza Hut",
                        "brand": "Pizza Hut",
                        "amenity": "restaurant",
                        "cuisine": "pizza",
                        "toilets": "no",
                        "delivery": "yes",
                        "takeaway": "yes",
                        "wheelchair": "yes",
                        "brand:wikidata": "Q191615",
                        "brand:wikipedia": "en:Pizza Hut"
                    },
                    "distance": 23612.71229931,
                    "sims": 0.7818706295644542
                },
                {
                    "id": 12410659802,
                    "tags": {
                        "addr:street": "Octagonal Street",
                        "addr:housenumber": "8"
                    },
                    "distance": 10849.80227577,
                    "sims": 0.7815631758235118
                },
                {
                    "id": 12414949071,
                    "tags": {
                        "addr:street": "McDonald Street",
                        "addr:housenumber": "12"
                    },
                    "distance": 2015.44450051,
                    "sims": 0.7800276541676989
                },
                {
                    "id": 12410659811,
                    "tags": {
                        "addr:street": "Octagonal Street",
                        "addr:housenumber": "13"
                    },
                    "distance": 10895.62008119,
                    "sims": 0.7799600029039435
                }
            ]
        },
        "34": {
            "execution_time": 0.1867365837097168,
            "results": [
                {
                    "id": 11876605610,
                    "tags": {
                        "name": "Mornington - Beach",
                        "website": "https://morningtonyc.com.au",
                        "man_made": "surveillance",
                        "operator": "Mornington Yacht Club",
                        "contact:webcam": "https://www.morningtonyc.com.au/weathercam/MYCBeachImage.jpg",
                        "camera:direction": "90",
                        "surveillance:type": "camera",
                        "surveillance:zone": "beach"
                    },
                    "distance": 14685.5346222,
                    "sims": 0.5649204772805638
                },
                {
                    "id": 6223973896,
                    "tags": {
                        "name": "The Cheeky Squire",
                        "source": "survey",
                        "tourism": "hotel",
                        "website": "https://www.jamessquire.com.au/"
                    },
                    "distance": 5397.29638456,
                    "sims": 0.55392330242118
                },
                {
                    "id": 9317703937,
                    "tags": {
                        "tourism": "viewpoint"
                    },
                    "distance": 5684.52801256,
                    "sims": 0.5498581200922744
                },
                {
                    "id": 3524453630,
                    "tags": {
                        "amenity": "bbq"
                    },
                    "distance": 5568.19151949,
                    "sims": 0.5447860902802876
                },
                {
                    "id": 4348730133,
                    "tags": {
                        "ele": "12.69",
                        "name": "Cerberus",
                        "BOM:ID": "086361",
                        "ref:wmo": "94898",
                        "man_made": "monitoring_station",
                        "weather:barometer": "yes",
                        "weather:wind_vane": "yes",
                        "monitoring:weather": "yes",
                        "weather:anemometer": "yes",
                        "weather:hygrometer": "yes",
                        "weather:rain_gauge": "yes",
                        "weather:thermometer": "yes",
                        "website:weather_observations": "http://www.bom.gov.au/products/IDV60801/IDV60801.94898.shtml"
                    },
                    "distance": 23902.81679443,
                    "sims": 0.544546945555611
                },
                {
                    "id": 1952164967,
                    "tags": {
                        "brand": "Australia Post",
                        "amenity": "post_office"
                    },
                    "distance": 20769.51161538,
                    "sims": 0.5425333329995512
                },
                {
                    "id": 11876605631,
                    "tags": {
                        "tourism": "viewpoint"
                    },
                    "distance": 14662.73465597,
                    "sims": 0.5409880827679574
                },
                {
                    "id": 329962121,
                    "tags": {
                        "name": "Australia Post",
                        "brand": "Australia Post",
                        "amenity": "post_office",
                        "brand:wikidata": "Q1142936",
                        "brand:wikipedia": "en:Australia Post"
                    },
                    "distance": 17600.73151014,
                    "sims": 0.5373309485916596
                },
                {
                    "id": 5388536532,
                    "tags": {
                        "name": "Jimmy's Fish Bar",
                        "amenity": "fast_food"
                    },
                    "distance": 21091.17732741,
                    "sims": 0.5364235159972206
                },
                {
                    "id": 9260723162,
                    "tags": {
                        "amenity": "bbq"
                    },
                    "distance": 5883.70379179,
                    "sims": 0.5338993309916271
                }
            ]
        },
        "35": {
            "execution_time": 0.18552494049072266,
            "results": [
                {
                    "id": 11436852061,
                    "tags": {
                        "bus": "yes",
                        "ref": "50233",
                        "name": "Evergreen Drive/Ballan Road",
                        "highway": "bus_stop",
                        "public_transport": "platform"
                    },
                    "distance": 10229.29128477,
                    "sims": 0.5740300339549973
                },
                {
                    "id": 11435401810,
                    "tags": {
                        "bus": "yes",
                        "ref": "51888",
                        "name": "Memory Crescent/Welcome Parade",
                        "highway": "bus_stop",
                        "public_transport": "platform"
                    },
                    "distance": 13705.59523675,
                    "sims": 0.5596786283680666
                },
                {
                    "id": 11445879313,
                    "tags": {
                        "bus": "yes",
                        "ref": "21650",
                        "name": "Abbotswood Drive/Tarneit Road",
                        "highway": "bus_stop",
                        "public_transport": "platform"
                    },
                    "distance": 8580.22144446,
                    "sims": 0.5541190038011241
                },
                {
                    "id": 11436851973,
                    "tags": {
                        "bus": "yes",
                        "ref": "50156",
                        "name": "Eppalock Drive/Manor Lakes Boulevard",
                        "highway": "bus_stop",
                        "public_transport": "platform"
                    },
                    "distance": 11174.84285667,
                    "sims": 0.553984893318405
                },
                {
                    "id": 10292525080,
                    "tags": {
                        "bin": "no",
                        "name": "Conquest Drive",
                        "bench": "no",
                        "covered": "no",
                        "highway": "bus_stop",
                        "route_ref": "170",
                        "tactile_paving": "yes",
                        "public_transport": "platform"
                    },
                    "distance": 5649.83822799,
                    "sims": 0.5516297344278813
                },
                {
                    "id": 11436851983,
                    "tags": {
                        "bus": "yes",
                        "ref": "50150",
                        "name": "Greens Road/Haines Drive",
                        "highway": "bus_stop",
                        "public_transport": "platform"
                    },
                    "distance": 10701.67216228,
                    "sims": 0.5509845139943551
                },
                {
                    "id": 11436852038,
                    "tags": {
                        "bus": "yes",
                        "ref": "21607",
                        "name": "Lakeview Grove/Evergreen Drive",
                        "highway": "bus_stop",
                        "public_transport": "platform"
                    },
                    "distance": 10410.28007566,
                    "sims": 0.5505961300364007
                },
                {
                    "id": 11443658814,
                    "tags": {
                        "bus": "yes",
                        "ref": "50225",
                        "name": "Kimberley Road/Ballan Road",
                        "highway": "bus_stop",
                        "public_transport": "platform"
                    },
                    "distance": 8647.16355341,
                    "sims": 0.549281251259164
                },
                {
                    "id": 11443658811,
                    "tags": {
                        "bus": "yes",
                        "ref": "50228",
                        "name": "Buckingham Drive/Ballan Road",
                        "highway": "bus_stop",
                        "public_transport": "platform"
                    },
                    "distance": 8946.28300165,
                    "sims": 0.5473568552391339
                },
                {
                    "id": 11445879356,
                    "tags": {
                        "bus": "yes",
                        "ref": "50123",
                        "name": "Amelie Parade/Bethany Road",
                        "highway": "bus_stop",
                        "public_transport": "platform"
                    },
                    "distance": 8739.04926279,
                    "sims": 0.5473482721682399
                }
            ]
        },
        "36": {
            "execution_time": 0.18384361267089844,
            "results": [
                {
                    "id": 5388536532,
                    "tags": {
                        "name": "Jimmy's Fish Bar",
                        "amenity": "fast_food"
                    },
                    "distance": 7165.5623206,
                    "sims": 0.8591749672360746
                },
                {
                    "id": 4965948921,
                    "tags": {
                        "name": "Le petit lapin",
                        "amenity": "cafe",
                        "name:en": "Le petit lapin"
                    },
                    "distance": 5567.04797672,
                    "sims": 0.8436684422097973
                },
                {
                    "id": 2097459077,
                    "tags": {
                        "name": "Pizza Kings",
                        "amenity": "fast_food",
                        "cuisine": "pizza"
                    },
                    "distance": 14857.6465081,
                    "sims": 0.8415127113186336
                },
                {
                    "id": 4224608822,
                    "tags": {
                        "name": "Carnival",
                        "amenity": "restaurant"
                    },
                    "distance": 5312.24898092,
                    "sims": 0.8320383825348117
                },
                {
                    "id": 8221440823,
                    "tags": {
                        "name": "La Cucina",
                        "amenity": "restaurant"
                    },
                    "distance": 6499.42606584,
                    "sims": 0.8242378411860146
                },
                {
                    "id": 365211439,
                    "tags": {
                        "amenity": "fast_food",
                        "cuisine": "kebab",
                        "takeaway": "yes",
                        "wheelchair": "yes",
                        "toilets:wheelchair": "no"
                    },
                    "distance": 4112.08120414,
                    "sims": 0.8236097378033063
                },
                {
                    "id": 2421608381,
                    "tags": {
                        "name": "Fidels",
                        "amenity": "restaurant"
                    },
                    "distance": 12930.03436928,
                    "sims": 0.812407091237811
                },
                {
                    "id": 3885415465,
                    "tags": {
                        "name": "Miss Fitey's",
                        "amenity": "restaurant"
                    },
                    "distance": 8429.3246481,
                    "sims": 0.8110019822720387
                },
                {
                    "id": 6041031011,
                    "tags": {
                        "name": "Ph\u1edf Gia H\u1ed9i",
                        "amenity": "fast_food"
                    },
                    "distance": 11846.9376544,
                    "sims": 0.8083075538231658
                },
                {
                    "id": 1908135662,
                    "tags": {
                        "name": "Domino's",
                        "brand": "Domino's",
                        "amenity": "fast_food",
                        "cuisine": "pizza",
                        "website": "https://www.bubbapizza.com.au/",
                        "takeaway": "yes",
                        "opening_hours": "Mo-Su 11:00-23:00, Fr 11:00-24:00",
                        "brand:wikidata": "Q839466",
                        "brand:wikipedia": "en:Domino's Pizza"
                    },
                    "distance": 22878.31769775,
                    "sims": 0.8071527732287965
                }
            ]
        },
        "37": {
            "execution_time": 0.1862952709197998,
            "results": [
                {
                    "id": 10989437110,
                    "tags": {
                        "amenity": "bench"
                    },
                    "distance": 15665.97024416,
                    "sims": 0.8914871883514718
                },
                {
                    "id": 9447264137,
                    "tags": {
                        "amenity": "bench"
                    },
                    "distance": 4334.89633902,
                    "sims": 0.8910137816096296
                },
                {
                    "id": 9832413287,
                    "tags": {
                        "amenity": "bench"
                    },
                    "distance": 5708.46367965,
                    "sims": 0.8902838564595897
                },
                {
                    "id": 9832413286,
                    "tags": {
                        "amenity": "bench"
                    },
                    "distance": 5686.32653794,
                    "sims": 0.8902762601355956
                },
                {
                    "id": 9195230348,
                    "tags": {
                        "amenity": "bench"
                    },
                    "distance": 1404.50089214,
                    "sims": 0.8901167580729019
                },
                {
                    "id": 9195230395,
                    "tags": {
                        "amenity": "bench"
                    },
                    "distance": 1397.75491488,
                    "sims": 0.8900128471866917
                },
                {
                    "id": 9195230385,
                    "tags": {
                        "amenity": "bench"
                    },
                    "distance": 1369.35996397,
                    "sims": 0.8899166387170645
                },
                {
                    "id": 9195230378,
                    "tags": {
                        "amenity": "bench"
                    },
                    "distance": 1300.58066099,
                    "sims": 0.8897893827777139
                },
                {
                    "id": 9218558572,
                    "tags": {
                        "amenity": "bench"
                    },
                    "distance": 2065.3171299,
                    "sims": 0.889095611085582
                },
                {
                    "id": 9218438975,
                    "tags": {
                        "amenity": "bench"
                    },
                    "distance": 1746.24328961,
                    "sims": 0.8890063034303802
                }
            ]
        },
        "38": {
            "execution_time": 0.18381214141845703,
            "results": [
                {
                    "id": 10989437110,
                    "tags": {
                        "amenity": "bench"
                    },
                    "distance": 16920.44110779,
                    "sims": 0.891855570916669
                },
                {
                    "id": 9447264137,
                    "tags": {
                        "amenity": "bench"
                    },
                    "distance": 5766.15569805,
                    "sims": 0.8914583390081935
                },
                {
                    "id": 9832413287,
                    "tags": {
                        "amenity": "bench"
                    },
                    "distance": 6687.05810254,
                    "sims": 0.8911395072937075
                },
                {
                    "id": 9832413286,
                    "tags": {
                        "amenity": "bench"
                    },
                    "distance": 6666.45186694,
                    "sims": 0.8911230298542109
                },
                {
                    "id": 9195230348,
                    "tags": {
                        "amenity": "bench"
                    },
                    "distance": 2844.56495099,
                    "sims": 0.8908418151485414
                },
                {
                    "id": 9195230395,
                    "tags": {
                        "amenity": "bench"
                    },
                    "distance": 2838.13739511,
                    "sims": 0.8907234202953076
                },
                {
                    "id": 9195230385,
                    "tags": {
                        "amenity": "bench"
                    },
                    "distance": 2811.31916549,
                    "sims": 0.8906549876537943
                },
                {
                    "id": 9195230378,
                    "tags": {
                        "amenity": "bench"
                    },
                    "distance": 2741.28357203,
                    "sims": 0.8905599778556853
                },
                {
                    "id": 9182113462,
                    "tags": {
                        "amenity": "bench"
                    },
                    "distance": 1553.22247643,
                    "sims": 0.889799422633684
                },
                {
                    "id": 9218558572,
                    "tags": {
                        "amenity": "bench"
                    },
                    "distance": 2852.69808457,
                    "sims": 0.8897387716252013
                }
            ]
        },
        "39": {
            "execution_time": 0.18482518196105957,
            "results": [
                {
                    "id": 8940301696,
                    "tags": {
                        "building": "yes"
                    },
                    "distance": 15326.33181669,
                    "sims": 0.6530407277917439
                },
                {
                    "id": 6057027950,
                    "tags": {
                        "building": "yes"
                    },
                    "distance": 8976.91213119,
                    "sims": 0.6360105276107788
                },
                {
                    "id": 7903498955,
                    "tags": {
                        "building": "yes"
                    },
                    "distance": 9375.89126069,
                    "sims": 0.6359667561034427
                },
                {
                    "id": 6057027964,
                    "tags": {
                        "building": "yes"
                    },
                    "distance": 9112.29677754,
                    "sims": 0.6358239650726318
                },
                {
                    "id": 6057027966,
                    "tags": {
                        "building": "yes"
                    },
                    "distance": 9082.25863803,
                    "sims": 0.6353088995998453
                },
                {
                    "id": 6153096860,
                    "tags": {
                        "access": "yes",
                        "leisure": "playground"
                    },
                    "distance": 11713.23654947,
                    "sims": 0.6081435680389404
                },
                {
                    "id": 919254737,
                    "tags": {
                        "name": "053",
                        "note_1": "18-SEP-10 3:15:55PM",
                        "_waypoint_": "yes",
                        "_description_": "18-SEP-10 3:15:55PM"
                    },
                    "distance": 48666.01984663,
                    "sims": 0.5976763127849299
                },
                {
                    "id": 11715644414,
                    "tags": {
                        "bus": "yes",
                        "name": "Bella Vista Way/Lakeview Dr",
                        "highway": "bus_stop",
                        "public_transport": "platform"
                    },
                    "distance": 13855.47037523,
                    "sims": 0.594545680121949
                },
                {
                    "id": 3221430137,
                    "tags": {
                        "access": "yes",
                        "leisure": "playground"
                    },
                    "distance": 6272.78221689,
                    "sims": 0.5938235521316528
                },
                {
                    "id": 10239585569,
                    "tags": {
                        "bus": "yes",
                        "name": "Lawson Way/John Fawkner Drive",
                        "highway": "bus_stop",
                        "public_transport": "platform"
                    },
                    "distance": 13381.49244396,
                    "sims": 0.5896016359329224
                }
            ]
        },
        "40": {
            "execution_time": 0.18781447410583496,
            "results": [
                {
                    "id": 12412504272,
                    "tags": {
                        "addr:street": "Barrier Reef Circuit",
                        "addr:housenumber": "41"
                    },
                    "distance": 9333.57968978,
                    "sims": 0.8448514527259585
                },
                {
                    "id": 12412504181,
                    "tags": {
                        "addr:street": "Barrier Reef Circuit",
                        "addr:housenumber": "25"
                    },
                    "distance": 9329.45477831,
                    "sims": 0.8425133667129342
                },
                {
                    "id": 12417452785,
                    "tags": {
                        "addr:street": "Golden Gate Drive",
                        "addr:housenumber": "38"
                    },
                    "distance": 8282.64121355,
                    "sims": 0.841981693329073
                },
                {
                    "id": 12420318033,
                    "tags": {
                        "addr:street": "Stone Hill Circuit",
                        "addr:housenumber": "39"
                    },
                    "distance": 3817.5547593,
                    "sims": 0.8413465212170517
                },
                {
                    "id": 12420318490,
                    "tags": {
                        "addr:street": "Stone Hill Circuit",
                        "addr:housenumber": "17"
                    },
                    "distance": 3763.98962575,
                    "sims": 0.8410919403379133
                },
                {
                    "id": 12414303640,
                    "tags": {
                        "addr:street": "Genevieve Circuit",
                        "addr:housenumber": "17"
                    },
                    "distance": 3678.6318208,
                    "sims": 0.8382525636848791
                },
                {
                    "id": 12420214295,
                    "tags": {
                        "addr:street": "Llano Circuit",
                        "addr:housenumber": "19"
                    },
                    "distance": 4344.40996541,
                    "sims": 0.8381842567701093
                },
                {
                    "id": 12420214279,
                    "tags": {
                        "addr:street": "Llano Circuit",
                        "addr:housenumber": "39"
                    },
                    "distance": 4379.64023603,
                    "sims": 0.8379629350922876
                },
                {
                    "id": 12420283788,
                    "tags": {
                        "addr:street": "North Hidden Valley Circuit",
                        "addr:housenumber": "34"
                    },
                    "distance": 8401.72200049,
                    "sims": 0.8378532625524379
                },
                {
                    "id": 12412510820,
                    "tags": {
                        "addr:street": "Saison Circuit",
                        "addr:housenumber": "18"
                    },
                    "distance": 9891.94906221,
                    "sims": 0.8365634874625877
                }
            ]
        },
        "41": {
            "execution_time": 0.18217253684997559,
            "results": [
                {
                    "id": 11436852061,
                    "tags": {
                        "bus": "yes",
                        "ref": "50233",
                        "name": "Evergreen Drive/Ballan Road",
                        "highway": "bus_stop",
                        "public_transport": "platform"
                    },
                    "distance": 5562.91835426,
                    "sims": 0.5733637205633724
                },
                {
                    "id": 11436851973,
                    "tags": {
                        "bus": "yes",
                        "ref": "50156",
                        "name": "Eppalock Drive/Manor Lakes Boulevard",
                        "highway": "bus_stop",
                        "public_transport": "platform"
                    },
                    "distance": 5889.39755351,
                    "sims": 0.5602355908224786
                },
                {
                    "id": 11435401810,
                    "tags": {
                        "bus": "yes",
                        "ref": "51888",
                        "name": "Memory Crescent/Welcome Parade",
                        "highway": "bus_stop",
                        "public_transport": "platform"
                    },
                    "distance": 6674.11666376,
                    "sims": 0.5601747941137979
                },
                {
                    "id": 11445879313,
                    "tags": {
                        "bus": "yes",
                        "ref": "21650",
                        "name": "Abbotswood Drive/Tarneit Road",
                        "highway": "bus_stop",
                        "public_transport": "platform"
                    },
                    "distance": 359.41638042,
                    "sims": 0.5573489392524689
                },
                {
                    "id": 11436851983,
                    "tags": {
                        "bus": "yes",
                        "ref": "50150",
                        "name": "Greens Road/Haines Drive",
                        "highway": "bus_stop",
                        "public_transport": "platform"
                    },
                    "distance": 6596.51443855,
                    "sims": 0.5499967098252398
                },
                {
                    "id": 11445879356,
                    "tags": {
                        "bus": "yes",
                        "ref": "50123",
                        "name": "Amelie Parade/Bethany Road",
                        "highway": "bus_stop",
                        "public_transport": "platform"
                    },
                    "distance": 703.58625424,
                    "sims": 0.5491173033155573
                },
                {
                    "id": 11436852038,
                    "tags": {
                        "bus": "yes",
                        "ref": "21607",
                        "name": "Lakeview Grove/Evergreen Drive",
                        "highway": "bus_stop",
                        "public_transport": "platform"
                    },
                    "distance": 6011.19553953,
                    "sims": 0.5487105614135597
                },
                {
                    "id": 10292525080,
                    "tags": {
                        "bin": "no",
                        "name": "Conquest Drive",
                        "bench": "no",
                        "covered": "no",
                        "highway": "bus_stop",
                        "route_ref": "170",
                        "tactile_paving": "yes",
                        "public_transport": "platform"
                    },
                    "distance": 5442.12435564,
                    "sims": 0.5468413606447076
                },
                {
                    "id": 11445879317,
                    "tags": {
                        "bus": "yes",
                        "ref": "28020",
                        "name": "Eagleridge Promenade/Leakes Road",
                        "highway": "bus_stop",
                        "public_transport": "platform"
                    },
                    "distance": 1657.02350247,
                    "sims": 0.54580167732165
                },
                {
                    "id": 11443658811,
                    "tags": {
                        "bus": "yes",
                        "ref": "50228",
                        "name": "Buckingham Drive/Ballan Road",
                        "highway": "bus_stop",
                        "public_transport": "platform"
                    },
                    "distance": 6011.64702432,
                    "sims": 0.5406035587294437
                }
            ]
        },
        "42": {
            "execution_time": 0.18523502349853516,
            "results": [
                {
                    "id": 9203584815,
                    "tags": {
                        "name": "The Mexican House",
                        "amenity": "restaurant",
                        "cuisine": "mexican",
                        "name:es": "La Casa Mexicana"
                    },
                    "distance": 15526.02292892,
                    "sims": 0.7218267586024917
                },
                {
                    "id": 2451314686,
                    "tags": {
                        "name": "Elders",
                        "shop": "doityourself"
                    },
                    "distance": 20624.8240601,
                    "sims": 0.7092955958003717
                },
                {
                    "id": 11620054949,
                    "tags": {
                        "name": "Biddy Martha's Caf\u00e9",
                        "amenity": "cafe"
                    },
                    "distance": 31529.50037253,
                    "sims": 0.7086412981703332
                },
                {
                    "id": 4089508491,
                    "tags": {
                        "amenity": "drinking_water"
                    },
                    "distance": 2046.27275508,
                    "sims": 0.7081637456709997
                },
                {
                    "id": 10772091929,
                    "tags": {
                        "amenity": "drinking_water"
                    },
                    "distance": 1735.60402928,
                    "sims": 0.7065332428296242
                },
                {
                    "id": 8820203510,
                    "tags": {
                        "name": "The Orchard at Montague",
                        "amenity": "restaurant"
                    },
                    "distance": 13276.56164889,
                    "sims": 0.703625524476253
                },
                {
                    "id": 802119735,
                    "tags": {
                        "tourism": "picnic_site"
                    },
                    "distance": 39390.74778414,
                    "sims": 0.7032452114213067
                },
                {
                    "id": 9625734334,
                    "tags": {
                        "leisure": "picnic_table"
                    },
                    "distance": 17023.18026541,
                    "sims": 0.7018491688697156
                },
                {
                    "id": 6138346469,
                    "tags": {
                        "leisure": "picnic_table"
                    },
                    "distance": 7192.60648672,
                    "sims": 0.7012818339542997
                },
                {
                    "id": 6629289734,
                    "tags": {
                        "leisure": "picnic_table"
                    },
                    "distance": 7399.43404074,
                    "sims": 0.7010237814216552
                }
            ]
        },
        "43": {
            "execution_time": 0.18516874313354492,
            "results": [
                {
                    "id": 10005956938,
                    "tags": {
                        "amenity": "waste_basket"
                    },
                    "distance": 2504.40568183,
                    "sims": 0.9387764930725098
                },
                {
                    "id": 9421898100,
                    "tags": {
                        "amenity": "waste_basket"
                    },
                    "distance": 7290.54877762,
                    "sims": 0.927739913924929
                },
                {
                    "id": 10069664517,
                    "tags": {
                        "amenity": "waste_basket"
                    },
                    "distance": 7759.18087896,
                    "sims": 0.925180196762085
                },
                {
                    "id": 9987716649,
                    "tags": {
                        "amenity": "waste_basket"
                    },
                    "distance": 8010.70108024,
                    "sims": 0.9242022908986302
                },
                {
                    "id": 4505314410,
                    "tags": {
                        "amenity": "waste_basket"
                    },
                    "distance": 7656.99035684,
                    "sims": 0.9214816093444824
                },
                {
                    "id": 5099310513,
                    "tags": {
                        "amenity": "waste_basket"
                    },
                    "distance": 8163.99278994,
                    "sims": 0.919614315032959
                },
                {
                    "id": 9983373671,
                    "tags": {
                        "amenity": "waste_basket"
                    },
                    "distance": 16869.41423606,
                    "sims": 0.9195992946624756
                },
                {
                    "id": 9932863506,
                    "tags": {
                        "amenity": "waste_basket"
                    },
                    "distance": 12800.45803425,
                    "sims": 0.9191962480545044
                },
                {
                    "id": 12210561244,
                    "tags": {
                        "amenity": "waste_basket"
                    },
                    "distance": 8841.53289437,
                    "sims": 0.9188217520713806
                },
                {
                    "id": 10717993718,
                    "tags": {
                        "amenity": "waste_basket"
                    },
                    "distance": 22334.57490404,
                    "sims": 0.9186767887280474
                }
            ]
        },
        "44": {
            "execution_time": 0.18590259552001953,
            "results": [
                {
                    "id": 9187640530,
                    "tags": {
                        "bus": "yes",
                        "name": "Bradman Drive",
                        "highway": "bus_stop",
                        "shelter": "no",
                        "public_transport": "platform"
                    },
                    "distance": 11492.36325807,
                    "sims": 0.5914863079141456
                },
                {
                    "id": 2094263831,
                    "tags": {
                        "addr:street": "Jacinta Court",
                        "addr:postcode": "3195",
                        "addr:housenumber": "10"
                    },
                    "distance": 3789.97490689,
                    "sims": 0.5880729520538568
                },
                {
                    "id": 5526680250,
                    "tags": {
                        "name": "Boat Launch Ramp No.4",
                        "lanes": "2",
                        "leisure": "slipway"
                    },
                    "distance": 1232.27280726,
                    "sims": 0.5866910775575533
                },
                {
                    "id": 5285524985,
                    "tags": {
                        "name": "James Dowsley",
                        "office": "lawyer"
                    },
                    "distance": 11048.52829014,
                    "sims": 0.5745657860197878
                },
                {
                    "id": 6057027966,
                    "tags": {
                        "building": "yes"
                    },
                    "distance": 21357.38350754,
                    "sims": 0.5728593729231662
                },
                {
                    "id": 10241824137,
                    "tags": {
                        "bus": "yes",
                        "name": "Ern Barker Reserve/Saffron Drive",
                        "highway": "bus_stop",
                        "public_transport": "platform"
                    },
                    "distance": 14984.68882938,
                    "sims": 0.57228075631882
                },
                {
                    "id": 9219905693,
                    "tags": {
                        "name": "Seaford Screens",
                        "shop": "yes"
                    },
                    "distance": 6319.5799352,
                    "sims": 0.5712846176450239
                },
                {
                    "id": 6057027964,
                    "tags": {
                        "building": "yes"
                    },
                    "distance": 21479.52649722,
                    "sims": 0.5712373767010753
                },
                {
                    "id": 6057027950,
                    "tags": {
                        "building": "yes"
                    },
                    "distance": 21400.52470185,
                    "sims": 0.5701848775699623
                },
                {
                    "id": 7903498955,
                    "tags": {
                        "building": "yes"
                    },
                    "distance": 22545.75559254,
                    "sims": 0.566855990954412
                }
            ]
        },
        "45": {
            "execution_time": 0.18605351448059082,
            "results": [
                {
                    "id": 4194557558,
                    "tags": {
                        "amenity": "cafe"
                    },
                    "distance": 12734.55257821,
                    "sims": 0.5834029987392193
                },
                {
                    "id": 7023231436,
                    "tags": {
                        "name": "Pizza Hut",
                        "brand": "Pizza Hut",
                        "amenity": "restaurant",
                        "cuisine": "pizza",
                        "toilets": "no",
                        "delivery": "yes",
                        "takeaway": "yes",
                        "wheelchair": "yes",
                        "brand:wikidata": "Q191615",
                        "brand:wikipedia": "en:Pizza Hut"
                    },
                    "distance": 6112.27843022,
                    "sims": 0.5786119009719054
                },
                {
                    "id": 9546217620,
                    "tags": {
                        "amenity": "bench"
                    },
                    "distance": 11283.95204818,
                    "sims": 0.5756460338060857
                },
                {
                    "id": 1814587481,
                    "tags": {
                        "bus": "yes",
                        "ref": "413",
                        "name": "Hemsley Promenade/La Rochelle Boulevard",
                        "highway": "bus_stop",
                        "network": "PTV",
                        "operator": "Westrans",
                        "ref_name": "21253",
                        "public_transport": "platform"
                    },
                    "distance": 13388.25693496,
                    "sims": 0.5727497252524267
                },
                {
                    "id": 11436851973,
                    "tags": {
                        "bus": "yes",
                        "ref": "50156",
                        "name": "Eppalock Drive/Manor Lakes Boulevard",
                        "highway": "bus_stop",
                        "public_transport": "platform"
                    },
                    "distance": 2552.5911063,
                    "sims": 0.5717319760642121
                },
                {
                    "id": 9687083040,
                    "tags": {
                        "amenity": "bench",
                        "backrest": "no"
                    },
                    "distance": 7035.16798799,
                    "sims": 0.5717234526010253
                },
                {
                    "id": 11445879317,
                    "tags": {
                        "bus": "yes",
                        "ref": "28020",
                        "name": "Eagleridge Promenade/Leakes Road",
                        "highway": "bus_stop",
                        "public_transport": "platform"
                    },
                    "distance": 9702.05205831,
                    "sims": 0.5712429796167677
                },
                {
                    "id": 4194557580,
                    "tags": {
                        "name": "Babycino on Main",
                        "amenity": "cafe"
                    },
                    "distance": 12651.52333018,
                    "sims": 0.5706625496551376
                },
                {
                    "id": 1818775476,
                    "tags": {
                        "bus": "yes",
                        "ref": "416",
                        "name": "Daniela Way/Shane Avenue",
                        "highway": "bus_stop",
                        "network": "PTV",
                        "operator": "Westrans",
                        "public_transport": "stop_position"
                    },
                    "distance": 14275.62615617,
                    "sims": 0.5706223761293481
                },
                {
                    "id": 3283346474,
                    "tags": {
                        "bin": "yes",
                        "bus": "yes",
                        "lit": "yes",
                        "ref": "50266",
                        "name": "Wyndham Vale Station (Bay 6)",
                        "bench": "yes",
                        "highway": "bus_stop",
                        "shelter": "yes",
                        "local_ref": "6",
                        "tactile_paving": "yes",
                        "public_transport": "platform"
                    },
                    "distance": 2670.17173667,
                    "sims": 0.5704854642766202
                }
            ]
        },
        "46": {
            "execution_time": 0.18509626388549805,
            "results": [
                {
                    "id": 8493950691,
                    "tags": {
                        "name": "Cafe Lu Port",
                        "amenity": "cafe",
                        "contact:facebook": "https://facebook.com/mrsticksenbones-445953005608139"
                    },
                    "distance": 8393.11645325,
                    "sims": 0.6744880475256456
                },
                {
                    "id": 12415020332,
                    "tags": {
                        "addr:unit": "4",
                        "addr:street": "Point Nepean Road",
                        "addr:housenumber": "3375"
                    },
                    "distance": 8380.84448568,
                    "sims": 0.6651212376211598
                },
                {
                    "id": 12415020315,
                    "tags": {
                        "addr:unit": "1",
                        "addr:street": "Point Nepean Road",
                        "addr:housenumber": "3375"
                    },
                    "distance": 8343.72449752,
                    "sims": 0.6613562107086228
                },
                {
                    "id": 12415023736,
                    "tags": {
                        "addr:flats": "1-2",
                        "addr:street": "Point Nepean Road",
                        "addr:housenumber": "2361"
                    },
                    "distance": 1501.05309335,
                    "sims": 0.6612168156375411
                },
                {
                    "id": 12415020318,
                    "tags": {
                        "addr:unit": "13",
                        "addr:street": "Point Nepean Road",
                        "addr:housenumber": "3375"
                    },
                    "distance": 8374.6220618,
                    "sims": 0.6598612272822137
                },
                {
                    "id": 12415027632,
                    "tags": {
                        "addr:street": "Point Nepean Road",
                        "addr:housenumber": "2739"
                    },
                    "distance": 3283.34164215,
                    "sims": 0.6584920098195064
                },
                {
                    "id": 12415023401,
                    "tags": {
                        "addr:flats": "1-7;101-110",
                        "addr:street": "Point Nepean Road",
                        "addr:housenumber": "2217"
                    },
                    "distance": 1653.44898459,
                    "sims": 0.6578023041604588
                },
                {
                    "id": 12415028173,
                    "tags": {
                        "addr:street": "Point Nepean Road",
                        "addr:housenumber": "2531"
                    },
                    "distance": 1669.3465048,
                    "sims": 0.6574300527572678
                },
                {
                    "id": 12420525166,
                    "tags": {
                        "addr:unit": "1",
                        "addr:street": "Point Nepean Road",
                        "addr:housenumber": "2483"
                    },
                    "distance": 1516.96752376,
                    "sims": 0.6569622363470664
                },
                {
                    "id": 12415007339,
                    "tags": {
                        "addr:unit": "4",
                        "addr:street": "Point Nepean Road",
                        "addr:housenumber": "783"
                    },
                    "distance": 9235.22850646,
                    "sims": 0.6542182380892947
                }
            ]
        },
        "47": {
            "execution_time": 0.1876380443572998,
            "results": [
                {
                    "id": 12646869340,
                    "tags": {
                        "amenity": "bench"
                    },
                    "distance": 8944.64232583,
                    "sims": 0.8892309333727771
                },
                {
                    "id": 12646909915,
                    "tags": {
                        "amenity": "bench"
                    },
                    "distance": 8827.51930436,
                    "sims": 0.8892017536040783
                },
                {
                    "id": 9931170847,
                    "tags": {
                        "amenity": "bench"
                    },
                    "distance": 6177.67771283,
                    "sims": 0.8888389137175542
                },
                {
                    "id": 9368728235,
                    "tags": {
                        "amenity": "bench"
                    },
                    "distance": 6294.85351998,
                    "sims": 0.8888389137175542
                },
                {
                    "id": 610682395,
                    "tags": {
                        "amenity": "bench"
                    },
                    "distance": 8696.21067675,
                    "sims": 0.8882760671911332
                },
                {
                    "id": 9731424455,
                    "tags": {
                        "amenity": "bench"
                    },
                    "distance": 5996.47201656,
                    "sims": 0.8879822230392171
                },
                {
                    "id": 12147240164,
                    "tags": {
                        "amenity": "bench"
                    },
                    "distance": 13195.20051084,
                    "sims": 0.8876615501458935
                },
                {
                    "id": 12205243141,
                    "tags": {
                        "amenity": "bench"
                    },
                    "distance": 3300.19346277,
                    "sims": 0.8873411089560977
                },
                {
                    "id": 11773078052,
                    "tags": {
                        "amenity": "bench"
                    },
                    "distance": 14656.17837446,
                    "sims": 0.8865279229813058
                },
                {
                    "id": 11754057160,
                    "tags": {
                        "amenity": "bench"
                    },
                    "distance": 14625.48268866,
                    "sims": 0.8865193927551795
                }
            ]
        },
        "48": {
            "execution_time": 0.1862020492553711,
            "results": [
                {
                    "id": 12036671607,
                    "tags": {
                        "leisure": "picnic_table"
                    },
                    "distance": 4292.82985056,
                    "sims": 0.9615528102061872
                },
                {
                    "id": 11389574407,
                    "tags": {
                        "leisure": "picnic_table"
                    },
                    "distance": 4039.9429945,
                    "sims": 0.9557457698149328
                },
                {
                    "id": 6187393756,
                    "tags": {
                        "leisure": "picnic_table"
                    },
                    "distance": 8027.31757983,
                    "sims": 0.953405062143973
                },
                {
                    "id": 11753222840,
                    "tags": {
                        "leisure": "picnic_table"
                    },
                    "distance": 4882.91877263,
                    "sims": 0.9518021460051459
                },
                {
                    "id": 11947683073,
                    "tags": {
                        "leisure": "picnic_table"
                    },
                    "distance": 5249.69720787,
                    "sims": 0.9506027816289262
                },
                {
                    "id": 10783445297,
                    "tags": {
                        "leisure": "picnic_table"
                    },
                    "distance": 5343.41589175,
                    "sims": 0.9486330304643573
                },
                {
                    "id": 9944091534,
                    "tags": {
                        "leisure": "picnic_table"
                    },
                    "distance": 9871.12581656,
                    "sims": 0.9474334528436354
                },
                {
                    "id": 9763811925,
                    "tags": {
                        "leisure": "picnic_table"
                    },
                    "distance": 9320.04226656,
                    "sims": 0.9470251328885507
                },
                {
                    "id": 6727093303,
                    "tags": {
                        "leisure": "picnic_table"
                    },
                    "distance": 6501.36433753,
                    "sims": 0.9444495571972263
                },
                {
                    "id": 10146561815,
                    "tags": {
                        "leisure": "picnic_table"
                    },
                    "distance": 10143.12475359,
                    "sims": 0.9442719635396419
                }
            ]
        },
        "49": {
            "execution_time": 0.18416619300842285,
            "results": [
                {
                    "id": 10239585569,
                    "tags": {
                        "bus": "yes",
                        "name": "Lawson Way/John Fawkner Drive",
                        "highway": "bus_stop",
                        "public_transport": "platform"
                    },
                    "distance": 8640.04529954,
                    "sims": 0.5846138348945291
                },
                {
                    "id": 10241824137,
                    "tags": {
                        "bus": "yes",
                        "name": "Ern Barker Reserve/Saffron Drive",
                        "highway": "bus_stop",
                        "public_transport": "platform"
                    },
                    "distance": 6942.13717367,
                    "sims": 0.5841531505676012
                },
                {
                    "id": 4355049354,
                    "tags": {
                        "building": "yes",
                        "addr:street": "South Gippsland Highway",
                        "addr:housenumber": "216"
                    },
                    "distance": 3167.77479161,
                    "sims": 0.5838392302846223
                },
                {
                    "id": 6057027966,
                    "tags": {
                        "building": "yes"
                    },
                    "distance": 21207.61732504,
                    "sims": 0.5828659037191753
                },
                {
                    "id": 6057027964,
                    "tags": {
                        "building": "yes"
                    },
                    "distance": 21338.32709583,
                    "sims": 0.5818689216297233
                },
                {
                    "id": 6057027950,
                    "tags": {
                        "building": "yes"
                    },
                    "distance": 21207.58756755,
                    "sims": 0.5815958727357322
                },
                {
                    "id": 1877116439,
                    "tags": {
                        "source": "Survey",
                        "addr:street": "Jasmin Court",
                        "addr:postcode": "3805",
                        "addr:housenumber": "2"
                    },
                    "distance": 8945.96079008,
                    "sims": 0.5800508606464194
                },
                {
                    "id": 10239585579,
                    "tags": {
                        "bus": "yes",
                        "name": "James Cook Drive/Ravenhill Crescent",
                        "highway": "bus_stop",
                        "public_transport": "platform"
                    },
                    "distance": 7083.33810556,
                    "sims": 0.5790883993015765
                },
                {
                    "id": 7903498955,
                    "tags": {
                        "building": "yes"
                    },
                    "distance": 22448.64495021,
                    "sims": 0.5786210988308309
                },
                {
                    "id": 5526680250,
                    "tags": {
                        "name": "Boat Launch Ramp No.4",
                        "lanes": "2",
                        "leisure": "slipway"
                    },
                    "distance": 8532.25494728,
                    "sims": 0.5725314958412356
                }
            ]
        }
    }
}