{
    "insertion_time": 75.14065289497375,
    "index_creation": {
        "func": [
            "CREATE INDEX IF NOT EXISTS idx_pois_embedding ON PoIs USING hnsw (embedding vector_cosine_ops) WITH (m = 16, ef_construction = 64);"
        ],
        "time": 18.247915267944336
    },
    "query_results": {
        "0": {
            "execution_time": 0.20154118537902832,
            "results": [
                {
                    "id": 9461812888,
                    "tags": {
                        "bus": "yes",
                        "name": "The Pines SC (Bay 4)",
                        "highway": "bus_stop",
                        "network": "PTV - Metropolitan Buses",
                        "network:wikidata": "Q7257648",
                        "public_transport": "platform",
                        "network:wikipedia": "en:Public Transport Victoria"
                    },
                    "distance": 1201.08104873,
                    "sims": 0.9921300946292166
                },
                {
                    "id": 4010659318,
                    "tags": {
                        "building": "yes",
                        "addr:street": "Kendall Close",
                        "addr:housenumber": "3"
                    },
                    "distance": 623.66984385,
                    "sims": 0.9920276346406861
                },
                {
                    "id": 4208675091,
                    "tags": {
                        "building": "yes",
                        "addr:street": "Valencia Terrace",
                        "addr:housenumber": "14"
                    },
                    "distance": 240.04162597,
                    "sims": 0.991922730390848
                },
                {
                    "id": 12418371604,
                    "tags": {
                        "addr:street": "Hillhouse Road",
                        "addr:housenumber": "13B"
                    },
                    "distance": 506.86389868,
                    "sims": 0.9918608607253185
                },
                {
                    "id": 12418371605,
                    "tags": {
                        "addr:street": "Hillhouse Road",
                        "addr:housenumber": "13C"
                    },
                    "distance": 521.86757104,
                    "sims": 0.9917904079848022
                },
                {
                    "id": 9996118701,
                    "tags": {
                        "amenity": "bench"
                    },
                    "distance": 1201.2043798,
                    "sims": 0.9917656129256927
                },
                {
                    "id": 12418369759,
                    "tags": {
                        "addr:street": "Chaplin Court",
                        "addr:housenumber": "1"
                    },
                    "distance": 311.33247211,
                    "sims": 0.9917385519067573
                },
                {
                    "id": 12418372486,
                    "tags": {
                        "addr:street": "Porter Street",
                        "addr:housenumber": "329"
                    },
                    "distance": 570.45922374,
                    "sims": 0.9917213266455882
                },
                {
                    "id": 12418374435,
                    "tags": {
                        "addr:street": "Hillhouse Road",
                        "addr:housenumber": "10A"
                    },
                    "distance": 457.98973969,
                    "sims": 0.9916909277615183
                },
                {
                    "id": 12418374429,
                    "tags": {
                        "addr:street": "Oliver Road",
                        "addr:housenumber": "21"
                    },
                    "distance": 226.14216795,
                    "sims": 0.99167358329382
                }
            ]
        },
        "1": {
            "execution_time": 0.19390344619750977,
            "results": [
                {
                    "id": 10631076293,
                    "tags": {
                        "amenity": "bench"
                    },
                    "distance": 1512.57711172,
                    "sims": 0.9924592667036632
                },
                {
                    "id": 9158605339,
                    "tags": {
                        "amenity": "bench",
                        "backrest": "no"
                    },
                    "distance": 634.07809218,
                    "sims": 0.9924588490216213
                },
                {
                    "id": 9158605342,
                    "tags": {
                        "amenity": "bench",
                        "backrest": "no"
                    },
                    "distance": 673.6462688,
                    "sims": 0.9924493127270958
                },
                {
                    "id": 9158605328,
                    "tags": {
                        "amenity": "bench",
                        "backrest": "no"
                    },
                    "distance": 744.75872987,
                    "sims": 0.99244010358335
                },
                {
                    "id": 2451314686,
                    "tags": {
                        "name": "Elders",
                        "shop": "doityourself"
                    },
                    "distance": 1765.11763283,
                    "sims": 0.992264180222777
                },
                {
                    "id": 12420348914,
                    "tags": {
                        "addr:street": "Star Mews",
                        "addr:housenumber": "7"
                    },
                    "distance": 1035.54124706,
                    "sims": 0.9922266297543055
                },
                {
                    "id": 12420348907,
                    "tags": {
                        "addr:street": "Star Mews",
                        "addr:housenumber": "1"
                    },
                    "distance": 1003.8806498,
                    "sims": 0.9922216825683469
                },
                {
                    "id": 12420346045,
                    "tags": {
                        "addr:street": "Tipperary Circuit",
                        "addr:housenumber": "13"
                    },
                    "distance": 2211.03746213,
                    "sims": 0.9921978407083051
                },
                {
                    "id": 12417865758,
                    "tags": {
                        "addr:street": "Ascot Park Drive",
                        "addr:housenumber": "13"
                    },
                    "distance": 1124.51664938,
                    "sims": 0.9921703033599568
                },
                {
                    "id": 12420350588,
                    "tags": {
                        "addr:street": "Bald Hill Road",
                        "addr:housenumber": "52"
                    },
                    "distance": 995.68346202,
                    "sims": 0.9921636572079268
                }
            ]
        },
        "2": {
            "execution_time": 0.19184112548828125,
            "results": [
                {
                    "id": 12418895591,
                    "tags": {
                        "addr:street": "Charlton Street",
                        "addr:housenumber": "34"
                    },
                    "distance": 506.73490298,
                    "sims": 0.9967795309525314
                },
                {
                    "id": 3285432128,
                    "tags": {
                        "building": "yes",
                        "addr:street": "Shafer Road",
                        "addr:suburb": "Blackburn North",
                        "addr:housenumber": "83"
                    },
                    "distance": 677.87699063,
                    "sims": 0.9966326353927055
                },
                {
                    "id": 10023832883,
                    "tags": {
                        "amenity": "bench"
                    },
                    "distance": 1187.57069089,
                    "sims": 0.9965345261415575
                },
                {
                    "id": 11861700326,
                    "tags": {
                        "building": "yes",
                        "addr:street": "Camellia Street",
                        "addr:housenumber": "18"
                    },
                    "distance": 583.3796712,
                    "sims": 0.9964506626129221
                },
                {
                    "id": 12418895120,
                    "tags": {
                        "addr:street": "Surrey Road",
                        "addr:housenumber": "89"
                    },
                    "distance": 378.40642441,
                    "sims": 0.9964359994454384
                },
                {
                    "id": 12411618588,
                    "tags": {
                        "addr:street": "Yorkshire Street",
                        "addr:housenumber": "19"
                    },
                    "distance": 535.67856448,
                    "sims": 0.9964004752874676
                },
                {
                    "id": 12411618282,
                    "tags": {
                        "addr:street": "Yorkshire Street",
                        "addr:housenumber": "12"
                    },
                    "distance": 556.76810505,
                    "sims": 0.9963022468270228
                },
                {
                    "id": 12411618537,
                    "tags": {
                        "addr:street": "Wilton Street",
                        "addr:housenumber": "14"
                    },
                    "distance": 307.9334953,
                    "sims": 0.9962972996412116
                },
                {
                    "id": 12418895709,
                    "tags": {
                        "addr:street": "Mitchell Street",
                        "addr:housenumber": "21"
                    },
                    "distance": 428.91002723,
                    "sims": 0.996212899459179
                },
                {
                    "id": 12418896118,
                    "tags": {
                        "addr:street": "Harris Street",
                        "addr:housenumber": "4"
                    },
                    "distance": 252.10680462,
                    "sims": 0.9961969254134271
                }
            ]
        },
        "3": {
            "execution_time": 0.20031142234802246,
            "results": [
                {
                    "id": 12417668981,
                    "tags": {
                        "addr:street": "Hermes Street",
                        "addr:housenumber": "6"
                    },
                    "distance": 502.43391725,
                    "sims": 0.9956538692759683
                },
                {
                    "id": 12417668982,
                    "tags": {
                        "addr:street": "Hermes Street",
                        "addr:housenumber": "8"
                    },
                    "distance": 493.09934103,
                    "sims": 0.9956206695007015
                },
                {
                    "id": 12417672447,
                    "tags": {
                        "addr:street": "Bloomsbury Place",
                        "addr:housenumber": "9"
                    },
                    "distance": 604.22075377,
                    "sims": 0.995415123093329
                },
                {
                    "id": 12411651718,
                    "tags": {
                        "addr:street": "Lakshmi Street",
                        "addr:housenumber": "22"
                    },
                    "distance": 894.73082408,
                    "sims": 0.9954138414572984
                },
                {
                    "id": 12417671218,
                    "tags": {
                        "addr:street": "Amherst Street",
                        "addr:housenumber": "11"
                    },
                    "distance": 972.40466659,
                    "sims": 0.9952477239381836
                },
                {
                    "id": 12417671223,
                    "tags": {
                        "addr:street": "Amherst Street",
                        "addr:housenumber": "23"
                    },
                    "distance": 1036.73035418,
                    "sims": 0.9952474256318494
                },
                {
                    "id": 12417672526,
                    "tags": {
                        "addr:street": "Hidcote Terrace",
                        "addr:housenumber": "4"
                    },
                    "distance": 557.04382434,
                    "sims": 0.9952086227387287
                },
                {
                    "id": 12417668382,
                    "tags": {
                        "addr:street": "Piccadilly Drive",
                        "addr:housenumber": "41"
                    },
                    "distance": 1435.15865374,
                    "sims": 0.9952053744296273
                },
                {
                    "id": 12417671176,
                    "tags": {
                        "addr:street": "Amherst Street",
                        "addr:housenumber": "18"
                    },
                    "distance": 1009.94997207,
                    "sims": 0.995200576400603
                },
                {
                    "id": 12417669667,
                    "tags": {
                        "addr:street": "Vintage Avenue",
                        "addr:housenumber": "23"
                    },
                    "distance": 464.43126222,
                    "sims": 0.9951724430200072
                }
            ]
        },
        "4": {
            "execution_time": 0.1977095603942871,
            "results": [
                {
                    "id": 12418125073,
                    "tags": {
                        "addr:street": "Nickson Street",
                        "addr:housenumber": "117"
                    },
                    "distance": 728.45443176,
                    "sims": 0.9977866413847636
                },
                {
                    "id": 12418123211,
                    "tags": {
                        "addr:street": "Nickson Street",
                        "addr:housenumber": "46"
                    },
                    "distance": 725.90265701,
                    "sims": 0.9977357390241934
                },
                {
                    "id": 12418123254,
                    "tags": {
                        "addr:street": "Nickson Street",
                        "addr:housenumber": "67"
                    },
                    "distance": 724.92389319,
                    "sims": 0.9976929428943464
                },
                {
                    "id": 12418123286,
                    "tags": {
                        "addr:street": "Nickson Street",
                        "addr:housenumber": "19"
                    },
                    "distance": 946.0821961,
                    "sims": 0.9976128937236748
                },
                {
                    "id": 12418123430,
                    "tags": {
                        "addr:unit": "4",
                        "addr:street": "Nickson Street",
                        "addr:housenumber": "52"
                    },
                    "distance": 670.47315426,
                    "sims": 0.9975879195227719
                },
                {
                    "id": 12418125167,
                    "tags": {
                        "addr:unit": "2",
                        "addr:street": "Nickson Street",
                        "addr:housenumber": "60"
                    },
                    "distance": 654.04454347,
                    "sims": 0.9975668789406509
                },
                {
                    "id": 12418125078,
                    "tags": {
                        "addr:street": "Arthur Street",
                        "addr:housenumber": "46"
                    },
                    "distance": 959.1179038,
                    "sims": 0.9975391629291579
                },
                {
                    "id": 12418123176,
                    "tags": {
                        "addr:unit": "8",
                        "addr:street": "Nickson Street",
                        "addr:housenumber": "48"
                    },
                    "distance": 651.11854556,
                    "sims": 0.9974533917037629
                },
                {
                    "id": 12418122456,
                    "tags": {
                        "addr:unit": "2",
                        "addr:street": "May Street",
                        "addr:housenumber": "7"
                    },
                    "distance": 913.43419358,
                    "sims": 0.9973534943250737
                },
                {
                    "id": 12418121290,
                    "tags": {
                        "addr:street": "Morwell Avenue",
                        "addr:housenumber": "590"
                    },
                    "distance": 1546.76280765,
                    "sims": 0.9973285795850426
                }
            ]
        },
        "5": {
            "execution_time": 0.19105315208435059,
            "results": [
                {
                    "id": 2049197481,
                    "tags": {
                        "name": "ANZ",
                        "brand": "ANZ",
                        "amenity": "atm",
                        "website": "https://www.anz.com.au/",
                        "operator": "ANZ",
                        "official_name": "Australia and New Zealand Banking Group Limited",
                        "brand:wikidata": "Q714641",
                        "operator:wikidata": "Q714641"
                    },
                    "distance": 732.47526225,
                    "sims": 0.9922202862643112
                },
                {
                    "id": 11396048950,
                    "tags": {
                        "amenity": "waste_basket"
                    },
                    "distance": 954.19952108,
                    "sims": 0.9918620615499434
                },
                {
                    "id": 12419584854,
                    "tags": {
                        "addr:flats": "2;6-8;23;27-33;35;37-39;41;44;1A;1B;1C;1D;1E;37A",
                        "addr:street": "Ashley Street",
                        "addr:housenumber": "9-45"
                    },
                    "distance": 449.1927637,
                    "sims": 0.9918427792111614
                },
                {
                    "id": 11296568239,
                    "tags": {
                        "addr:street": "Rupert Street",
                        "addr:housenumber": "102"
                    },
                    "distance": 249.97200573,
                    "sims": 0.9918374739130157
                },
                {
                    "id": 12412227427,
                    "tags": {
                        "addr:street": "Brunswick Street",
                        "addr:housenumber": "16"
                    },
                    "distance": 713.75072405,
                    "sims": 0.991826895309238
                },
                {
                    "id": 12412227543,
                    "tags": {
                        "addr:street": "Brunswick Street",
                        "addr:housenumber": "33"
                    },
                    "distance": 675.20716849,
                    "sims": 0.9917984038120891
                },
                {
                    "id": 12408340475,
                    "tags": {
                        "name": "Inner West Swedish Bakery",
                        "shop": "bakery",
                        "website": "https://innerwestswedishbaker.com.au/",
                        "check_date": "2024-12-10",
                        "addr:street": "Barkly Street",
                        "payment:cash": "yes",
                        "opening_hours": "Mo off; Tu-Su 07:00-14:00",
                        "addr:housenumber": "549A",
                        "payment:debit_cards": "yes",
                        "payment:credit_cards": "yes"
                    },
                    "distance": 945.85163047,
                    "sims": 0.9917592135265811
                },
                {
                    "id": 11474492256,
                    "tags": {
                        "amenity": "bench",
                        "backrest": "yes"
                    },
                    "distance": 1069.90520678,
                    "sims": 0.9917295599790602
                },
                {
                    "id": 12419413073,
                    "tags": {
                        "addr:street": "Stonemark Court",
                        "addr:housenumber": "12"
                    },
                    "distance": 1305.20286599,
                    "sims": 0.9916793142703497
                },
                {
                    "id": 12419334810,
                    "tags": {
                        "addr:street": "McDougall Drive",
                        "addr:housenumber": "8"
                    },
                    "distance": 1272.54899728,
                    "sims": 0.9916553817720678
                }
            ]
        },
        "6": {
            "execution_time": 0.18399620056152344,
            "results": [
                {
                    "id": 12413606117,
                    "tags": {
                        "addr:street": "George Street",
                        "addr:housenumber": "8"
                    },
                    "distance": 1683.8498046,
                    "sims": 0.9948948047004407
                },
                {
                    "id": 12413606068,
                    "tags": {
                        "addr:street": "Robjant Street",
                        "addr:housenumber": "98"
                    },
                    "distance": 1606.90382852,
                    "sims": 0.994893970235762
                },
                {
                    "id": 12420087047,
                    "tags": {
                        "addr:street": "Chapel Street",
                        "addr:housenumber": "5"
                    },
                    "distance": 1004.76207969,
                    "sims": 0.9947857875398601
                },
                {
                    "id": 12413606063,
                    "tags": {
                        "addr:street": "Robjant Street",
                        "addr:housenumber": "86"
                    },
                    "distance": 1706.23829617,
                    "sims": 0.9947564620651183
                },
                {
                    "id": 12420087381,
                    "tags": {
                        "addr:street": "Wally Place",
                        "addr:housenumber": "31"
                    },
                    "distance": 684.2704427,
                    "sims": 0.994746299320257
                },
                {
                    "id": 12420087044,
                    "tags": {
                        "addr:street": "Astley Wynd",
                        "addr:housenumber": "52"
                    },
                    "distance": 194.69840495,
                    "sims": 0.9947349451098517
                },
                {
                    "id": 12413678443,
                    "tags": {
                        "addr:street": "Durack Avenue",
                        "addr:housenumber": "17"
                    },
                    "distance": 257.32211942,
                    "sims": 0.9946978111156345
                },
                {
                    "id": 12413679691,
                    "tags": {
                        "addr:unit": "1",
                        "addr:street": "Sedgwick Court",
                        "addr:housenumber": "16"
                    },
                    "distance": 1409.30604589,
                    "sims": 0.9946774559781101
                },
                {
                    "id": 12413679327,
                    "tags": {
                        "addr:street": "Slessor Avenue",
                        "addr:housenumber": "3"
                    },
                    "distance": 635.59789637,
                    "sims": 0.9946640748987566
                },
                {
                    "id": 12420087098,
                    "tags": {
                        "addr:street": "Astley Wynd",
                        "addr:housenumber": "60"
                    },
                    "distance": 191.49644925,
                    "sims": 0.994636001440807
                }
            ]
        },
        "7": {
            "execution_time": 0.18416953086853027,
            "results": [
                {
                    "id": 11155378798,
                    "tags": {
                        "building": "yes",
                        "addr:street": "Guelph Street",
                        "addr:housenumber": "70"
                    },
                    "distance": 1431.21267258,
                    "sims": 0.9959219095660412
                },
                {
                    "id": 12420358616,
                    "tags": {
                        "addr:street": "Guelph Street",
                        "addr:housenumber": "107"
                    },
                    "distance": 1155.97554808,
                    "sims": 0.9958584306155718
                },
                {
                    "id": 12420357051,
                    "tags": {
                        "addr:street": "Stanley Street",
                        "addr:housenumber": "60A"
                    },
                    "distance": 886.16036987,
                    "sims": 0.9958080943651288
                },
                {
                    "id": 12420355763,
                    "tags": {
                        "addr:street": "Speedwell Street",
                        "addr:housenumber": "22"
                    },
                    "distance": 1997.45769294,
                    "sims": 0.9956875440888151
                },
                {
                    "id": 12414953188,
                    "tags": {
                        "addr:street": "Station Street",
                        "addr:housenumber": "57"
                    },
                    "distance": 1627.74931227,
                    "sims": 0.995649278423249
                },
                {
                    "id": 12420358608,
                    "tags": {
                        "addr:street": "Guelph Street",
                        "addr:housenumber": "102"
                    },
                    "distance": 1248.05883657,
                    "sims": 0.9956080910925937
                },
                {
                    "id": 12420358698,
                    "tags": {
                        "addr:unit": "69",
                        "addr:street": "Speedwell Street",
                        "addr:housenumber": "10"
                    },
                    "distance": 1999.46934122,
                    "sims": 0.9955534336300769
                },
                {
                    "id": 12414953709,
                    "tags": {
                        "addr:street": "Station Street",
                        "addr:housenumber": "33"
                    },
                    "distance": 1552.01693805,
                    "sims": 0.9955514070720337
                },
                {
                    "id": 12414954495,
                    "tags": {
                        "addr:street": "Station Street",
                        "addr:housenumber": "28"
                    },
                    "distance": 1584.66206857,
                    "sims": 0.9955216640855865
                },
                {
                    "id": 12414952629,
                    "tags": {
                        "addr:street": "Alan George Terrace",
                        "addr:housenumber": "28"
                    },
                    "distance": 688.41943652,
                    "sims": 0.9955029482248959
                }
            ]
        },
        "8": {
            "execution_time": 0.18690919876098633,
            "results": [
                {
                    "id": 12418343491,
                    "tags": {
                        "addr:street": "Coppin Grove",
                        "addr:housenumber": "24"
                    },
                    "distance": 210.69085596,
                    "sims": 0.9951471666116488
                },
                {
                    "id": 12418341685,
                    "tags": {
                        "addr:street": "Coppin Grove",
                        "addr:housenumber": "6"
                    },
                    "distance": 67.43762165,
                    "sims": 0.9950413087183603
                },
                {
                    "id": 12418342606,
                    "tags": {
                        "addr:street": "Shakespeare Grove",
                        "addr:housenumber": "17"
                    },
                    "distance": 182.59006242,
                    "sims": 0.9949826577234302
                },
                {
                    "id": 12411501963,
                    "tags": {
                        "addr:street": "Madden Grove",
                        "addr:housenumber": "18"
                    },
                    "distance": 1543.04810398,
                    "sims": 0.9949046948155353
                },
                {
                    "id": 12418342322,
                    "tags": {
                        "addr:street": "Isabella Grove",
                        "addr:housenumber": "11"
                    },
                    "distance": 95.61830267,
                    "sims": 0.9948784687608918
                },
                {
                    "id": 12418343437,
                    "tags": {
                        "addr:street": "Isabella Grove",
                        "addr:housenumber": "6"
                    },
                    "distance": 111.85026269,
                    "sims": 0.994848428621563
                },
                {
                    "id": 12411522123,
                    "tags": {
                        "addr:street": "Majore Street",
                        "addr:housenumber": "12"
                    },
                    "distance": 461.96860584,
                    "sims": 0.9947991349455951
                },
                {
                    "id": 12411520936,
                    "tags": {
                        "addr:flats": "1-12",
                        "addr:street": "Coppin Grove",
                        "addr:housenumber": "9"
                    },
                    "distance": 0.0,
                    "sims": 0.9947883465003895
                },
                {
                    "id": 12411521761,
                    "tags": {
                        "addr:street": "Shakespeare Grove",
                        "addr:housenumber": "2"
                    },
                    "distance": 143.0131638,
                    "sims": 0.9947509147678528
                },
                {
                    "id": 2249843008,
                    "tags": {
                        "ref": "17",
                        "name": "Stop 17: Madden Grove",
                        "tram": "yes",
                        "network": "PTV - Metropolitan Trams",
                        "railway": "tram_stop",
                        "operator": "Keolis Downer",
                        "network:wikidata": "Q7257648",
                        "public_transport": "stop_position",
                        "operator:wikidata": "Q6328065"
                    },
                    "distance": 599.69610222,
                    "sims": 0.9947497822791296
                }
            ]
        },
        "9": {
            "execution_time": 0.18880534172058105,
            "results": [
                {
                    "id": 12420074754,
                    "tags": {
                        "addr:street": "Cricket Circuit",
                        "addr:housenumber": "11"
                    },
                    "distance": 785.56944524,
                    "sims": 0.9922500867247657
                },
                {
                    "id": 12417735195,
                    "tags": {
                        "addr:street": "Vestige Circuit",
                        "addr:housenumber": "28"
                    },
                    "distance": 647.34650624,
                    "sims": 0.9921523351306398
                },
                {
                    "id": 12417743421,
                    "tags": {
                        "addr:street": "Perrin Circuit",
                        "addr:housenumber": "19"
                    },
                    "distance": 978.21571014,
                    "sims": 0.992067994578391
                },
                {
                    "id": 12417734554,
                    "tags": {
                        "addr:street": "Vestige Circuit",
                        "addr:housenumber": "92"
                    },
                    "distance": 891.56574086,
                    "sims": 0.9920671300748374
                },
                {
                    "id": 12417743419,
                    "tags": {
                        "addr:street": "Perrin Circuit",
                        "addr:housenumber": "13"
                    },
                    "distance": 1022.95811688,
                    "sims": 0.9920499944538053
                },
                {
                    "id": 12417734530,
                    "tags": {
                        "addr:street": "Vestige Circuit",
                        "addr:housenumber": "112"
                    },
                    "distance": 889.66461208,
                    "sims": 0.9920305032657659
                },
                {
                    "id": 12417735203,
                    "tags": {
                        "addr:street": "Vestige Circuit",
                        "addr:housenumber": "48"
                    },
                    "distance": 630.7721666,
                    "sims": 0.9919895548845681
                },
                {
                    "id": 12417735197,
                    "tags": {
                        "addr:street": "Vestige Circuit",
                        "addr:housenumber": "32"
                    },
                    "distance": 637.78250869,
                    "sims": 0.9919746832900767
                },
                {
                    "id": 12417729696,
                    "tags": {
                        "addr:street": "Cushion Way",
                        "addr:housenumber": "16"
                    },
                    "distance": 329.27913961,
                    "sims": 0.991969318873166
                },
                {
                    "id": 12420072146,
                    "tags": {
                        "addr:street": "Fenwick Street",
                        "addr:housenumber": "30"
                    },
                    "distance": 1164.87473942,
                    "sims": 0.9919478016008909
                }
            ]
        },
        "10": {
            "execution_time": 0.18474841117858887,
            "results": [
                {
                    "id": 7574187307,
                    "tags": {
                        "bin": "yes",
                        "bus": "yes",
                        "lit": "yes",
                        "ref": "ID.48461",
                        "name": "St Albans Station (Bay 1)",
                        "bench": "yes",
                        "highway": "bus_stop",
                        "network": "PTV - Metropolitan Buses",
                        "shelter": "yes",
                        "operator": "CDC Melbourne",
                        "route_ref": "418;421",
                        "tactile_paving": "yes",
                        "departures_board": "timetable",
                        "public_transport": "platform"
                    },
                    "distance": 846.20013406,
                    "sims": 0.9923193477633
                },
                {
                    "id": 3287021806,
                    "tags": {
                        "amenity": "vending_machine",
                        "vending": "parking_tickets"
                    },
                    "distance": 691.31486286,
                    "sims": 0.9922850150383118
                },
                {
                    "id": 12412484033,
                    "tags": {
                        "addr:street": "Watford Road",
                        "addr:housenumber": "28"
                    },
                    "distance": 984.86506972,
                    "sims": 0.992102237674047
                },
                {
                    "id": 11866465670,
                    "tags": {
                        "amenity": "waste_basket"
                    },
                    "distance": 1977.94746142,
                    "sims": 0.992062272533892
                },
                {
                    "id": 12419832410,
                    "tags": {
                        "addr:street": "Watford Road",
                        "addr:housenumber": "27"
                    },
                    "distance": 986.38304421,
                    "sims": 0.9920541667777243
                },
                {
                    "id": 12412484018,
                    "tags": {
                        "addr:street": "Watford Road",
                        "addr:housenumber": "10"
                    },
                    "distance": 1136.37626151,
                    "sims": 0.9920501727938874
                },
                {
                    "id": 12419832860,
                    "tags": {
                        "addr:street": "Moonstone Circuit",
                        "addr:housenumber": "112"
                    },
                    "distance": 2242.97432048,
                    "sims": 0.9920390272024633
                },
                {
                    "id": 5980632046,
                    "tags": {
                        "amenity": "bench"
                    },
                    "distance": 657.93139331,
                    "sims": 0.9920059466344717
                },
                {
                    "id": 5980632222,
                    "tags": {
                        "name": "Diamond Link",
                        "shop": "jewelry",
                        "addr:street": "Main Road East",
                        "addr:housenumber": "290B"
                    },
                    "distance": 677.24781802,
                    "sims": 0.9919332294703184
                },
                {
                    "id": 12419832865,
                    "tags": {
                        "addr:street": "Moonstone Circuit",
                        "addr:housenumber": "13A"
                    },
                    "distance": 2173.74058949,
                    "sims": 0.9919115028619249
                }
            ]
        },
        "11": {
            "execution_time": 0.18540358543395996,
            "results": [
                {
                    "id": 2356827670,
                    "tags": {
                        "amenity": "bench"
                    },
                    "distance": 532.85973403,
                    "sims": 0.9962265493734765
                },
                {
                    "id": 12411732924,
                    "tags": {
                        "addr:street": "Regent Street",
                        "addr:housenumber": "17"
                    },
                    "distance": 1007.85466288,
                    "sims": 0.9960868959323291
                },
                {
                    "id": 12411733512,
                    "tags": {
                        "addr:street": "Regent Street",
                        "addr:housenumber": "46"
                    },
                    "distance": 963.42425983,
                    "sims": 0.9960700275856258
                },
                {
                    "id": 12419078073,
                    "tags": {
                        "addr:street": "Oxford Street",
                        "addr:housenumber": "1"
                    },
                    "distance": 722.56376896,
                    "sims": 0.996027529476434
                },
                {
                    "id": 12419077602,
                    "tags": {
                        "addr:street": "William Street",
                        "addr:housenumber": "83"
                    },
                    "distance": 621.25437667,
                    "sims": 0.9959378843381542
                },
                {
                    "id": 12419076471,
                    "tags": {
                        "addr:street": "Regent Street",
                        "addr:housenumber": "65W"
                    },
                    "distance": 1057.4687913,
                    "sims": 0.9959269465229865
                },
                {
                    "id": 2356835495,
                    "tags": {
                        "amenity": "bench"
                    },
                    "distance": 495.71822767,
                    "sims": 0.9959269173275994
                },
                {
                    "id": 12411731626,
                    "tags": {
                        "addr:street": "Bedstraw Street",
                        "addr:housenumber": "22"
                    },
                    "distance": 295.4704965,
                    "sims": 0.9958195686340403
                },
                {
                    "id": 12411730547,
                    "tags": {
                        "addr:street": "Croft Street",
                        "addr:housenumber": "10"
                    },
                    "distance": 584.59561206,
                    "sims": 0.9958075292454626
                },
                {
                    "id": 12419077583,
                    "tags": {
                        "addr:street": "Coe Street",
                        "addr:housenumber": "14"
                    },
                    "distance": 633.98498616,
                    "sims": 0.995756626382077
                }
            ]
        },
        "12": {
            "execution_time": 0.1878817081451416,
            "results": [
                {
                    "id": 4312275124,
                    "tags": {
                        "ref": "57",
                        "name": "Stop 57: Reservoir High School",
                        "tram": "yes",
                        "network": "PTV - Metropolitan Trams",
                        "railway": "tram_stop",
                        "operator": "Keolis Downer",
                        "network:wikidata": "Q7257648",
                        "public_transport": "stop_position",
                        "operator:wikidata": "Q6328065"
                    },
                    "distance": 963.63996367,
                    "sims": 0.9948170787314153
                },
                {
                    "id": 4312275123,
                    "tags": {
                        "ref": "57",
                        "name": "Stop 57: Reservoir High School",
                        "tram": "yes",
                        "network": "PTV - Metropolitan Trams",
                        "railway": "tram_stop",
                        "operator": "Keolis Downer",
                        "network:wikidata": "Q7257648",
                        "public_transport": "stop_position",
                        "operator:wikidata": "Q6328065"
                    },
                    "distance": 972.29974728,
                    "sims": 0.9947833431283609
                },
                {
                    "id": 4312280864,
                    "tags": {
                        "ref": "58",
                        "name": "Stop 58: Browning Street",
                        "tram": "yes",
                        "network": "PTV - Metropolitan Trams",
                        "railway": "tram_stop",
                        "operator": "Keolis Downer",
                        "network:wikidata": "Q7257648",
                        "public_transport": "stop_position",
                        "operator:wikidata": "Q6328065"
                    },
                    "distance": 1313.93408076,
                    "sims": 0.9944728030031197
                },
                {
                    "id": 8828580650,
                    "tags": {
                        "bus": "yes",
                        "ref": "ID.1251",
                        "name": "Caddy Court/Clingin Street",
                        "bench": "yes",
                        "highway": "bus_stop",
                        "network": "PTV - Metropolitan Buses",
                        "shelter": "yes",
                        "route_ref": "567",
                        "tactile_paving": "yes",
                        "network:wikidata": "Q7257648",
                        "public_transport": "platform",
                        "network:wikipedia": "en:Public Transport Victoria"
                    },
                    "distance": 299.17532501,
                    "sims": 0.9940668647825651
                },
                {
                    "id": 12417632158,
                    "tags": {
                        "addr:street": "Crevelli Street",
                        "addr:housenumber": "38"
                    },
                    "distance": 257.99241716,
                    "sims": 0.9940503842770666
                },
                {
                    "id": 12417632031,
                    "tags": {
                        "addr:unit": "3",
                        "addr:street": "Mathews Court",
                        "addr:housenumber": "1C"
                    },
                    "distance": 203.86425794,
                    "sims": 0.9940166177148851
                },
                {
                    "id": 12417628626,
                    "tags": {
                        "addr:street": "Clingin Street",
                        "addr:housenumber": "47"
                    },
                    "distance": 276.56487646,
                    "sims": 0.9939275387568908
                },
                {
                    "id": 12417621655,
                    "tags": {
                        "addr:unit": "9",
                        "addr:street": "Crevelli Street",
                        "addr:housenumber": "10"
                    },
                    "distance": 161.72056891,
                    "sims": 0.9939211021802856
                },
                {
                    "id": 12417632155,
                    "tags": {
                        "addr:street": "Andrews Avenue",
                        "addr:housenumber": "52B"
                    },
                    "distance": 243.81282724,
                    "sims": 0.9939202077483954
                },
                {
                    "id": 12417624697,
                    "tags": {
                        "addr:street": "Crevelli Street",
                        "addr:housenumber": "66"
                    },
                    "distance": 505.08758012,
                    "sims": 0.9939104325878175
                }
            ]
        },
        "13": {
            "execution_time": 0.1878490447998047,
            "results": [
                {
                    "id": 2276698151,
                    "tags": {
                        "ref": "66",
                        "name": "Stop 66: Truganini Road",
                        "tram": "yes",
                        "network": "PTV - Metropolitan Trams",
                        "railway": "tram_stop",
                        "operator": "Keolis Downer",
                        "network:wikidata": "Q7257648",
                        "public_transport": "stop_position",
                        "operator:wikidata": "Q6328065"
                    },
                    "distance": 253.7604191,
                    "sims": 0.9922664202374536
                },
                {
                    "id": 2276892484,
                    "tags": {
                        "ref": "65",
                        "name": "Stop 65: Mimosa Road",
                        "tram": "yes",
                        "network": "PTV - Metropolitan Trams",
                        "railway": "tram_stop",
                        "operator": "Keolis Downer",
                        "network:wikidata": "Q7257648",
                        "public_transport": "stop_position",
                        "operator:wikidata": "Q6328065"
                    },
                    "distance": 364.31990757,
                    "sims": 0.9922355450461824
                },
                {
                    "id": 2276888417,
                    "tags": {
                        "ref": "67",
                        "name": "Stop 67: Centre Road",
                        "tram": "yes",
                        "network": "PTV - Metropolitan Trams",
                        "railway": "tram_stop",
                        "operator": "Keolis Downer",
                        "network:wikidata": "Q7257648",
                        "public_transport": "stop_position",
                        "operator:wikidata": "Q6328065"
                    },
                    "distance": 49.92942169,
                    "sims": 0.9922215975659556
                },
                {
                    "id": 5274784282,
                    "tags": {
                        "amenity": "bench",
                        "backrest": "yes"
                    },
                    "distance": 878.81917153,
                    "sims": 0.9921605624388095
                },
                {
                    "id": 2246467893,
                    "tags": {
                        "bus": "yes",
                        "name": "Moonya Road/Koornang Road",
                        "highway": "bus_stop",
                        "public_transport": "platform"
                    },
                    "distance": 354.18950858,
                    "sims": 0.99201810835719
                },
                {
                    "id": 12419087629,
                    "tags": {
                        "addr:street": "McLaurin Road",
                        "addr:housenumber": "39"
                    },
                    "distance": 445.97579622,
                    "sims": 0.9917719999447997
                },
                {
                    "id": 12419088075,
                    "tags": {
                        "addr:street": "Rosstown Road",
                        "addr:housenumber": "54-56"
                    },
                    "distance": 790.9114641,
                    "sims": 0.9916418830672995
                },
                {
                    "id": 12460584882,
                    "tags": {
                        "access": "private",
                        "amenity": "parking_entrance",
                        "parking": "underground"
                    },
                    "distance": 952.45196559,
                    "sims": 0.991583828170971
                },
                {
                    "id": 12419087494,
                    "tags": {
                        "addr:street": "McLaurin Road",
                        "addr:housenumber": "17"
                    },
                    "distance": 626.46780395,
                    "sims": 0.9915557243427159
                },
                {
                    "id": 12419085430,
                    "tags": {
                        "addr:street": "Neville Street",
                        "addr:housenumber": "118B"
                    },
                    "distance": 568.43018934,
                    "sims": 0.9915390350496395
                }
            ]
        },
        "14": {
            "execution_time": 0.19098949432373047,
            "results": [
                {
                    "id": 5960549451,
                    "tags": {
                        "name": "Westpac",
                        "brand": "Westpac",
                        "amenity": "atm",
                        "operator": "Westpac",
                        "brand:wikidata": "Q2031726",
                        "operator:wikidata": "Q2031726"
                    },
                    "distance": 662.30074628,
                    "sims": 0.9960821869324493
                },
                {
                    "id": 12479911729,
                    "tags": {
                        "amenity": "bench"
                    },
                    "distance": 4036.53084814,
                    "sims": 0.9960142378790166
                },
                {
                    "id": 12479911731,
                    "tags": {
                        "amenity": "bench"
                    },
                    "distance": 4048.58490931,
                    "sims": 0.9960142378790166
                },
                {
                    "id": 5960549406,
                    "tags": {
                        "amenity": "waste_basket"
                    },
                    "distance": 742.44173537,
                    "sims": 0.9960023169514826
                },
                {
                    "id": 12479911734,
                    "tags": {
                        "amenity": "bench"
                    },
                    "distance": 3968.55954187,
                    "sims": 0.9960014824865552
                },
                {
                    "id": 12413610439,
                    "tags": {
                        "addr:street": "Andrew Street",
                        "addr:housenumber": "13"
                    },
                    "distance": 455.92719627,
                    "sims": 0.9959395537520519
                },
                {
                    "id": 12420062138,
                    "tags": {
                        "addr:street": "Wren Street",
                        "addr:housenumber": "32"
                    },
                    "distance": 303.73630521,
                    "sims": 0.9958827505391239
                },
                {
                    "id": 12420061870,
                    "tags": {
                        "addr:street": "Wren Street",
                        "addr:housenumber": "28"
                    },
                    "distance": 289.03043473,
                    "sims": 0.9958484177770187
                },
                {
                    "id": 12420061771,
                    "tags": {
                        "addr:street": "Sinclair Court",
                        "addr:housenumber": "2"
                    },
                    "distance": 738.33975318,
                    "sims": 0.9957746272355833
                },
                {
                    "id": 12420064361,
                    "tags": {
                        "addr:unit": "1",
                        "addr:street": "Andrew Street",
                        "addr:housenumber": "4"
                    },
                    "distance": 629.59800835,
                    "sims": 0.9957525735196454
                }
            ]
        },
        "15": {
            "execution_time": 0.1840827465057373,
            "results": [
                {
                    "id": 12412350201,
                    "tags": {
                        "addr:street": "Merrivale Avenue",
                        "addr:housenumber": "4"
                    },
                    "distance": 668.9680251,
                    "sims": 0.996138392497982
                },
                {
                    "id": 12412350199,
                    "tags": {
                        "addr:street": "Merrivale Avenue",
                        "addr:housenumber": "2"
                    },
                    "distance": 674.92182647,
                    "sims": 0.9961137159345599
                },
                {
                    "id": 12412352008,
                    "tags": {
                        "addr:street": "Hensbergh Place",
                        "addr:housenumber": "20"
                    },
                    "distance": 1067.4276589,
                    "sims": 0.9961088881882666
                },
                {
                    "id": 12412352004,
                    "tags": {
                        "addr:street": "Hensbergh Place",
                        "addr:housenumber": "10"
                    },
                    "distance": 1098.54661984,
                    "sims": 0.9960964308130534
                },
                {
                    "id": 12412349683,
                    "tags": {
                        "addr:street": "Fremont Parade",
                        "addr:housenumber": "17"
                    },
                    "distance": 1345.8919826,
                    "sims": 0.9960829601585167
                },
                {
                    "id": 12412352028,
                    "tags": {
                        "addr:street": "Hensbergh Place",
                        "addr:housenumber": "24"
                    },
                    "distance": 1096.78094037,
                    "sims": 0.9960823638783269
                },
                {
                    "id": 12419613528,
                    "tags": {
                        "addr:street": "Fremont Parade",
                        "addr:housenumber": "24"
                    },
                    "distance": 1351.64352218,
                    "sims": 0.996049343126841
                },
                {
                    "id": 12412349739,
                    "tags": {
                        "addr:street": "Fremont Parade",
                        "addr:housenumber": "51"
                    },
                    "distance": 1068.81098974,
                    "sims": 0.9960384950776123
                },
                {
                    "id": 12419615088,
                    "tags": {
                        "addr:street": "Libby Lane",
                        "addr:housenumber": "13"
                    },
                    "distance": 547.63495243,
                    "sims": 0.9960271108232146
                },
                {
                    "id": 12412350198,
                    "tags": {
                        "addr:street": "Merrivale Avenue",
                        "addr:housenumber": "1"
                    },
                    "distance": 705.11273796,
                    "sims": 0.9960056526684946
                }
            ]
        },
        "16": {
            "execution_time": 0.18718171119689941,
            "results": [
                {
                    "id": 10211772111,
                    "tags": {
                        "amenity": "bench",
                        "backrest": "yes"
                    },
                    "distance": 0.0,
                    "sims": 0.9949517831063066
                },
                {
                    "id": 7844240440,
                    "tags": {
                        "leisure": "park"
                    },
                    "distance": 693.75199197,
                    "sims": 0.9949349146848895
                },
                {
                    "id": 12411502806,
                    "tags": {
                        "addr:street": "Faversham Road",
                        "addr:housenumber": "45"
                    },
                    "distance": 335.59944788,
                    "sims": 0.9946990593371414
                },
                {
                    "id": 12418303591,
                    "tags": {
                        "addr:street": "Faversham Road",
                        "addr:housenumber": "3"
                    },
                    "distance": 313.09126109,
                    "sims": 0.9946477993273579
                },
                {
                    "id": 12476545860,
                    "tags": {
                        "name": "Canterbury Christadelphian Hall",
                        "amenity": "place_of_worship",
                        "religion": "christian",
                        "denomination": "christadelphian"
                    },
                    "distance": 317.24833883,
                    "sims": 0.9946464883438957
                },
                {
                    "id": 12411502894,
                    "tags": {
                        "addr:street": "Faversham Road",
                        "addr:housenumber": "41"
                    },
                    "distance": 316.47137645,
                    "sims": 0.9946340899351247
                },
                {
                    "id": 12418304121,
                    "tags": {
                        "addr:street": "Faversham Road",
                        "addr:housenumber": "6"
                    },
                    "distance": 289.53376967,
                    "sims": 0.9945756776856857
                },
                {
                    "id": 10211211140,
                    "tags": {
                        "amenity": "bench",
                        "backrest": "yes"
                    },
                    "distance": 1008.42900999,
                    "sims": 0.9945108870903132
                },
                {
                    "id": 12418303301,
                    "tags": {
                        "addr:street": "Church Street",
                        "addr:housenumber": "13"
                    },
                    "distance": 685.8692164,
                    "sims": 0.9944416864042981
                },
                {
                    "id": 12418892429,
                    "tags": {
                        "addr:street": "Sir Garnet Road",
                        "addr:housenumber": "13"
                    },
                    "distance": 126.2593911,
                    "sims": 0.9944145659499091
                }
            ]
        },
        "17": {
            "execution_time": 0.1888904571533203,
            "results": [
                {
                    "id": 12417685106,
                    "tags": {
                        "addr:street": "Pymble Gardens",
                        "addr:housenumber": "18"
                    },
                    "distance": 967.63754541,
                    "sims": 0.9920063018798828
                },
                {
                    "id": 12412092448,
                    "tags": {
                        "addr:street": "Orbit Walk",
                        "addr:housenumber": "7"
                    },
                    "distance": 1786.21928752,
                    "sims": 0.9919980764389038
                },
                {
                    "id": 12419604764,
                    "tags": {
                        "addr:street": "Pirianda Court",
                        "addr:housenumber": "5"
                    },
                    "distance": 893.12016134,
                    "sims": 0.9919635057449341
                },
                {
                    "id": 12419603244,
                    "tags": {
                        "addr:street": "Cockatoo Road",
                        "addr:housenumber": "25"
                    },
                    "distance": 559.68638261,
                    "sims": 0.9919218120551654
                },
                {
                    "id": 12412330772,
                    "tags": {
                        "addr:street": "Hawkstowe Crescent",
                        "addr:housenumber": "23"
                    },
                    "distance": 216.82976753,
                    "sims": 0.9918920402591223
                },
                {
                    "id": 12419380822,
                    "tags": {
                        "addr:street": "Tournament Rise",
                        "addr:housenumber": "11"
                    },
                    "distance": 1081.01718306,
                    "sims": 0.9918526105749
                },
                {
                    "id": 12412330767,
                    "tags": {
                        "addr:street": "Clockwise Street",
                        "addr:housenumber": "23"
                    },
                    "distance": 219.88220981,
                    "sims": 0.9918504953384399
                },
                {
                    "id": 12412091344,
                    "tags": {
                        "addr:street": "Gaussberg Walk",
                        "addr:housenumber": "17"
                    },
                    "distance": 2461.05462777,
                    "sims": 0.9918496608734131
                },
                {
                    "id": 12412090564,
                    "tags": {
                        "addr:street": "Maisie Court",
                        "addr:housenumber": "15A"
                    },
                    "distance": 1236.22481701,
                    "sims": 0.9918460254760983
                },
                {
                    "id": 12419604944,
                    "tags": {
                        "addr:street": "Astronomy Street",
                        "addr:housenumber": "26"
                    },
                    "distance": 114.42279681,
                    "sims": 0.9918375015258789
                }
            ]
        },
        "18": {
            "execution_time": 0.19040822982788086,
            "results": [
                {
                    "id": 12419370184,
                    "tags": {
                        "addr:street": "Hume Street",
                        "addr:housenumber": "79"
                    },
                    "distance": 661.00054059,
                    "sims": 0.9960141488284516
                },
                {
                    "id": 4483652745,
                    "tags": {
                        "amenity": "bench",
                        "backrest": "yes"
                    },
                    "distance": 605.55542504,
                    "sims": 0.995841295394663
                },
                {
                    "id": 9952036150,
                    "tags": {
                        "amenity": "bench",
                        "backrest": "yes"
                    },
                    "distance": 1061.0452467,
                    "sims": 0.9958190930428983
                },
                {
                    "id": 12419370200,
                    "tags": {
                        "addr:street": "Hume Street",
                        "addr:housenumber": "65"
                    },
                    "distance": 727.27712386,
                    "sims": 0.9957371658478965
                },
                {
                    "id": 12419371527,
                    "tags": {
                        "addr:unit": "1",
                        "addr:street": "Langley Street",
                        "addr:housenumber": "13"
                    },
                    "distance": 156.63839443,
                    "sims": 0.9957273016626399
                },
                {
                    "id": 10198813416,
                    "tags": {
                        "name": "Duncan's",
                        "shop": "alcohol",
                        "brand": "Duncan's",
                        "phone": "+61 3 9723 2997",
                        "website": "https://www.duncans.com.au/bottle-shops/vic/eastfield-cellars",
                        "operator": "Duncan's",
                        "addr:state": "VIC",
                        "addr:street": "Bayswater Road",
                        "addr:suburb": "Croydon South",
                        "addr:postcode": "3136",
                        "drive_through": "no",
                        "opening_hours": "Mo-Su 11:00-20:00",
                        "brand:wikidata": "Q119104909",
                        "addr:housenumber": "116"
                    },
                    "distance": 1617.01276945,
                    "sims": 0.9956071389892442
                },
                {
                    "id": 12419369120,
                    "tags": {
                        "addr:street": "Hume Street",
                        "addr:housenumber": "27-39"
                    },
                    "distance": 932.07496545,
                    "sims": 0.9955916412607323
                },
                {
                    "id": 12419369236,
                    "tags": {
                        "addr:street": "Alexandra Road",
                        "addr:housenumber": "28"
                    },
                    "distance": 242.63594643,
                    "sims": 0.9955826412242598
                },
                {
                    "id": 10201380110,
                    "tags": {
                        "amenity": "bench",
                        "backrest": "yes"
                    },
                    "distance": 1640.41598712,
                    "sims": 0.995568842356133
                },
                {
                    "id": 12412048570,
                    "tags": {
                        "addr:street": "Alexandra Road",
                        "addr:housenumber": "29"
                    },
                    "distance": 236.37371225,
                    "sims": 0.9955263747196432
                }
            ]
        },
        "19": {
            "execution_time": 0.1888594627380371,
            "results": [
                {
                    "id": 12411509109,
                    "tags": {
                        "addr:street": "Pleasant View Drive",
                        "addr:housenumber": "28"
                    },
                    "distance": 1256.86039042,
                    "sims": 0.994119645567053
                },
                {
                    "id": 12417625375,
                    "tags": {
                        "addr:street": "Rubicon Street",
                        "addr:housenumber": "32"
                    },
                    "distance": 213.50601929,
                    "sims": 0.9940253517537122
                },
                {
                    "id": 12417629124,
                    "tags": {
                        "addr:street": "Thackeray Road",
                        "addr:housenumber": "27"
                    },
                    "distance": 673.60204292,
                    "sims": 0.9939916444438603
                },
                {
                    "id": 12417625804,
                    "tags": {
                        "addr:street": "Shand Road",
                        "addr:housenumber": "6"
                    },
                    "distance": 282.37931149,
                    "sims": 0.9939904230861754
                },
                {
                    "id": 12417630095,
                    "tags": {
                        "addr:street": "Storey Road",
                        "addr:housenumber": "10"
                    },
                    "distance": 436.62261944,
                    "sims": 0.9939816608472961
                },
                {
                    "id": 12417630192,
                    "tags": {
                        "addr:street": "Rubicon Street",
                        "addr:housenumber": "33"
                    },
                    "distance": 177.67687893,
                    "sims": 0.9939472686147055
                },
                {
                    "id": 12417626040,
                    "tags": {
                        "addr:street": "Tambo Avenue",
                        "addr:housenumber": "24"
                    },
                    "distance": 526.69761655,
                    "sims": 0.993931234968128
                },
                {
                    "id": 12417626291,
                    "tags": {
                        "addr:street": "Lindsay Street",
                        "addr:housenumber": "1"
                    },
                    "distance": 939.66921661,
                    "sims": 0.9939282550983103
                },
                {
                    "id": 12417628182,
                    "tags": {
                        "addr:street": "Mendip Road",
                        "addr:housenumber": "11"
                    },
                    "distance": 486.5475877,
                    "sims": 0.9939250964149704
                },
                {
                    "id": 12417624148,
                    "tags": {
                        "addr:street": "Acheron Avenue",
                        "addr:housenumber": "39"
                    },
                    "distance": 683.75959133,
                    "sims": 0.993914486065941
                }
            ]
        },
        "20": {
            "execution_time": 0.18678045272827148,
            "results": [
                {
                    "id": 3004055233,
                    "tags": {
                        "amenity": "vending_machine",
                        "vending": "drinks"
                    },
                    "distance": 1182.13418688,
                    "sims": 0.9920205483412159
                },
                {
                    "id": 12200434298,
                    "tags": {
                        "building": "yes",
                        "addr:street": "Ramu Parade",
                        "addr:housenumber": "30"
                    },
                    "distance": 260.33386216,
                    "sims": 0.9919796600378186
                },
                {
                    "id": 12418104281,
                    "tags": {
                        "addr:street": "Dougharty Road",
                        "addr:housenumber": "175"
                    },
                    "distance": 143.48552095,
                    "sims": 0.9919040212745711
                },
                {
                    "id": 12200450874,
                    "tags": {
                        "building": "yes",
                        "addr:street": "Ramu Parade",
                        "addr:housenumber": "48"
                    },
                    "distance": 252.28268199,
                    "sims": 0.9918748154864063
                },
                {
                    "id": 9070293882,
                    "tags": {
                        "name": "Olympic Rings",
                        "tourism": "artwork",
                        "artwork_type": "installation"
                    },
                    "distance": 817.86655618,
                    "sims": 0.9917002335130768
                },
                {
                    "id": 12418104358,
                    "tags": {
                        "addr:street": "Ramu Parade",
                        "addr:housenumber": "76"
                    },
                    "distance": 375.79626847,
                    "sims": 0.9916608038049912
                },
                {
                    "id": 7262019328,
                    "tags": {
                        "building": "yes",
                        "addr:street": "Waterdale Road",
                        "addr:housenumber": "579"
                    },
                    "distance": 479.67767488,
                    "sims": 0.9916116304744923
                },
                {
                    "id": 12418104300,
                    "tags": {
                        "addr:street": "Dougharty Road",
                        "addr:housenumber": "181"
                    },
                    "distance": 175.11532713,
                    "sims": 0.9915847192305731
                },
                {
                    "id": 3380582536,
                    "tags": {
                        "addr:street": "Dougharty Road",
                        "addr:housenumber": "157"
                    },
                    "distance": 64.23096022,
                    "sims": 0.9915650191436918
                },
                {
                    "id": 12418104347,
                    "tags": {
                        "addr:street": "Ramu Parade",
                        "addr:housenumber": "19"
                    },
                    "distance": 358.48673348,
                    "sims": 0.9915523539123183
                }
            ]
        },
        "21": {
            "execution_time": 0.18936634063720703,
            "results": [
                {
                    "id": 4069233697,
                    "tags": {
                        "building": "yes",
                        "addr:street": "Evelina Street",
                        "addr:housenumber": "7"
                    },
                    "distance": 273.95364122,
                    "sims": 0.9954484080694164
                },
                {
                    "id": 12418324461,
                    "tags": {
                        "addr:unit": "2",
                        "addr:street": "Francesca Street",
                        "addr:housenumber": "16"
                    },
                    "distance": 462.59541993,
                    "sims": 0.9953911581894967
                },
                {
                    "id": 12418324908,
                    "tags": {
                        "addr:unit": "2",
                        "addr:street": "Francesca Street",
                        "addr:housenumber": "23"
                    },
                    "distance": 373.73158988,
                    "sims": 0.9953817403761176
                },
                {
                    "id": 12418323311,
                    "tags": {
                        "addr:unit": "2",
                        "addr:street": "Francesca Street",
                        "addr:housenumber": "6"
                    },
                    "distance": 514.28536734,
                    "sims": 0.9953538462191124
                },
                {
                    "id": 12411507738,
                    "tags": {
                        "addr:unit": "3",
                        "addr:street": "Evelina Street",
                        "addr:housenumber": "8"
                    },
                    "distance": 208.37453562,
                    "sims": 0.995344368799957
                },
                {
                    "id": 12058147877,
                    "tags": {
                        "building": "yes",
                        "addr:street": "Yeneda Street",
                        "addr:housenumber": "34"
                    },
                    "distance": 229.89794757,
                    "sims": 0.9953134339773335
                },
                {
                    "id": 12418323429,
                    "tags": {
                        "addr:street": "Sutton Parade",
                        "addr:housenumber": "19"
                    },
                    "distance": 556.49511935,
                    "sims": 0.9952851214790391
                },
                {
                    "id": 12418323986,
                    "tags": {
                        "addr:street": "Evelina Street",
                        "addr:housenumber": "13"
                    },
                    "distance": 289.92392521,
                    "sims": 0.9952701604245673
                },
                {
                    "id": 12418323891,
                    "tags": {
                        "addr:street": "Sutton Parade",
                        "addr:housenumber": "5"
                    },
                    "distance": 634.50870076,
                    "sims": 0.9952661671935273
                },
                {
                    "id": 12418323553,
                    "tags": {
                        "addr:street": "Evelina Street",
                        "addr:housenumber": "29"
                    },
                    "distance": 360.61640215,
                    "sims": 0.9952471530200275
                }
            ]
        },
        "22": {
            "execution_time": 0.19038105010986328,
            "results": [
                {
                    "id": 12420322518,
                    "tags": {
                        "addr:street": "Gisborne Melton Road",
                        "addr:housenumber": "183"
                    },
                    "distance": 800.80526776,
                    "sims": 0.9920769601166924
                },
                {
                    "id": 12420322277,
                    "tags": {
                        "addr:street": "Baluk Place",
                        "addr:housenumber": "11"
                    },
                    "distance": 35.78976371,
                    "sims": 0.9920749645413012
                },
                {
                    "id": 12420329914,
                    "tags": {
                        "addr:street": "Blaze Circuit",
                        "addr:housenumber": "14"
                    },
                    "distance": 2059.47801742,
                    "sims": 0.9920268917204312
                },
                {
                    "id": 12414319674,
                    "tags": {
                        "addr:street": "Connemarra Circuit",
                        "addr:housenumber": "17"
                    },
                    "distance": 2112.36976332,
                    "sims": 0.9920054655089232
                },
                {
                    "id": 12420322194,
                    "tags": {
                        "addr:street": "Baluk Place",
                        "addr:housenumber": "3"
                    },
                    "distance": 0.0,
                    "sims": 0.9920038557064966
                },
                {
                    "id": 12420322275,
                    "tags": {
                        "addr:street": "Baluk Place",
                        "addr:housenumber": "7"
                    },
                    "distance": 59.52938706,
                    "sims": 0.9919844241087203
                },
                {
                    "id": 12414320444,
                    "tags": {
                        "addr:street": "Killarney Drive",
                        "addr:housenumber": "5"
                    },
                    "distance": 1732.80875038,
                    "sims": 0.9919643373362474
                },
                {
                    "id": 12420267795,
                    "tags": {
                        "addr:street": "Blaze Circuit",
                        "addr:housenumber": "12"
                    },
                    "distance": 2036.85036209,
                    "sims": 0.9919522976734004
                },
                {
                    "id": 12414306670,
                    "tags": {
                        "addr:street": "Pyke Place",
                        "addr:housenumber": "5"
                    },
                    "distance": 168.86513006,
                    "sims": 0.9919448466104355
                },
                {
                    "id": 12414318569,
                    "tags": {
                        "addr:street": "Penguin Street",
                        "addr:housenumber": "23"
                    },
                    "distance": 1619.84672085,
                    "sims": 0.9919046134608236
                }
            ]
        },
        "23": {
            "execution_time": 0.18792033195495605,
            "results": [
                {
                    "id": 9250342678,
                    "tags": {
                        "amenity": "bench"
                    },
                    "distance": 1503.91369992,
                    "sims": 0.9972832202911377
                },
                {
                    "id": 12414336475,
                    "tags": {
                        "addr:street": "Abbeyhill Street",
                        "addr:housenumber": "10"
                    },
                    "distance": 1003.3485463,
                    "sims": 0.9970966577529907
                },
                {
                    "id": 12414332916,
                    "tags": {
                        "addr:street": "Nigella Street",
                        "addr:housenumber": "8"
                    },
                    "distance": 793.72375257,
                    "sims": 0.9970511493430609
                },
                {
                    "id": 12414332929,
                    "tags": {
                        "addr:street": "Nigella Street",
                        "addr:housenumber": "20"
                    },
                    "distance": 750.73595653,
                    "sims": 0.9970257577621164
                },
                {
                    "id": 12420337539,
                    "tags": {
                        "addr:street": "Noir Street",
                        "addr:housenumber": "17"
                    },
                    "distance": 369.48110814,
                    "sims": 0.9969764947891235
                },
                {
                    "id": 12420337529,
                    "tags": {
                        "addr:street": "Noir Street",
                        "addr:housenumber": "13"
                    },
                    "distance": 392.48633794,
                    "sims": 0.9969717858416924
                },
                {
                    "id": 12420337515,
                    "tags": {
                        "addr:street": "Noir Street",
                        "addr:housenumber": "19"
                    },
                    "distance": 356.23431397,
                    "sims": 0.99692702293396
                },
                {
                    "id": 12414336292,
                    "tags": {
                        "addr:street": "Gian Street",
                        "addr:housenumber": "17"
                    },
                    "distance": 203.3483461,
                    "sims": 0.9969174861907959
                },
                {
                    "id": 12414334188,
                    "tags": {
                        "addr:street": "Energy Street",
                        "addr:housenumber": "10"
                    },
                    "distance": 1051.60935803,
                    "sims": 0.9968983529149522
                },
                {
                    "id": 10223025192,
                    "tags": {
                        "amenity": "bench"
                    },
                    "distance": 2180.53224626,
                    "sims": 0.9968826774498679
                }
            ]
        },
        "24": {
            "execution_time": 0.19248223304748535,
            "results": [
                {
                    "id": 10096586154,
                    "tags": {
                        "leisure": "playground"
                    },
                    "distance": 298.59201659,
                    "sims": 0.9922134585189818
                },
                {
                    "id": 12419117467,
                    "tags": {
                        "addr:street": "Loch Crescent",
                        "addr:housenumber": "15"
                    },
                    "distance": 1173.86507239,
                    "sims": 0.9919359092750762
                },
                {
                    "id": 12411997281,
                    "tags": {
                        "addr:street": "Nerissa Grove",
                        "addr:housenumber": "2A"
                    },
                    "distance": 915.39410778,
                    "sims": 0.9918878684177626
                },
                {
                    "id": 12411996664,
                    "tags": {
                        "addr:street": "Nerissa Grove",
                        "addr:housenumber": "29"
                    },
                    "distance": 857.5383806,
                    "sims": 0.9918744573742868
                },
                {
                    "id": 11121042556,
                    "tags": {
                        "name": "Oak Park Childrens Childcare and Preschool",
                        "amenity": "childcare"
                    },
                    "distance": 925.61385995,
                    "sims": 0.9918432846349583
                },
                {
                    "id": 11223505697,
                    "tags": {
                        "building": "yes",
                        "addr:street": "Prospect Street",
                        "addr:housenumber": "16A"
                    },
                    "distance": 1384.85051939,
                    "sims": 0.9918196211076304
                },
                {
                    "id": 4681176375,
                    "tags": {
                        "amenity": "bicycle_repair_station"
                    },
                    "distance": 290.30235198,
                    "sims": 0.9917961959960503
                },
                {
                    "id": 12419125132,
                    "tags": {
                        "addr:street": "Devereaux Street",
                        "addr:housenumber": "29"
                    },
                    "distance": 847.3003469,
                    "sims": 0.9917632356113387
                },
                {
                    "id": 12419125131,
                    "tags": {
                        "addr:street": "Devereaux Street",
                        "addr:housenumber": "27"
                    },
                    "distance": 839.47456517,
                    "sims": 0.9917421951754953
                },
                {
                    "id": 12419125605,
                    "tags": {
                        "addr:street": "Devereaux Street",
                        "addr:housenumber": "22"
                    },
                    "distance": 846.95903849,
                    "sims": 0.991715670619534
                }
            ]
        },
        "25": {
            "execution_time": 0.18792390823364258,
            "results": [
                {
                    "id": 12419138039,
                    "tags": {
                        "addr:street": "Leinster Street",
                        "addr:housenumber": "29B"
                    },
                    "distance": 502.44948728,
                    "sims": 0.9919100995010356
                },
                {
                    "id": 12412050511,
                    "tags": {
                        "addr:street": "McKinnon Road",
                        "addr:housenumber": "294"
                    },
                    "distance": 213.10396357,
                    "sims": 0.9918379773900552
                },
                {
                    "id": 368949159,
                    "tags": {
                        "name": "McKinnon",
                        "place": "suburb"
                    },
                    "distance": 532.68976248,
                    "sims": 0.9918321952519784
                },
                {
                    "id": 12419151967,
                    "tags": {
                        "addr:street": "Chalmers Street",
                        "addr:housenumber": "14"
                    },
                    "distance": 72.88910157,
                    "sims": 0.9917154302257882
                },
                {
                    "id": 12412050341,
                    "tags": {
                        "addr:unit": "2",
                        "addr:street": "McKinnon Road",
                        "addr:housenumber": "306"
                    },
                    "distance": 297.63447361,
                    "sims": 0.9917066678476353
                },
                {
                    "id": 12412008652,
                    "tags": {
                        "addr:street": "Malcolm Street",
                        "addr:housenumber": "2B"
                    },
                    "distance": 365.65903557,
                    "sims": 0.9916872377209368
                },
                {
                    "id": 12412004951,
                    "tags": {
                        "addr:street": "Tyrone Street",
                        "addr:housenumber": "1B"
                    },
                    "distance": 598.05138468,
                    "sims": 0.9916425933411899
                },
                {
                    "id": 12419151623,
                    "tags": {
                        "addr:street": "Lewis Street",
                        "addr:housenumber": "30B"
                    },
                    "distance": 219.14867554,
                    "sims": 0.9916238183751157
                },
                {
                    "id": 12412007828,
                    "tags": {
                        "addr:street": "Leinster Street",
                        "addr:housenumber": "4"
                    },
                    "distance": 403.55389796,
                    "sims": 0.9916066512358178
                },
                {
                    "id": 12412008531,
                    "tags": {
                        "addr:street": "Tyrone Street",
                        "addr:housenumber": "21A"
                    },
                    "distance": 386.3189621,
                    "sims": 0.9916060551892635
                }
            ]
        },
        "26": {
            "execution_time": 0.19036126136779785,
            "results": [
                {
                    "id": 12419330168,
                    "tags": {
                        "addr:unit": "2",
                        "addr:street": "Marshall Avenue",
                        "addr:housenumber": "6"
                    },
                    "distance": 353.94729282,
                    "sims": 0.9946839822092735
                },
                {
                    "id": 12419327646,
                    "tags": {
                        "addr:unit": "1",
                        "addr:street": "Beddoe Avenue",
                        "addr:housenumber": "34"
                    },
                    "distance": 115.27853681,
                    "sims": 0.9946615711863569
                },
                {
                    "id": 12419328180,
                    "tags": {
                        "addr:street": "Stockdale Avenue",
                        "addr:housenumber": "13"
                    },
                    "distance": 322.95914982,
                    "sims": 0.9946199075520756
                },
                {
                    "id": 12419330468,
                    "tags": {
                        "addr:unit": "3",
                        "addr:street": "Stockdale Avenue",
                        "addr:housenumber": "34"
                    },
                    "distance": 131.68772423,
                    "sims": 0.9946156160189308
                },
                {
                    "id": 12419328081,
                    "tags": {
                        "addr:flats": "1-2",
                        "addr:street": "Marshall Avenue",
                        "addr:housenumber": "60"
                    },
                    "distance": 140.9318065,
                    "sims": 0.9945856944961708
                },
                {
                    "id": 12313729766,
                    "tags": {
                        "bench": "yes",
                        "leisure": "picnic_table"
                    },
                    "distance": 485.29802567,
                    "sims": 0.9945692133312825
                },
                {
                    "id": 12313993388,
                    "tags": {
                        "bench": "yes",
                        "leisure": "picnic_table"
                    },
                    "distance": 487.65883558,
                    "sims": 0.9945692133312825
                },
                {
                    "id": 12419328777,
                    "tags": {
                        "addr:unit": "3",
                        "addr:street": "Marshall Avenue",
                        "addr:housenumber": "54"
                    },
                    "distance": 89.04452355,
                    "sims": 0.9945600645065557
                },
                {
                    "id": 12412006112,
                    "tags": {
                        "addr:unit": "2",
                        "addr:street": "Dobson Avenue",
                        "addr:housenumber": "5"
                    },
                    "distance": 674.62290438,
                    "sims": 0.9945587532047614
                },
                {
                    "id": 12419328259,
                    "tags": {
                        "addr:street": "Stockdale Avenue",
                        "addr:housenumber": "63"
                    },
                    "distance": 234.60134603,
                    "sims": 0.9945400373518797
                }
            ]
        },
        "27": {
            "execution_time": 0.1829814910888672,
            "results": [
                {
                    "id": 5936035346,
                    "tags": {
                        "name": "Fieste",
                        "amenity": "restaurant"
                    },
                    "distance": 1473.94774375,
                    "sims": 0.9942125085465764
                },
                {
                    "id": 11503434973,
                    "tags": {
                        "amenity": "bench"
                    },
                    "distance": 497.09300424,
                    "sims": 0.9941239363999513
                },
                {
                    "id": 12412092419,
                    "tags": {
                        "addr:street": "Kensington Mews",
                        "addr:housenumber": "1"
                    },
                    "distance": 1383.77180849,
                    "sims": 0.9940178993929843
                },
                {
                    "id": 12412091048,
                    "tags": {
                        "addr:street": "Kensington Mews",
                        "addr:housenumber": "4"
                    },
                    "distance": 1406.98477687,
                    "sims": 0.9939962928894607
                },
                {
                    "id": 9833655806,
                    "tags": {
                        "amenity": "bench"
                    },
                    "distance": 968.94908468,
                    "sims": 0.9938148563669861
                },
                {
                    "id": 9849425906,
                    "tags": {
                        "amenity": "bench"
                    },
                    "distance": 1241.59487117,
                    "sims": 0.9936743982226445
                },
                {
                    "id": 12419385311,
                    "tags": {
                        "addr:street": "Brayford Nook",
                        "addr:housenumber": "6"
                    },
                    "distance": 245.48201635,
                    "sims": 0.9936290986980153
                },
                {
                    "id": 12419386042,
                    "tags": {
                        "addr:street": "Manningtree Parade",
                        "addr:housenumber": "2"
                    },
                    "distance": 842.25878353,
                    "sims": 0.9935548309353254
                },
                {
                    "id": 9798879964,
                    "tags": {
                        "amenity": "bench"
                    },
                    "distance": 1292.66819489,
                    "sims": 0.9935531031692457
                },
                {
                    "id": 12419381488,
                    "tags": {
                        "addr:street": "Brecon Nook",
                        "addr:housenumber": "6"
                    },
                    "distance": 175.50477056,
                    "sims": 0.9935194257784391
                }
            ]
        },
        "28": {
            "execution_time": 0.18697834014892578,
            "results": [
                {
                    "id": 4752598040,
                    "tags": {
                        "name": "Industry Cafe",
                        "amenity": "cafe"
                    },
                    "distance": 1472.04453423,
                    "sims": 0.997340380511403
                },
                {
                    "id": 12420049149,
                    "tags": {
                        "addr:unit": "3",
                        "addr:street": "Clifton Grove",
                        "addr:housenumber": "91"
                    },
                    "distance": 844.40856256,
                    "sims": 0.9973028891809006
                },
                {
                    "id": 12420049803,
                    "tags": {
                        "addr:unit": "2",
                        "addr:street": "Clifton Grove",
                        "addr:housenumber": "75"
                    },
                    "distance": 778.40278745,
                    "sims": 0.9972904318071725
                },
                {
                    "id": 12420049847,
                    "tags": {
                        "addr:street": "Clifton Grove",
                        "addr:housenumber": "85A"
                    },
                    "distance": 775.02221441,
                    "sims": 0.9972717159442508
                },
                {
                    "id": 12420049133,
                    "tags": {
                        "addr:unit": "19",
                        "addr:street": "Clifton Grove",
                        "addr:housenumber": "91"
                    },
                    "distance": 850.92823211,
                    "sims": 0.997240304288965
                },
                {
                    "id": 12420052758,
                    "tags": {
                        "addr:street": "Clifton Grove",
                        "addr:housenumber": "43"
                    },
                    "distance": 708.18612622,
                    "sims": 0.9971765570220275
                },
                {
                    "id": 11800675159,
                    "tags": {
                        "building": "yes",
                        "addr:unit": "21",
                        "addr:street": "Clifton Grove",
                        "addr:housenumber": "75"
                    },
                    "distance": 926.68799293,
                    "sims": 0.9970690602784111
                },
                {
                    "id": 12420051233,
                    "tags": {
                        "addr:unit": "3",
                        "addr:street": "Clifton Grove",
                        "addr:housenumber": "37"
                    },
                    "distance": 748.16991764,
                    "sims": 0.9969250556141842
                },
                {
                    "id": 1909805532,
                    "tags": {
                        "name": "Priceline Pharmacy",
                        "brand": "Priceline Pharmacy",
                        "amenity": "pharmacy",
                        "dispensing": "yes",
                        "healthcare": "pharmacy",
                        "brand:wikidata": "Q7242652"
                    },
                    "distance": 391.19466375,
                    "sims": 0.9969000212908126
                },
                {
                    "id": 12420052602,
                    "tags": {
                        "addr:street": "Clifton Grove",
                        "addr:housenumber": "2"
                    },
                    "distance": 847.33244161,
                    "sims": 0.9968968622438863
                }
            ]
        },
        "29": {
            "execution_time": 0.18561196327209473,
            "results": [
                {
                    "id": 12420335626,
                    "tags": {
                        "addr:street": "Bromley Street",
                        "addr:housenumber": "5"
                    },
                    "distance": 163.43129998,
                    "sims": 0.9965870988654182
                },
                {
                    "id": 12420334950,
                    "tags": {
                        "addr:street": "Bromley Street",
                        "addr:housenumber": "2"
                    },
                    "distance": 180.54232511,
                    "sims": 0.9965646279223741
                },
                {
                    "id": 12414324958,
                    "tags": {
                        "addr:street": "Wembley Street",
                        "addr:housenumber": "1"
                    },
                    "distance": 391.29687309,
                    "sims": 0.9965039203008431
                },
                {
                    "id": 12420334334,
                    "tags": {
                        "addr:street": "Flinders Crescent",
                        "addr:housenumber": "41"
                    },
                    "distance": 432.0757501,
                    "sims": 0.9964041724903306
                },
                {
                    "id": 12414330652,
                    "tags": {
                        "addr:street": "Whitehaven Street",
                        "addr:housenumber": "26"
                    },
                    "distance": 570.71340758,
                    "sims": 0.9963942180890062
                },
                {
                    "id": 12417850579,
                    "tags": {
                        "addr:street": "Greaves Street North",
                        "addr:housenumber": "302"
                    },
                    "distance": 1346.73106781,
                    "sims": 0.9963276999818609
                },
                {
                    "id": 12420334396,
                    "tags": {
                        "addr:street": "Flinders Crescent",
                        "addr:housenumber": "69"
                    },
                    "distance": 526.70925893,
                    "sims": 0.9963195930959874
                },
                {
                    "id": 12420336143,
                    "tags": {
                        "addr:street": "Fruiticosa Street",
                        "addr:housenumber": "29"
                    },
                    "distance": 1126.27273997,
                    "sims": 0.9963002816378338
                },
                {
                    "id": 12417854099,
                    "tags": {
                        "addr:street": "Greaves Street North",
                        "addr:housenumber": "282"
                    },
                    "distance": 1379.09174772,
                    "sims": 0.9962283982414412
                },
                {
                    "id": 12420292994,
                    "tags": {
                        "addr:street": "Gerald Street",
                        "addr:housenumber": "13"
                    },
                    "distance": 1308.64518974,
                    "sims": 0.9962125134964246
                }
            ]
        },
        "30": {
            "execution_time": 0.18635034561157227,
            "results": [
                {
                    "id": 12417952412,
                    "tags": {
                        "addr:street": "Streambank Drive",
                        "addr:housenumber": "42"
                    },
                    "distance": 797.16815026,
                    "sims": 0.9931372412279628
                },
                {
                    "id": 12417950842,
                    "tags": {
                        "addr:street": "Streambank Drive",
                        "addr:housenumber": "8"
                    },
                    "distance": 1011.14492944,
                    "sims": 0.9930270918575487
                },
                {
                    "id": 12417950896,
                    "tags": {
                        "addr:street": "Streambank Drive",
                        "addr:housenumber": "40"
                    },
                    "distance": 777.60711724,
                    "sims": 0.9929790505195867
                },
                {
                    "id": 12410652721,
                    "tags": {
                        "addr:street": "Conservatory Drive",
                        "addr:housenumber": "60"
                    },
                    "distance": 1807.13767317,
                    "sims": 0.9928497380450713
                },
                {
                    "id": 12410651745,
                    "tags": {
                        "addr:street": "Coconut Circuit",
                        "addr:housenumber": "27"
                    },
                    "distance": 2499.77919997,
                    "sims": 0.9927618512199173
                },
                {
                    "id": 12410649165,
                    "tags": {
                        "addr:street": "Kangaroo Crescent",
                        "addr:housenumber": "38"
                    },
                    "distance": 372.81741964,
                    "sims": 0.9926469339167612
                },
                {
                    "id": 12417950398,
                    "tags": {
                        "addr:street": "Coconut Circuit",
                        "addr:housenumber": "20"
                    },
                    "distance": 2521.58270743,
                    "sims": 0.9926095613706706
                },
                {
                    "id": 12410660210,
                    "tags": {
                        "addr:street": "Artistry Way",
                        "addr:housenumber": "12"
                    },
                    "distance": 977.97541937,
                    "sims": 0.9925715932164748
                },
                {
                    "id": 12410649950,
                    "tags": {
                        "addr:street": "Wallaby Road",
                        "addr:housenumber": "17"
                    },
                    "distance": 160.17007376,
                    "sims": 0.9925644702406812
                },
                {
                    "id": 12417950373,
                    "tags": {
                        "addr:street": "Damson Circuit",
                        "addr:housenumber": "7"
                    },
                    "distance": 2634.62374297,
                    "sims": 0.9924968490008367
                }
            ]
        },
        "31": {
            "execution_time": 0.18997979164123535,
            "results": [
                {
                    "id": 2296921249,
                    "tags": {
                        "check_date": "2025-01-13",
                        "addr:street": "Glen Huntly Road",
                        "disused:shop": "yes"
                    },
                    "distance": 359.8371238,
                    "sims": 0.9924387371832828
                },
                {
                    "id": 2276892484,
                    "tags": {
                        "ref": "65",
                        "name": "Stop 65: Mimosa Road",
                        "tram": "yes",
                        "network": "PTV - Metropolitan Trams",
                        "railway": "tram_stop",
                        "operator": "Keolis Downer",
                        "network:wikidata": "Q7257648",
                        "public_transport": "stop_position",
                        "operator:wikidata": "Q6328065"
                    },
                    "distance": 479.52192667,
                    "sims": 0.9922207030330019
                },
                {
                    "id": 2276698151,
                    "tags": {
                        "ref": "66",
                        "name": "Stop 66: Truganini Road",
                        "tram": "yes",
                        "network": "PTV - Metropolitan Trams",
                        "railway": "tram_stop",
                        "operator": "Keolis Downer",
                        "network:wikidata": "Q7257648",
                        "public_transport": "stop_position",
                        "operator:wikidata": "Q6328065"
                    },
                    "distance": 680.20013092,
                    "sims": 0.9922121199677354
                },
                {
                    "id": 4992287822,
                    "tags": {
                        "name": "Posh Opp Shop",
                        "shop": "clothes",
                        "addr:street": "Glen Huntly Road",
                        "addr:postcode": "3163",
                        "opening_hours": "Tu,We,Fr,Sa 10:00-16:30; Th,Su,Mo off",
                        "addr:housenumber": "1226"
                    },
                    "distance": 198.01056978,
                    "sims": 0.992032710061817
                },
                {
                    "id": 4041771037,
                    "tags": {
                        "ref": "64",
                        "name": "Stop 64: Mernda Avenue",
                        "tram": "yes",
                        "network": "PTV - Metropolitan Trams",
                        "operator": "Yarra Trams",
                        "route_ref": "67",
                        "wheelchair": "no",
                        "public_transport": "platform"
                    },
                    "distance": 284.6235312,
                    "sims": 0.9920074372266096
                },
                {
                    "id": 2276888417,
                    "tags": {
                        "ref": "67",
                        "name": "Stop 67: Centre Road",
                        "tram": "yes",
                        "network": "PTV - Metropolitan Trams",
                        "railway": "tram_stop",
                        "operator": "Keolis Downer",
                        "network:wikidata": "Q7257648",
                        "public_transport": "stop_position",
                        "operator:wikidata": "Q6328065"
                    },
                    "distance": 799.23621694,
                    "sims": 0.9919706020478746
                },
                {
                    "id": 5274784282,
                    "tags": {
                        "amenity": "bench",
                        "backrest": "yes"
                    },
                    "distance": 1028.99928643,
                    "sims": 0.9917354618223438
                },
                {
                    "id": 12419107294,
                    "tags": {
                        "addr:flats": "101-106;201-206;301-304",
                        "addr:street": "Grange Road",
                        "addr:housenumber": "103"
                    },
                    "distance": 142.41713122,
                    "sims": 0.9916622678460432
                },
                {
                    "id": 6018983761,
                    "tags": {
                        "name": "Meeq",
                        "shop": "gift"
                    },
                    "distance": 1485.42644177,
                    "sims": 0.991658394043159
                },
                {
                    "id": 11699173228,
                    "tags": {
                        "amenity": "bicycle_parking",
                        "capacity": "6",
                        "bicycle_parking": "hoop"
                    },
                    "distance": 782.27982505,
                    "sims": 0.9916509720248189
                }
            ]
        },
        "32": {
            "execution_time": 0.18714499473571777,
            "results": [
                {
                    "id": 12418366107,
                    "tags": {
                        "addr:street": "Waxman Parade",
                        "addr:housenumber": "43"
                    },
                    "distance": 195.18515487,
                    "sims": 0.9953737849442773
                },
                {
                    "id": 12418367813,
                    "tags": {
                        "addr:street": "Waxman Parade",
                        "addr:housenumber": "16A"
                    },
                    "distance": 77.82721704,
                    "sims": 0.9951896068566962
                },
                {
                    "id": 2640309311,
                    "tags": {
                        "tourism": "picnic_site"
                    },
                    "distance": 1249.1858005,
                    "sims": 0.9951567048021274
                },
                {
                    "id": 12411531589,
                    "tags": {
                        "addr:street": "Bakers Parade",
                        "addr:housenumber": "34"
                    },
                    "distance": 836.19414092,
                    "sims": 0.9950764173360439
                },
                {
                    "id": 12418367791,
                    "tags": {
                        "addr:street": "Bakers Parade",
                        "addr:housenumber": "35"
                    },
                    "distance": 783.24185516,
                    "sims": 0.9949786657069594
                },
                {
                    "id": 12411532254,
                    "tags": {
                        "addr:street": "Bakers Parade",
                        "addr:housenumber": "19"
                    },
                    "distance": 876.4611254,
                    "sims": 0.9949445718460835
                },
                {
                    "id": 12418365963,
                    "tags": {
                        "addr:street": "Olive York Way",
                        "addr:housenumber": "7-11"
                    },
                    "distance": 353.71142546,
                    "sims": 0.9948998683571729
                },
                {
                    "id": 12411961480,
                    "tags": {
                        "addr:street": "Hilda Street",
                        "addr:housenumber": "11"
                    },
                    "distance": 481.05562721,
                    "sims": 0.9948836558918613
                },
                {
                    "id": 12419120740,
                    "tags": {
                        "addr:street": "Fanny Street",
                        "addr:housenumber": "13"
                    },
                    "distance": 417.16098505,
                    "sims": 0.9948382667956194
                },
                {
                    "id": 12411961890,
                    "tags": {
                        "addr:street": "Hilda Street",
                        "addr:housenumber": "5"
                    },
                    "distance": 509.76852713,
                    "sims": 0.994832515716581
                }
            ]
        },
        "33": {
            "execution_time": 0.18906354904174805,
            "results": [
                {
                    "id": 12419093347,
                    "tags": {
                        "addr:street": "Stephensons Place",
                        "addr:housenumber": "6"
                    },
                    "distance": 426.54209224,
                    "sims": 0.9954820857888999
                },
                {
                    "id": 12411620865,
                    "tags": {
                        "addr:street": "Pearce Street",
                        "addr:housenumber": "5"
                    },
                    "distance": 239.72451693,
                    "sims": 0.9953547103481608
                },
                {
                    "id": 12411620779,
                    "tags": {
                        "addr:street": "Pearce Street",
                        "addr:housenumber": "19"
                    },
                    "distance": 334.6803236,
                    "sims": 0.9951698471960642
                },
                {
                    "id": 12418980165,
                    "tags": {
                        "addr:street": "Medhurst Street",
                        "addr:housenumber": "2"
                    },
                    "distance": 761.11686488,
                    "sims": 0.9951499686092328
                },
                {
                    "id": 12418905799,
                    "tags": {
                        "addr:street": "Pheasant Street",
                        "addr:housenumber": "13"
                    },
                    "distance": 640.61479305,
                    "sims": 0.9951343821349931
                },
                {
                    "id": 12419095409,
                    "tags": {
                        "addr:street": "Stephensons Road",
                        "addr:housenumber": "113"
                    },
                    "distance": 856.70900604,
                    "sims": 0.9951306866460258
                },
                {
                    "id": 12411621063,
                    "tags": {
                        "addr:street": "Pheasant Street",
                        "addr:housenumber": "2B"
                    },
                    "distance": 705.23092263,
                    "sims": 0.9950933741283884
                },
                {
                    "id": 12418904980,
                    "tags": {
                        "addr:street": "Pheasant Street",
                        "addr:housenumber": "19"
                    },
                    "distance": 632.41287731,
                    "sims": 0.9950656579611338
                },
                {
                    "id": 12418905732,
                    "tags": {
                        "addr:street": "Newbigin Street",
                        "addr:housenumber": "17"
                    },
                    "distance": 306.49939511,
                    "sims": 0.9950577005916225
                },
                {
                    "id": 12418904983,
                    "tags": {
                        "addr:street": "Rees Street",
                        "addr:housenumber": "2"
                    },
                    "distance": 83.05206427,
                    "sims": 0.9950524257264445
                }
            ]
        },
        "34": {
            "execution_time": 0.18382978439331055,
            "results": [
                {
                    "id": 11411379427,
                    "tags": {
                        "amenity": "telephone",
                        "covered": "booth",
                        "operator": "Telstra (free Australia calls & SMS)",
                        "payment:telephone_cards": "yes"
                    },
                    "distance": 388.11780987,
                    "sims": 0.9954029008577377
                },
                {
                    "id": 12186391206,
                    "tags": {
                        "name": "Massage Therapy",
                        "shop": "massage",
                        "phone": "+61 412 208 418",
                        "addr:street": "Snell Grove",
                        "addr:postcode": "3046",
                        "opening_hours": "Mo-Su 10:00-20:00",
                        "addr:housenumber": "105A"
                    },
                    "distance": 712.0183436,
                    "sims": 0.9951906486481109
                },
                {
                    "id": 12186377602,
                    "tags": {
                        "name": "Shaboom for Hair",
                        "shop": "hairdresser",
                        "phone": "+61 3 9306 0810",
                        "addr:street": "Snell Grove",
                        "addr:postcode": "3046",
                        "opening_hours": "Mo-Fr 09:00-17:00; Sa 08:00-13:00",
                        "addr:housenumber": "93"
                    },
                    "distance": 672.97598526,
                    "sims": 0.9950871153461952
                },
                {
                    "id": 281341565,
                    "tags": {
                        "amenity": "post_box"
                    },
                    "distance": 613.95567,
                    "sims": 0.9941499515578767
                },
                {
                    "id": 4448949559,
                    "tags": {
                        "name": "Bankwest",
                        "brand": "Bankwest",
                        "amenity": "atm",
                        "operator": "Bankwest",
                        "currency:AUD": "yes",
                        "drive_through": "no",
                        "brand:wikidata": "Q4856817",
                        "brand:wikipedia": "en:Bankwest",
                        "operator:wikidata": "Q4856817",
                        "operator:wikipedia": "en:Bankwest"
                    },
                    "distance": 1379.12799719,
                    "sims": 0.9938724318921132
                },
                {
                    "id": 12411722240,
                    "tags": {
                        "addr:unit": "1",
                        "addr:street": "Essex Street",
                        "addr:housenumber": "157"
                    },
                    "distance": 1078.32010972,
                    "sims": 0.9935555734966129
                },
                {
                    "id": 12419028705,
                    "tags": {
                        "addr:street": "Essex Street",
                        "addr:housenumber": "126"
                    },
                    "distance": 1117.78972584,
                    "sims": 0.9933202538837343
                },
                {
                    "id": 12411720406,
                    "tags": {
                        "addr:street": "Essex Street",
                        "addr:housenumber": "133"
                    },
                    "distance": 1159.9363044,
                    "sims": 0.9931933559515687
                },
                {
                    "id": 12419028745,
                    "tags": {
                        "addr:unit": "2",
                        "addr:street": "Northumberland Road",
                        "addr:housenumber": "49"
                    },
                    "distance": 948.03495152,
                    "sims": 0.9930745934515178
                },
                {
                    "id": 12419029511,
                    "tags": {
                        "addr:unit": "1",
                        "addr:street": "Northumberland Road",
                        "addr:housenumber": "37"
                    },
                    "distance": 1035.88877754,
                    "sims": 0.993050721575635
                }
            ]
        },
        "35": {
            "execution_time": 0.19150924682617188,
            "results": [
                {
                    "id": 5099310512,
                    "tags": {
                        "amenity": "waste_basket",
                        "check_date": "2024-12-11"
                    },
                    "distance": 525.74344549,
                    "sims": 0.9944043758866581
                },
                {
                    "id": 5099310513,
                    "tags": {
                        "amenity": "waste_basket"
                    },
                    "distance": 531.38207107,
                    "sims": 0.9942707422810368
                },
                {
                    "id": 10146561815,
                    "tags": {
                        "leisure": "picnic_table"
                    },
                    "distance": 907.66692746,
                    "sims": 0.9941534399986338
                },
                {
                    "id": 4466017027,
                    "tags": {
                        "covered": "no",
                        "leisure": "picnic_table"
                    },
                    "distance": 673.05765763,
                    "sims": 0.9941480159759593
                },
                {
                    "id": 10146561835,
                    "tags": {
                        "leisure": "picnic_table"
                    },
                    "distance": 922.64052586,
                    "sims": 0.9941355589547438
                },
                {
                    "id": 10146561825,
                    "tags": {
                        "leisure": "picnic_table"
                    },
                    "distance": 928.97706608,
                    "sims": 0.9940894852716669
                },
                {
                    "id": 4505314410,
                    "tags": {
                        "amenity": "waste_basket"
                    },
                    "distance": 1062.0092628,
                    "sims": 0.9939325455467394
                },
                {
                    "id": 10211772132,
                    "tags": {
                        "bench": "yes",
                        "leisure": "picnic_table"
                    },
                    "distance": 710.95542054,
                    "sims": 0.9937019947944901
                },
                {
                    "id": 2246000274,
                    "tags": {
                        "ref": "47",
                        "name": "Stop 47: Balwyn Road",
                        "tram": "yes",
                        "network": "PTV - Metropolitan Trams",
                        "railway": "tram_stop",
                        "operator": "Keolis Downer",
                        "network:wikidata": "Q7257648",
                        "public_transport": "stop_position",
                        "operator:wikidata": "Q6328065"
                    },
                    "distance": 871.56097679,
                    "sims": 0.9936657251815322
                },
                {
                    "id": 11980174379,
                    "tags": {
                        "bus": "yes",
                        "name": "Dee Street/Belmore Road",
                        "bench": "no",
                        "highway": "bus_stop",
                        "network": "PTV - Metropolitan Buses",
                        "shelter": "no",
                        "operator": "Kinetic",
                        "departures_board": "timetable",
                        "public_transport": "platform"
                    },
                    "distance": 320.36470395,
                    "sims": 0.9936646822890847
                }
            ]
        },
        "36": {
            "execution_time": 0.19475960731506348,
            "results": [
                {
                    "id": 12412329907,
                    "tags": {
                        "addr:street": "Inverness Mews",
                        "addr:housenumber": "23"
                    },
                    "distance": 785.30660167,
                    "sims": 0.9945973753929138
                },
                {
                    "id": 12412328622,
                    "tags": {
                        "addr:street": "Inverness Mews",
                        "addr:housenumber": "25"
                    },
                    "distance": 772.12630047,
                    "sims": 0.9944666627367358
                },
                {
                    "id": 12412328499,
                    "tags": {
                        "addr:street": "Abbey Alley",
                        "addr:housenumber": "2"
                    },
                    "distance": 214.25973703,
                    "sims": 0.9944217208372539
                },
                {
                    "id": 12412330032,
                    "tags": {
                        "addr:street": "Ayr Close",
                        "addr:housenumber": "9"
                    },
                    "distance": 872.69603138,
                    "sims": 0.9944000244140625
                },
                {
                    "id": 12412330384,
                    "tags": {
                        "addr:street": "Rothesay Place",
                        "addr:housenumber": "15"
                    },
                    "distance": 682.8847769,
                    "sims": 0.9942964315414429
                },
                {
                    "id": 12419603489,
                    "tags": {
                        "addr:street": "Arncliffe Boulevard",
                        "addr:housenumber": "9"
                    },
                    "distance": 709.89308093,
                    "sims": 0.9942631721496582
                },
                {
                    "id": 12412328605,
                    "tags": {
                        "addr:street": "Galashiels Terrace",
                        "addr:housenumber": "15"
                    },
                    "distance": 331.8571388,
                    "sims": 0.994260847568512
                },
                {
                    "id": 12412330497,
                    "tags": {
                        "addr:street": "Airdrie Mews",
                        "addr:housenumber": "5"
                    },
                    "distance": 575.69187811,
                    "sims": 0.9942557219114487
                },
                {
                    "id": 12419603647,
                    "tags": {
                        "addr:street": "Queensferry Place",
                        "addr:housenumber": "3"
                    },
                    "distance": 902.95632431,
                    "sims": 0.99424529041322
                },
                {
                    "id": 12412328885,
                    "tags": {
                        "addr:street": "Lochiel Court",
                        "addr:housenumber": "6"
                    },
                    "distance": 1632.3193734,
                    "sims": 0.9942268429466146
                }
            ]
        },
        "37": {
            "execution_time": 0.1891496181488037,
            "results": [
                {
                    "id": 12419875801,
                    "tags": {
                        "addr:street": "Cumbernauld Crescent",
                        "addr:housenumber": "27"
                    },
                    "distance": 1395.37123345,
                    "sims": 0.9921016402153805
                },
                {
                    "id": 12413526621,
                    "tags": {
                        "addr:street": "Pineneedle Court",
                        "addr:housenumber": "22"
                    },
                    "distance": 1219.76743908,
                    "sims": 0.9920493969858482
                },
                {
                    "id": 3529926398,
                    "tags": {
                        "amenity": "shelter"
                    },
                    "distance": 993.01434271,
                    "sims": 0.99202615165243
                },
                {
                    "id": 12419875807,
                    "tags": {
                        "addr:street": "Cumbernauld Crescent",
                        "addr:housenumber": "5"
                    },
                    "distance": 1325.16173423,
                    "sims": 0.9919945015917138
                },
                {
                    "id": 12413526150,
                    "tags": {
                        "addr:street": "Tarlee Drive",
                        "addr:housenumber": "19"
                    },
                    "distance": 1065.7561947,
                    "sims": 0.9919602880525316
                },
                {
                    "id": 12412518991,
                    "tags": {
                        "addr:street": "Wrexham Court",
                        "addr:housenumber": "8"
                    },
                    "distance": 1323.98973073,
                    "sims": 0.9919450883898245
                },
                {
                    "id": 12412519549,
                    "tags": {
                        "addr:street": "Droitwich Crescent",
                        "addr:housenumber": "8"
                    },
                    "distance": 1281.32670003,
                    "sims": 0.9919400820803614
                },
                {
                    "id": 12413529182,
                    "tags": {
                        "addr:street": "Pinnaroo Crescent",
                        "addr:housenumber": "16"
                    },
                    "distance": 387.29540179,
                    "sims": 0.9919253592535798
                },
                {
                    "id": 12413527586,
                    "tags": {
                        "addr:street": "McCann Drive",
                        "addr:housenumber": "93"
                    },
                    "distance": 1094.36272978,
                    "sims": 0.9919151082190696
                },
                {
                    "id": 12413529087,
                    "tags": {
                        "addr:street": "Carmine Circuit",
                        "addr:housenumber": "26"
                    },
                    "distance": 182.40489998,
                    "sims": 0.9919098625290628
                }
            ]
        },
        "38": {
            "execution_time": 0.19375967979431152,
            "results": [
                {
                    "id": 7089882837,
                    "tags": {
                        "amenity": "bench",
                        "backrest": "yes"
                    },
                    "distance": 227.95239124,
                    "sims": 0.9976131022687862
                },
                {
                    "id": 4643411556,
                    "tags": {
                        "name": "Alour Cafe",
                        "amenity": "cafe"
                    },
                    "distance": 467.53011115,
                    "sims": 0.9968191088193961
                },
                {
                    "id": 8065578533,
                    "tags": {
                        "bin": "no",
                        "bus": "yes",
                        "lit": "no",
                        "ref": "ID.10138",
                        "name": "Compton Street/Edwardes Street",
                        "bench": "no",
                        "highway": "bus_stop",
                        "network": "PTV - Metropolitan Buses",
                        "shelter": "no",
                        "route_ref": "553;561",
                        "tactile_paving": "yes",
                        "network:wikidata": "Q7257648",
                        "public_transport": "platform",
                        "network:wikipedia": "en:Public Transport Victoria"
                    },
                    "distance": 359.38214919,
                    "sims": 0.9963574409484934
                },
                {
                    "id": 8329555913,
                    "tags": {
                        "bus": "yes",
                        "ref": "ID.10137",
                        "name": "Viola Street/Spring Street",
                        "bench": "no",
                        "highway": "bus_stop",
                        "network": "PTV - Metropolitan Buses",
                        "shelter": "no",
                        "route_ref": "553",
                        "tactile_paving": "yes",
                        "network:wikidata": "Q7257648",
                        "public_transport": "platform",
                        "network:wikipedia": "en:Public Transport Victoria"
                    },
                    "distance": 436.41007386,
                    "sims": 0.9961646799844885
                },
                {
                    "id": 12421137412,
                    "tags": {
                        "addr:street": "Bernard Street",
                        "addr:housenumber": "5"
                    },
                    "distance": 542.28055781,
                    "sims": 0.9960312247276377
                },
                {
                    "id": 8147735913,
                    "tags": {
                        "bus": "yes",
                        "ref": "ID.579",
                        "name": "O'Dowd Street/Broadway",
                        "bench": "no",
                        "highway": "bus_stop",
                        "shelter": "no",
                        "route_ref": "552;556;561",
                        "not_served_by": "301",
                        "tactile_paving": "yes",
                        "public_transport": "platform"
                    },
                    "distance": 1014.4695276,
                    "sims": 0.9960085754384308
                },
                {
                    "id": 12421134882,
                    "tags": {
                        "addr:flats": "1;3",
                        "addr:street": "Daventry Street",
                        "addr:housenumber": "13"
                    },
                    "distance": 421.73981003,
                    "sims": 0.9959377052821115
                },
                {
                    "id": 12417623716,
                    "tags": {
                        "addr:unit": "4",
                        "addr:street": "Bernard Street",
                        "addr:housenumber": "2"
                    },
                    "distance": 603.13286843,
                    "sims": 0.9958892464637827
                },
                {
                    "id": 12417627601,
                    "tags": {
                        "addr:unit": "2",
                        "addr:street": "Barton Street",
                        "addr:housenumber": "34"
                    },
                    "distance": 435.14461521,
                    "sims": 0.9958766105248582
                },
                {
                    "id": 12417623800,
                    "tags": {
                        "addr:street": "Ralph Street",
                        "addr:housenumber": "11-33"
                    },
                    "distance": 94.22861037,
                    "sims": 0.995843291778172
                }
            ]
        },
        "39": {
            "execution_time": 0.19280529022216797,
            "results": [
                {
                    "id": 11389574407,
                    "tags": {
                        "leisure": "picnic_table"
                    },
                    "distance": 149.47091057,
                    "sims": 0.9923439016752761
                },
                {
                    "id": 11753222840,
                    "tags": {
                        "leisure": "picnic_table"
                    },
                    "distance": 1161.66851229,
                    "sims": 0.9915885905238888
                },
                {
                    "id": 6092537805,
                    "tags": {
                        "addr:state": "VIC",
                        "addr:street": "Killarney Ridge",
                        "addr:suburb": "Greensborough",
                        "addr:country": "AU",
                        "addr:postcode": "3088",
                        "addr:housenumber": "5"
                    },
                    "distance": 660.74839153,
                    "sims": 0.9915602783108703
                },
                {
                    "id": 12410847547,
                    "tags": {
                        "addr:street": "Hillhouse Crescent",
                        "addr:housenumber": "12"
                    },
                    "distance": 499.33608934,
                    "sims": 0.9915288065459906
                },
                {
                    "id": 12418291270,
                    "tags": {
                        "addr:street": "Booyan Crescent",
                        "addr:housenumber": "54"
                    },
                    "distance": 404.3728933,
                    "sims": 0.9914916137437181
                },
                {
                    "id": 12418290834,
                    "tags": {
                        "addr:street": "Hamish Court",
                        "addr:housenumber": "11"
                    },
                    "distance": 1099.44706577,
                    "sims": 0.9914424393899717
                },
                {
                    "id": 12418293894,
                    "tags": {
                        "addr:street": "Banfield Terrace",
                        "addr:housenumber": "19"
                    },
                    "distance": 419.7973058,
                    "sims": 0.9914377316423615
                },
                {
                    "id": 12418292522,
                    "tags": {
                        "addr:street": "Haliday Court",
                        "addr:housenumber": "9"
                    },
                    "distance": 804.06750531,
                    "sims": 0.9914339765490692
                },
                {
                    "id": 12418293896,
                    "tags": {
                        "addr:street": "Banfield Terrace",
                        "addr:housenumber": "23"
                    },
                    "distance": 413.22285518,
                    "sims": 0.9914216373627456
                },
                {
                    "id": 12418291290,
                    "tags": {
                        "addr:street": "Booyan Crescent",
                        "addr:housenumber": "68A"
                    },
                    "distance": 541.08813468,
                    "sims": 0.9914132921981735
                }
            ]
        },
        "40": {
            "execution_time": 0.19351482391357422,
            "results": [
                {
                    "id": 12412256502,
                    "tags": {
                        "addr:street": "Lynda Close",
                        "addr:housenumber": "7"
                    },
                    "distance": 368.86029989,
                    "sims": 0.9912369862967316
                },
                {
                    "id": 12419591227,
                    "tags": {
                        "addr:street": "Central Park Walk",
                        "addr:housenumber": "26"
                    },
                    "distance": 344.46937889,
                    "sims": 0.9905549900731621
                },
                {
                    "id": 12419591447,
                    "tags": {
                        "addr:street": "Central Park Walk",
                        "addr:housenumber": "25"
                    },
                    "distance": 342.38912209,
                    "sims": 0.990550400516335
                },
                {
                    "id": 12419590941,
                    "tags": {
                        "addr:street": "Lauriston Court",
                        "addr:housenumber": "6"
                    },
                    "distance": 534.14168311,
                    "sims": 0.9905086171021007
                },
                {
                    "id": 12412254523,
                    "tags": {
                        "addr:street": "Woodland Drive",
                        "addr:housenumber": "6"
                    },
                    "distance": 360.12205288,
                    "sims": 0.990507126986159
                },
                {
                    "id": 12419586967,
                    "tags": {
                        "addr:street": "Central Park Walk",
                        "addr:housenumber": "9"
                    },
                    "distance": 301.34779021,
                    "sims": 0.9904352443632205
                },
                {
                    "id": 12419588792,
                    "tags": {
                        "addr:street": "Lauriston Court",
                        "addr:housenumber": "11"
                    },
                    "distance": 536.18108576,
                    "sims": 0.9903971570020196
                },
                {
                    "id": 12419588747,
                    "tags": {
                        "addr:street": "Hartwell Place",
                        "addr:housenumber": "18"
                    },
                    "distance": 347.9229594,
                    "sims": 0.990378560356175
                },
                {
                    "id": 12419592333,
                    "tags": {
                        "addr:street": "Central Park Walk",
                        "addr:housenumber": "37"
                    },
                    "distance": 367.40056213,
                    "sims": 0.9903779336472569
                },
                {
                    "id": 12419591248,
                    "tags": {
                        "addr:street": "Central Park Walk",
                        "addr:housenumber": "76"
                    },
                    "distance": 465.24684588,
                    "sims": 0.9902798556614336
                }
            ]
        },
        "41": {
            "execution_time": 0.19397187232971191,
            "results": [
                {
                    "id": 12419132566,
                    "tags": {
                        "addr:street": "Ellamatta Rise",
                        "addr:housenumber": "15"
                    },
                    "distance": 1231.61229631,
                    "sims": 0.99644535779953
                },
                {
                    "id": 12418985885,
                    "tags": {
                        "addr:street": "Craithie Avenue",
                        "addr:housenumber": "5-7"
                    },
                    "distance": 183.84397311,
                    "sims": 0.9963461754528407
                },
                {
                    "id": 12419132242,
                    "tags": {
                        "addr:street": "Brook Place",
                        "addr:housenumber": "10"
                    },
                    "distance": 899.78181896,
                    "sims": 0.9963159858082533
                },
                {
                    "id": 12419130791,
                    "tags": {
                        "addr:street": "Chifley Parade",
                        "addr:housenumber": "5"
                    },
                    "distance": 1428.11091445,
                    "sims": 0.9962641297657533
                },
                {
                    "id": 12418985704,
                    "tags": {
                        "addr:street": "Feversham Avenue",
                        "addr:housenumber": "10-12"
                    },
                    "distance": 553.12580924,
                    "sims": 0.996198355924987
                },
                {
                    "id": 12418985953,
                    "tags": {
                        "addr:street": "Ennismore Crescent",
                        "addr:housenumber": "35-37"
                    },
                    "distance": 1070.55097349,
                    "sims": 0.9961338045517341
                },
                {
                    "id": 12411535996,
                    "tags": {
                        "addr:street": "Dirlton Crescent",
                        "addr:housenumber": "9-10"
                    },
                    "distance": 919.40075886,
                    "sims": 0.9961280822753906
                },
                {
                    "id": 12418986168,
                    "tags": {
                        "addr:street": "Vincent Road",
                        "addr:housenumber": "4"
                    },
                    "distance": 583.97570501,
                    "sims": 0.9960904121398926
                },
                {
                    "id": 12418890862,
                    "tags": {
                        "addr:street": "Wilkinson Way",
                        "addr:housenumber": "15"
                    },
                    "distance": 589.73542382,
                    "sims": 0.9960885047912598
                },
                {
                    "id": 12419146334,
                    "tags": {
                        "addr:street": "Ringwood Warrandyte Road",
                        "addr:housenumber": "569"
                    },
                    "distance": 1068.50199632,
                    "sims": 0.9960646629333496
                }
            ]
        },
        "42": {
            "execution_time": 0.1876201629638672,
            "results": [
                {
                    "id": 12420344413,
                    "tags": {
                        "addr:street": "Creek Circuit",
                        "addr:housenumber": "81"
                    },
                    "distance": 329.14487526,
                    "sims": 0.9947677276508426
                },
                {
                    "id": 12420348557,
                    "tags": {
                        "addr:street": "Creek Circuit",
                        "addr:housenumber": "39"
                    },
                    "distance": 442.14525383,
                    "sims": 0.9947505911661878
                },
                {
                    "id": 12420350561,
                    "tags": {
                        "addr:street": "Riviera Drive",
                        "addr:housenumber": "8"
                    },
                    "distance": 1294.71713204,
                    "sims": 0.9946445838677574
                },
                {
                    "id": 12417862754,
                    "tags": {
                        "addr:street": "Wedgewood Drive",
                        "addr:housenumber": "16"
                    },
                    "distance": 1484.76594301,
                    "sims": 0.9946425576297373
                },
                {
                    "id": 12417865083,
                    "tags": {
                        "addr:street": "Natanya Drive",
                        "addr:housenumber": "17"
                    },
                    "distance": 1489.2351213,
                    "sims": 0.9945863507924674
                },
                {
                    "id": 12417861669,
                    "tags": {
                        "addr:street": "Hartland Circuit",
                        "addr:housenumber": "18"
                    },
                    "distance": 1708.6658353,
                    "sims": 0.9945756822120906
                },
                {
                    "id": 12417869034,
                    "tags": {
                        "addr:street": "Timberline Parkway",
                        "addr:housenumber": "5"
                    },
                    "distance": 1620.40043695,
                    "sims": 0.994543077513184
                },
                {
                    "id": 12417870064,
                    "tags": {
                        "addr:street": "Wedgewood Drive",
                        "addr:housenumber": "3"
                    },
                    "distance": 1442.02938439,
                    "sims": 0.9945238854771843
                },
                {
                    "id": 12417864905,
                    "tags": {
                        "addr:street": "Riviera Drive",
                        "addr:housenumber": "31"
                    },
                    "distance": 1382.12393493,
                    "sims": 0.994517149828756
                },
                {
                    "id": 12417872992,
                    "tags": {
                        "addr:street": "Bluegrass Crescent",
                        "addr:housenumber": "10"
                    },
                    "distance": 2119.81479324,
                    "sims": 0.9945161365502176
                }
            ]
        },
        "43": {
            "execution_time": 0.19501256942749023,
            "results": [
                {
                    "id": 12419606991,
                    "tags": {
                        "addr:street": "Turramurra Drive",
                        "addr:housenumber": "128"
                    },
                    "distance": 731.90210889,
                    "sims": 0.9943965084080161
                },
                {
                    "id": 12419606885,
                    "tags": {
                        "addr:street": "Cremin Court",
                        "addr:housenumber": "18"
                    },
                    "distance": 1945.02220635,
                    "sims": 0.9943377382352735
                },
                {
                    "id": 12419606692,
                    "tags": {
                        "addr:unit": "2",
                        "addr:street": "Reeve Place",
                        "addr:housenumber": "2"
                    },
                    "distance": 1301.33635076,
                    "sims": 0.9943281115791981
                },
                {
                    "id": 12419606789,
                    "tags": {
                        "addr:street": "Wedge Crescent",
                        "addr:housenumber": "39"
                    },
                    "distance": 1464.39120225,
                    "sims": 0.9941177971222713
                },
                {
                    "id": 12419606821,
                    "tags": {
                        "addr:street": "Erskine Drive",
                        "addr:housenumber": "3R"
                    },
                    "distance": 1461.90955787,
                    "sims": 0.9940411452030612
                },
                {
                    "id": 12419606979,
                    "tags": {
                        "addr:street": "Taupo Crescent",
                        "addr:housenumber": "57A-57B"
                    },
                    "distance": 1398.32075625,
                    "sims": 0.9939261674881263
                },
                {
                    "id": 12419606168,
                    "tags": {
                        "addr:street": "Raglan Way",
                        "addr:housenumber": "6"
                    },
                    "distance": 1429.12436529,
                    "sims": 0.993761540202918
                },
                {
                    "id": 12419606551,
                    "tags": {
                        "addr:unit": "6",
                        "addr:street": "Salerno Way",
                        "addr:housenumber": "47"
                    },
                    "distance": 1484.50319413,
                    "sims": 0.9937443748129905
                },
                {
                    "id": 12419606623,
                    "tags": {
                        "addr:street": "Heany Park Road",
                        "addr:housenumber": "51"
                    },
                    "distance": 2312.80881865,
                    "sims": 0.9937242573150277
                },
                {
                    "id": 12419606812,
                    "tags": {
                        "addr:street": "Enterprise Drive",
                        "addr:housenumber": "23R"
                    },
                    "distance": 995.22643044,
                    "sims": 0.9937049750265653
                }
            ]
        },
        "44": {
            "execution_time": 0.19400382041931152,
            "results": [
                {
                    "id": 11436852057,
                    "tags": {
                        "bus": "yes",
                        "ref": "50230",
                        "name": "Whiton Grove/Ballan Road",
                        "highway": "bus_stop",
                        "public_transport": "platform"
                    },
                    "distance": 1337.27037609,
                    "sims": 0.9944513436824902
                },
                {
                    "id": 11443658837,
                    "tags": {
                        "bus": "yes",
                        "ref": "6877",
                        "name": "Edinburgh Court/Westminster Drive",
                        "highway": "bus_stop",
                        "public_transport": "platform"
                    },
                    "distance": 476.79163361,
                    "sims": 0.9944512244731936
                },
                {
                    "id": 11436852038,
                    "tags": {
                        "bus": "yes",
                        "ref": "21607",
                        "name": "Lakeview Grove/Evergreen Drive",
                        "highway": "bus_stop",
                        "public_transport": "platform"
                    },
                    "distance": 2370.69268692,
                    "sims": 0.9943191405724985
                },
                {
                    "id": 11443658814,
                    "tags": {
                        "bus": "yes",
                        "ref": "50225",
                        "name": "Kimberley Road/Ballan Road",
                        "highway": "bus_stop",
                        "public_transport": "platform"
                    },
                    "distance": 692.24807037,
                    "sims": 0.9942969676433204
                },
                {
                    "id": 11443658811,
                    "tags": {
                        "bus": "yes",
                        "ref": "50228",
                        "name": "Buckingham Drive/Ballan Road",
                        "highway": "bus_stop",
                        "public_transport": "platform"
                    },
                    "distance": 909.15556277,
                    "sims": 0.9942350980183559
                },
                {
                    "id": 11436852061,
                    "tags": {
                        "bus": "yes",
                        "ref": "50233",
                        "name": "Evergreen Drive/Ballan Road",
                        "highway": "bus_stop",
                        "public_transport": "platform"
                    },
                    "distance": 2284.16480321,
                    "sims": 0.9940071098812949
                },
                {
                    "id": 11443658852,
                    "tags": {
                        "bus": "yes",
                        "ref": "5206",
                        "name": "Beldale Avenue/Westleigh Drive",
                        "highway": "bus_stop",
                        "public_transport": "platform"
                    },
                    "distance": 2401.10861977,
                    "sims": 0.9937998052716157
                },
                {
                    "id": 11445879291,
                    "tags": {
                        "bus": "yes",
                        "ref": "5975",
                        "name": "Purchas Street/Tarneit Road",
                        "highway": "bus_stop",
                        "public_transport": "platform"
                    },
                    "distance": 2152.00874529,
                    "sims": 0.9937229748799208
                },
                {
                    "id": 10292525080,
                    "tags": {
                        "bin": "no",
                        "name": "Conquest Drive",
                        "bench": "no",
                        "covered": "no",
                        "highway": "bus_stop",
                        "route_ref": "170",
                        "tactile_paving": "yes",
                        "public_transport": "platform"
                    },
                    "distance": 2434.38845843,
                    "sims": 0.9936393499374461
                },
                {
                    "id": 11436851983,
                    "tags": {
                        "bus": "yes",
                        "ref": "50150",
                        "name": "Greens Road/Haines Drive",
                        "highway": "bus_stop",
                        "public_transport": "platform"
                    },
                    "distance": 2630.31974455,
                    "sims": 0.9935099486404847
                }
            ]
        },
        "45": {
            "execution_time": 0.19112896919250488,
            "results": [
                {
                    "id": 12418109605,
                    "tags": {
                        "addr:street": "Wallis Avenue",
                        "addr:housenumber": "8"
                    },
                    "distance": 114.22276794,
                    "sims": 0.9972656669677309
                },
                {
                    "id": 12410793865,
                    "tags": {
                        "addr:street": "Carmichael Street",
                        "addr:housenumber": "13"
                    },
                    "distance": 613.3130499,
                    "sims": 0.9971412423680802
                },
                {
                    "id": 12418109430,
                    "tags": {
                        "addr:street": "Wallis Avenue",
                        "addr:housenumber": "7"
                    },
                    "distance": 92.67997973,
                    "sims": 0.9970792535449035
                },
                {
                    "id": 12418109420,
                    "tags": {
                        "addr:street": "York Avenue",
                        "addr:housenumber": "8"
                    },
                    "distance": 705.95107836,
                    "sims": 0.99697548187072
                },
                {
                    "id": 12418109470,
                    "tags": {
                        "addr:street": "Hardy Terrace",
                        "addr:housenumber": "18"
                    },
                    "distance": 373.45182661,
                    "sims": 0.9969509843646377
                },
                {
                    "id": 12410835979,
                    "tags": {
                        "addr:street": "The Boulevard",
                        "addr:housenumber": "228"
                    },
                    "distance": 305.89730728,
                    "sims": 0.9968934662596067
                },
                {
                    "id": 12418109513,
                    "tags": {
                        "addr:street": "Otterington Grove",
                        "addr:housenumber": "42"
                    },
                    "distance": 302.70528763,
                    "sims": 0.9967978602413207
                },
                {
                    "id": 12418109625,
                    "tags": {
                        "addr:unit": "2",
                        "addr:street": "Wilfred Road",
                        "addr:housenumber": "21"
                    },
                    "distance": 461.50860255,
                    "sims": 0.996785193969154
                },
                {
                    "id": 12418092353,
                    "tags": {
                        "addr:unit": "5",
                        "addr:street": "Cedric Street",
                        "addr:housenumber": "17"
                    },
                    "distance": 527.90638559,
                    "sims": 0.9967396859240977
                },
                {
                    "id": 12418163635,
                    "tags": {
                        "addr:street": "Lister Street",
                        "addr:housenumber": "32"
                    },
                    "distance": 1195.35409111,
                    "sims": 0.9967368249014895
                }
            ]
        },
        "46": {
            "execution_time": 0.18980813026428223,
            "results": [
                {
                    "id": 12417691118,
                    "tags": {
                        "addr:street": "Craigieburn Road",
                        "addr:housenumber": "246"
                    },
                    "distance": 1250.36375953,
                    "sims": 0.9967004639094589
                },
                {
                    "id": 12417686183,
                    "tags": {
                        "addr:street": "Dorchester Street",
                        "addr:housenumber": "55A"
                    },
                    "distance": 727.38014284,
                    "sims": 0.996697543083412
                },
                {
                    "id": 12419337369,
                    "tags": {
                        "addr:unit": "2",
                        "addr:street": "Furlong Street",
                        "addr:housenumber": "41"
                    },
                    "distance": 668.20127348,
                    "sims": 0.9966889596146634
                },
                {
                    "id": 12419386558,
                    "tags": {
                        "addr:street": "Alma Street",
                        "addr:housenumber": "44"
                    },
                    "distance": 1355.50425098,
                    "sims": 0.9965986587160134
                },
                {
                    "id": 12419384343,
                    "tags": {
                        "addr:street": "Craigieburn Road",
                        "addr:housenumber": "222"
                    },
                    "distance": 1435.79476453,
                    "sims": 0.9965950230332915
                },
                {
                    "id": 12417689324,
                    "tags": {
                        "addr:street": "Woking Street",
                        "addr:housenumber": "1"
                    },
                    "distance": 2499.95896574,
                    "sims": 0.9965348220996044
                },
                {
                    "id": 12417690695,
                    "tags": {
                        "addr:street": "Bank Street",
                        "addr:housenumber": "13"
                    },
                    "distance": 1111.71291576,
                    "sims": 0.9965290402383478
                },
                {
                    "id": 12417681624,
                    "tags": {
                        "addr:street": "Dorchester Street",
                        "addr:housenumber": "79"
                    },
                    "distance": 685.13014243,
                    "sims": 0.9965289212359028
                },
                {
                    "id": 12419382291,
                    "tags": {
                        "addr:street": "Dorchester Street",
                        "addr:housenumber": "68"
                    },
                    "distance": 629.97160122,
                    "sims": 0.9964998341501814
                },
                {
                    "id": 12417682263,
                    "tags": {
                        "addr:street": "Ramsbury Street",
                        "addr:housenumber": "1"
                    },
                    "distance": 2192.0508771,
                    "sims": 0.9964917279131771
                }
            ]
        },
        "47": {
            "execution_time": 0.18750834465026855,
            "results": [
                {
                    "id": 12418844670,
                    "tags": {
                        "addr:street": "Honniball Drive",
                        "addr:housenumber": "61"
                    },
                    "distance": 229.34143522,
                    "sims": 0.9943203026938748
                },
                {
                    "id": 12411611787,
                    "tags": {
                        "addr:street": "Honniball Drive",
                        "addr:housenumber": "47"
                    },
                    "distance": 224.15890674,
                    "sims": 0.9942997390895888
                },
                {
                    "id": 12411615019,
                    "tags": {
                        "addr:street": "Yilleen Close",
                        "addr:housenumber": "6"
                    },
                    "distance": 1007.64978897,
                    "sims": 0.9942397768115837
                },
                {
                    "id": 12418844614,
                    "tags": {
                        "addr:street": "Honniball Drive",
                        "addr:housenumber": "3W"
                    },
                    "distance": 173.43087383,
                    "sims": 0.9941872055101916
                },
                {
                    "id": 12411614648,
                    "tags": {
                        "addr:street": "Stonehaven Drive",
                        "addr:housenumber": "15"
                    },
                    "distance": 423.94664848,
                    "sims": 0.9940131003272364
                },
                {
                    "id": 12411637472,
                    "tags": {
                        "addr:street": "Tripani Avenue",
                        "addr:housenumber": "23"
                    },
                    "distance": 894.03687414,
                    "sims": 0.9940005237460644
                },
                {
                    "id": 12411642259,
                    "tags": {
                        "addr:street": "Treska Link",
                        "addr:housenumber": "12"
                    },
                    "distance": 933.73623177,
                    "sims": 0.993966608700155
                },
                {
                    "id": 12411639462,
                    "tags": {
                        "addr:street": "Treska Link",
                        "addr:housenumber": "2"
                    },
                    "distance": 906.76943205,
                    "sims": 0.9939475352121215
                },
                {
                    "id": 12418868771,
                    "tags": {
                        "addr:street": "Kerang Place",
                        "addr:housenumber": "12"
                    },
                    "distance": 258.18662294,
                    "sims": 0.9939081961430526
                },
                {
                    "id": 12411613120,
                    "tags": {
                        "addr:street": "Stonehaven Drive",
                        "addr:housenumber": "37"
                    },
                    "distance": 173.32369591,
                    "sims": 0.9938930265775968
                }
            ]
        },
        "48": {
            "execution_time": 0.19139957427978516,
            "results": [
                {
                    "id": 6378494485,
                    "tags": {
                        "name": "Tanck\u2019s Corner",
                        "phone": "+61 3 9436 1700",
                        "amenity": "cafe",
                        "cuisine": "coffee_shop;breakfast;cake",
                        "addr:street": "Ironbark Road",
                        "addr:postcode": "3091",
                        "opening_hours": "Mo-Fr 07:00-16:00; Sa-Su 08:30-15:00",
                        "addr:housenumber": "461"
                    },
                    "distance": 1248.68548497,
                    "sims": 0.9959657790681273
                },
                {
                    "id": 9957071104,
                    "tags": {
                        "amenity": "bench"
                    },
                    "distance": 3290.07612732,
                    "sims": 0.9959245324134827
                },
                {
                    "id": 9591796858,
                    "tags": {
                        "amenity": "bench"
                    },
                    "distance": 3738.43682621,
                    "sims": 0.9955673215131373
                },
                {
                    "id": 9662833485,
                    "tags": {
                        "bus": "yes",
                        "name": "Worns Lane",
                        "highway": "bus_stop",
                        "network": "PTV - Metropolitan Buses",
                        "network:wikidata": "Q7257648",
                        "public_transport": "platform",
                        "network:wikipedia": "en:Public Transport Victoria"
                    },
                    "distance": 499.01700709,
                    "sims": 0.9951873119342943
                },
                {
                    "id": 12418389715,
                    "tags": {
                        "addr:street": "Browns Lane",
                        "addr:housenumber": "28-40"
                    },
                    "distance": 1257.45783051,
                    "sims": 0.9951720836656062
                },
                {
                    "id": 11662877115,
                    "tags": {
                        "building": "yes",
                        "addr:street": "Redbox Court",
                        "addr:housenumber": "6"
                    },
                    "distance": 351.26299029,
                    "sims": 0.9950996337860718
                },
                {
                    "id": 12418390181,
                    "tags": {
                        "addr:street": "Clover Court",
                        "addr:housenumber": "1"
                    },
                    "distance": 1340.3191868,
                    "sims": 0.9949851629129167
                },
                {
                    "id": 12418390029,
                    "tags": {
                        "addr:street": "Grange Avenue",
                        "addr:housenumber": "3"
                    },
                    "distance": 1546.08568033,
                    "sims": 0.9949749115124416
                },
                {
                    "id": 12418390025,
                    "tags": {
                        "addr:street": "Grange Avenue",
                        "addr:housenumber": "25"
                    },
                    "distance": 1574.23287143,
                    "sims": 0.9949571487282025
                },
                {
                    "id": 12418924802,
                    "tags": {
                        "addr:street": "Worns Lane",
                        "addr:housenumber": "91"
                    },
                    "distance": 40.71162546,
                    "sims": 0.9949555397033691
                }
            ]
        },
        "49": {
            "execution_time": 0.18459630012512207,
            "results": [
                {
                    "id": 10223025192,
                    "tags": {
                        "amenity": "bench"
                    },
                    "distance": 1654.12376516,
                    "sims": 0.9949396821535915
                },
                {
                    "id": 10223025219,
                    "tags": {
                        "amenity": "bench"
                    },
                    "distance": 1481.9265277,
                    "sims": 0.9948787059586854
                },
                {
                    "id": 12421162600,
                    "tags": {
                        "addr:street": "Picnic Avenue",
                        "addr:housenumber": "96"
                    },
                    "distance": 407.35564642,
                    "sims": 0.9948396052860764
                },
                {
                    "id": 12417449815,
                    "tags": {
                        "addr:street": "Colonnade Street",
                        "addr:housenumber": "10"
                    },
                    "distance": 204.35209565,
                    "sims": 0.9948038721232294
                },
                {
                    "id": 12421164871,
                    "tags": {
                        "addr:street": "Colonnade Street",
                        "addr:housenumber": "4"
                    },
                    "distance": 216.64771725,
                    "sims": 0.9947915639108891
                },
                {
                    "id": 12417449661,
                    "tags": {
                        "addr:street": "Observatory Street",
                        "addr:housenumber": "4"
                    },
                    "distance": 475.057131,
                    "sims": 0.9947307671333566
                },
                {
                    "id": 12421164376,
                    "tags": {
                        "addr:street": "Picnic Avenue",
                        "addr:housenumber": "21"
                    },
                    "distance": 154.79927207,
                    "sims": 0.9947297538537311
                },
                {
                    "id": 12421171245,
                    "tags": {
                        "addr:street": "Spindle Street",
                        "addr:housenumber": "27"
                    },
                    "distance": 1127.0718492,
                    "sims": 0.9947194422434241
                },
                {
                    "id": 12417449804,
                    "tags": {
                        "addr:street": "Colonnade Street",
                        "addr:housenumber": "21"
                    },
                    "distance": 241.45459626,
                    "sims": 0.9946853489979
                },
                {
                    "id": 12417454337,
                    "tags": {
                        "addr:street": "Spindle Street",
                        "addr:housenumber": "30"
                    },
                    "distance": 1163.8683161,
                    "sims": 0.994673785055591
                }
            ]
        }
    }
}