{
    "insertion_time": 25.33527374267578,
    "index_creation": {
        "func": [
            "CREATE INDEX IF NOT EXISTS idx_pois_embedding ON PoIs USING hnsw (embedding vector_cosine_ops) WITH (m = 16, ef_construction = 64);"
        ],
        "time": 9.022626876831055
    },
    "query_results": {
        "0": {
            "execution_time": 0.1811535358428955,
            "results": [
                {
                    "id": 11436851983,
                    "tags": {
                        "bus": "yes",
                        "ref": "50150",
                        "name": "Greens Road/Haines Drive",
                        "highway": "bus_stop",
                        "public_transport": "platform"
                    },
                    "distance": 2234.35719426,
                    "sims": 0.9945433178832801
                },
                {
                    "id": 12420756109,
                    "tags": {
                        "addr:street": "Ladlow Street",
                        "addr:housenumber": "3"
                    },
                    "distance": 726.7415185,
                    "sims": 0.9944849050444993
                },
                {
                    "id": 12420755802,
                    "tags": {
                        "addr:street": "Baxter Street",
                        "addr:housenumber": "8"
                    },
                    "distance": 155.5075114,
                    "sims": 0.9943872137647752
                },
                {
                    "id": 12415542380,
                    "tags": {
                        "addr:street": "Nuttall Street",
                        "addr:housenumber": "15"
                    },
                    "distance": 787.89096713,
                    "sims": 0.9943774379404301
                },
                {
                    "id": 12420749682,
                    "tags": {
                        "addr:street": "Baxter Street",
                        "addr:housenumber": "10"
                    },
                    "distance": 153.14650344,
                    "sims": 0.9943615238467444
                },
                {
                    "id": 12415543525,
                    "tags": {
                        "addr:street": "Moggs Road",
                        "addr:housenumber": "8"
                    },
                    "distance": 571.87138047,
                    "sims": 0.994323376901373
                },
                {
                    "id": 12417947671,
                    "tags": {
                        "addr:street": "Granville Street",
                        "addr:housenumber": "28"
                    },
                    "distance": 1454.21087488,
                    "sims": 0.9943145550814213
                },
                {
                    "id": 12420297979,
                    "tags": {
                        "addr:street": "Tuff Street",
                        "addr:housenumber": "93"
                    },
                    "distance": 938.46076294,
                    "sims": 0.9942961076259251
                },
                {
                    "id": 12415543533,
                    "tags": {
                        "addr:street": "Drum Street",
                        "addr:housenumber": "4"
                    },
                    "distance": 508.91488037,
                    "sims": 0.9942807596108407
                },
                {
                    "id": 12415543496,
                    "tags": {
                        "addr:street": "Drum Street",
                        "addr:housenumber": "6"
                    },
                    "distance": 519.50538206,
                    "sims": 0.994275813111161
                }
            ]
        },
        "1": {
            "execution_time": 0.18185710906982422,
            "results": [
                {
                    "id": 12418306818,
                    "tags": {
                        "addr:street": "Rowell Avenue",
                        "addr:housenumber": "95"
                    },
                    "distance": 198.75627436,
                    "sims": 0.9977971315383911
                },
                {
                    "id": 12411504982,
                    "tags": {
                        "addr:street": "Sunnyside Avenue",
                        "addr:housenumber": "1A"
                    },
                    "distance": 544.97180177,
                    "sims": 0.9977586866761055
                },
                {
                    "id": 12418306640,
                    "tags": {
                        "addr:street": "Rowell Avenue",
                        "addr:housenumber": "114"
                    },
                    "distance": 388.87913134,
                    "sims": 0.9976893067359924
                },
                {
                    "id": 12411503370,
                    "tags": {
                        "addr:flats": "1-4",
                        "addr:street": "Rowell Avenue",
                        "addr:housenumber": "21"
                    },
                    "distance": 441.3225179,
                    "sims": 0.9976558385183707
                },
                {
                    "id": 12418309235,
                    "tags": {
                        "addr:street": "Sunnyside Avenue",
                        "addr:housenumber": "18"
                    },
                    "distance": 434.94822209,
                    "sims": 0.997644543788164
                },
                {
                    "id": 12418307585,
                    "tags": {
                        "addr:street": "Bowen Street",
                        "addr:housenumber": "62"
                    },
                    "distance": 320.70935726,
                    "sims": 0.9976384638332423
                },
                {
                    "id": 12418305679,
                    "tags": {
                        "addr:street": "Radnor Street",
                        "addr:housenumber": "83"
                    },
                    "distance": 446.83255938,
                    "sims": 0.9976359307061418
                },
                {
                    "id": 12418306622,
                    "tags": {
                        "addr:street": "Crown Avenue",
                        "addr:housenumber": "9"
                    },
                    "distance": 116.6938889,
                    "sims": 0.9976212382316589
                },
                {
                    "id": 12411505142,
                    "tags": {
                        "addr:street": "Currajong Avenue",
                        "addr:housenumber": "20"
                    },
                    "distance": 330.92373559,
                    "sims": 0.9976015090942383
                },
                {
                    "id": 12411503344,
                    "tags": {
                        "addr:street": "Burke Road",
                        "addr:housenumber": "504"
                    },
                    "distance": 469.31366227,
                    "sims": 0.997596263885498
                }
            ]
        },
        "2": {
            "execution_time": 0.1824023723602295,
            "results": [
                {
                    "id": 11954762069,
                    "tags": {
                        "building": "yes",
                        "addr:street": "Frankston - Dandenong Road",
                        "addr:housenumber": "431"
                    },
                    "distance": 1123.90549874,
                    "sims": 0.9950890840563491
                },
                {
                    "id": 9219905695,
                    "tags": {
                        "name": "Awesome Autos Prestige",
                        "shop": "car"
                    },
                    "distance": 435.48138211,
                    "sims": 0.9948789776897775
                },
                {
                    "id": 12420089000,
                    "tags": {
                        "addr:flats": "1-6",
                        "addr:street": "Fellowes Street",
                        "addr:housenumber": "46-48"
                    },
                    "distance": 651.57511678,
                    "sims": 0.994817912887461
                },
                {
                    "id": 12413683105,
                    "tags": {
                        "addr:unit": "40",
                        "addr:street": "Frankston Dandenong Road",
                        "addr:housenumber": "326-356"
                    },
                    "distance": 891.06485825,
                    "sims": 0.9946921470944812
                },
                {
                    "id": 12420091923,
                    "tags": {
                        "addr:unit": "2",
                        "addr:street": "Fellowes Street",
                        "addr:housenumber": "31-33"
                    },
                    "distance": 670.36725992,
                    "sims": 0.9946799281430305
                },
                {
                    "id": 12420089908,
                    "tags": {
                        "addr:unit": "2",
                        "addr:street": "Madden Street",
                        "addr:housenumber": "16"
                    },
                    "distance": 887.58898078,
                    "sims": 0.9946624043785111
                },
                {
                    "id": 12420092986,
                    "tags": {
                        "addr:unit": "83",
                        "addr:street": "Frankston Dandenong Road",
                        "addr:housenumber": "326-356"
                    },
                    "distance": 745.32447874,
                    "sims": 0.994659722169656
                },
                {
                    "id": 12420092363,
                    "tags": {
                        "addr:unit": "119",
                        "addr:street": "Frankston Dandenong Road",
                        "addr:housenumber": "326-356"
                    },
                    "distance": 726.63599328,
                    "sims": 0.9946558478679766
                },
                {
                    "id": 12413683067,
                    "tags": {
                        "addr:unit": "63",
                        "addr:street": "Frankston Dandenong Road",
                        "addr:housenumber": "326-356"
                    },
                    "distance": 810.83522403,
                    "sims": 0.9946303966861745
                },
                {
                    "id": 12413681297,
                    "tags": {
                        "addr:unit": "2",
                        "addr:street": "Frankston Dandenong Road",
                        "addr:housenumber": "360"
                    },
                    "distance": 992.42176129,
                    "sims": 0.9945757988348145
                }
            ]
        },
        "3": {
            "execution_time": 0.17969655990600586,
            "results": [
                {
                    "id": 12420357051,
                    "tags": {
                        "addr:street": "Stanley Street",
                        "addr:housenumber": "60A"
                    },
                    "distance": 282.99046741,
                    "sims": 0.9970614901369158
                },
                {
                    "id": 12420355939,
                    "tags": {
                        "addr:street": "Grant Road",
                        "addr:housenumber": "70"
                    },
                    "distance": 1530.48338677,
                    "sims": 0.9968816327888674
                },
                {
                    "id": 11155378798,
                    "tags": {
                        "building": "yes",
                        "addr:street": "Guelph Street",
                        "addr:housenumber": "70"
                    },
                    "distance": 771.93311145,
                    "sims": 0.9967588172741213
                },
                {
                    "id": 12420358616,
                    "tags": {
                        "addr:street": "Guelph Street",
                        "addr:housenumber": "107"
                    },
                    "distance": 594.04200344,
                    "sims": 0.996750830442074
                },
                {
                    "id": 12420358674,
                    "tags": {
                        "addr:unit": "67",
                        "addr:street": "Speedwell Street",
                        "addr:housenumber": "10"
                    },
                    "distance": 1405.94581748,
                    "sims": 0.99672382933304
                },
                {
                    "id": 12414953709,
                    "tags": {
                        "addr:street": "Station Street",
                        "addr:housenumber": "33"
                    },
                    "distance": 945.09143543,
                    "sims": 0.9967100606543522
                },
                {
                    "id": 12420358666,
                    "tags": {
                        "addr:unit": "39",
                        "addr:street": "Speedwell Street",
                        "addr:housenumber": "10"
                    },
                    "distance": 1465.61105811,
                    "sims": 0.9967054714875706
                },
                {
                    "id": 12420358698,
                    "tags": {
                        "addr:unit": "69",
                        "addr:street": "Speedwell Street",
                        "addr:housenumber": "10"
                    },
                    "distance": 1393.36962184,
                    "sims": 0.9966974246612559
                },
                {
                    "id": 12414954495,
                    "tags": {
                        "addr:street": "Station Street",
                        "addr:housenumber": "28"
                    },
                    "distance": 980.16312573,
                    "sims": 0.9966891400074042
                },
                {
                    "id": 12420358013,
                    "tags": {
                        "addr:street": "Grant Road",
                        "addr:housenumber": "9"
                    },
                    "distance": 1241.99883474,
                    "sims": 0.9966618406755992
                }
            ]
        },
        "4": {
            "execution_time": 0.17961359024047852,
            "results": [
                {
                    "id": 12414950633,
                    "tags": {
                        "addr:street": "Toohey Close",
                        "addr:housenumber": "5"
                    },
                    "distance": 960.71913671,
                    "sims": 0.9944419311177
                },
                {
                    "id": 7934407566,
                    "tags": {
                        "bus": "yes",
                        "ref": "27564",
                        "name": "Blamey Drive/Bridge Road",
                        "highway": "bus_stop",
                        "network": "PTV Metropolitan Buses",
                        "operator": "Public Transport Victoria",
                        "departures_board": "timetable",
                        "public_transport": "platform"
                    },
                    "distance": 3078.64170409,
                    "sims": 0.9943999991182233
                },
                {
                    "id": 12414950635,
                    "tags": {
                        "addr:street": "Toohey Close",
                        "addr:housenumber": "16"
                    },
                    "distance": 992.33814955,
                    "sims": 0.9943491860310584
                },
                {
                    "id": 12414969363,
                    "tags": {
                        "addr:street": "Sheepfold Court",
                        "addr:housenumber": "8"
                    },
                    "distance": 1127.67858834,
                    "sims": 0.9943378018901695
                },
                {
                    "id": 12420330985,
                    "tags": {
                        "addr:street": "Barries Road",
                        "addr:housenumber": "54"
                    },
                    "distance": 1483.46337574,
                    "sims": 0.9943255829481868
                },
                {
                    "id": 12414969479,
                    "tags": {
                        "addr:street": "McKinnon Court",
                        "addr:housenumber": "20"
                    },
                    "distance": 1014.95412557,
                    "sims": 0.9943208149190417
                },
                {
                    "id": 12420330866,
                    "tags": {
                        "addr:street": "Barries Road",
                        "addr:housenumber": "69-71"
                    },
                    "distance": 1416.15125115,
                    "sims": 0.9942939329082219
                },
                {
                    "id": 12414971129,
                    "tags": {
                        "addr:unit": "2",
                        "addr:street": "Carlyon Close",
                        "addr:housenumber": "54"
                    },
                    "distance": 2233.99597391,
                    "sims": 0.9942902381038938
                },
                {
                    "id": 12414969477,
                    "tags": {
                        "addr:street": "McKinnon Court",
                        "addr:housenumber": "11"
                    },
                    "distance": 1132.84405357,
                    "sims": 0.9942894036396628
                },
                {
                    "id": 12414961034,
                    "tags": {
                        "addr:street": "Dunrossil Court",
                        "addr:housenumber": "6"
                    },
                    "distance": 988.77710906,
                    "sims": 0.9942884496258654
                }
            ]
        },
        "5": {
            "execution_time": 0.18168878555297852,
            "results": [
                {
                    "id": 12413728193,
                    "tags": {
                        "addr:unit": "184",
                        "addr:street": "Robinsons Road",
                        "addr:housenumber": "8"
                    },
                    "distance": 446.26915482,
                    "sims": 0.9976382558504764
                },
                {
                    "id": 12413728075,
                    "tags": {
                        "addr:unit": "125",
                        "addr:street": "Robinsons Road",
                        "addr:housenumber": "8"
                    },
                    "distance": 532.3716576,
                    "sims": 0.9975909297723977
                },
                {
                    "id": 12420123413,
                    "tags": {
                        "addr:street": "Bartlett Street",
                        "addr:housenumber": "66"
                    },
                    "distance": 419.12703608,
                    "sims": 0.9975875621825592
                },
                {
                    "id": 12413728116,
                    "tags": {
                        "addr:unit": "189",
                        "addr:street": "Robinsons Road",
                        "addr:housenumber": "8"
                    },
                    "distance": 430.64951705,
                    "sims": 0.9975759988842297
                },
                {
                    "id": 12413728170,
                    "tags": {
                        "addr:unit": "942",
                        "addr:street": "Robinsons Road",
                        "addr:housenumber": "8"
                    },
                    "distance": 269.2973423,
                    "sims": 0.9975713794529899
                },
                {
                    "id": 12413728168,
                    "tags": {
                        "addr:unit": "918",
                        "addr:street": "Robinsons Road",
                        "addr:housenumber": "8"
                    },
                    "distance": 347.86313892,
                    "sims": 0.9975696213336087
                },
                {
                    "id": 12420121689,
                    "tags": {
                        "addr:street": "Bartlett Street",
                        "addr:housenumber": "13"
                    },
                    "distance": 725.79053758,
                    "sims": 0.9975515012351417
                },
                {
                    "id": 12413728266,
                    "tags": {
                        "addr:unit": "293",
                        "addr:street": "Robinsons Road",
                        "addr:housenumber": "8"
                    },
                    "distance": 388.39468882,
                    "sims": 0.9975510245440231
                },
                {
                    "id": 12420299258,
                    "tags": {
                        "addr:unit": "2",
                        "addr:street": "Thomas Street",
                        "addr:housenumber": "12"
                    },
                    "distance": 1800.60481001,
                    "sims": 0.9975321596049096
                },
                {
                    "id": 12413728261,
                    "tags": {
                        "addr:unit": "294",
                        "addr:street": "Robinsons Road",
                        "addr:housenumber": "8"
                    },
                    "distance": 390.88222347,
                    "sims": 0.9975293882103757
                }
            ]
        },
        "6": {
            "execution_time": 0.18878889083862305,
            "results": [
                {
                    "id": 10196264570,
                    "tags": {
                        "amenity": "bench"
                    },
                    "distance": 1733.06358911,
                    "sims": 0.998099684715271
                },
                {
                    "id": 9591796858,
                    "tags": {
                        "amenity": "bench"
                    },
                    "distance": 2811.67247937,
                    "sims": 0.9976131916046143
                },
                {
                    "id": 12411735195,
                    "tags": {
                        "addr:street": "Bernard Street",
                        "addr:housenumber": "13W"
                    },
                    "distance": 1307.53914374,
                    "sims": 0.9975894689559937
                },
                {
                    "id": 12411737932,
                    "tags": {
                        "addr:street": "Bernard Street",
                        "addr:housenumber": "1"
                    },
                    "distance": 1337.71863289,
                    "sims": 0.997470915166792
                },
                {
                    "id": 9957071104,
                    "tags": {
                        "amenity": "bench"
                    },
                    "distance": 3194.23577984,
                    "sims": 0.9974299074751212
                },
                {
                    "id": 12411734979,
                    "tags": {
                        "addr:street": "Spoonbill Street",
                        "addr:housenumber": "8"
                    },
                    "distance": 101.52715379,
                    "sims": 0.9972995519638062
                },
                {
                    "id": 12419079985,
                    "tags": {
                        "addr:street": "Painted Hills Road",
                        "addr:housenumber": "275"
                    },
                    "distance": 1582.41016323,
                    "sims": 0.9972801208496094
                },
                {
                    "id": 12411738860,
                    "tags": {
                        "addr:street": "Lythrum Street",
                        "addr:housenumber": "33"
                    },
                    "distance": 1272.26251676,
                    "sims": 0.9972771406173706
                },
                {
                    "id": 12411737280,
                    "tags": {
                        "addr:street": "Lythrum Street",
                        "addr:housenumber": "23"
                    },
                    "distance": 1339.53341157,
                    "sims": 0.9972637294092035
                },
                {
                    "id": 12411735645,
                    "tags": {
                        "addr:street": "Lythrum Street",
                        "addr:housenumber": "36"
                    },
                    "distance": 1323.08456622,
                    "sims": 0.9972280263900757
                }
            ]
        },
        "7": {
            "execution_time": 0.1818690299987793,
            "results": [
                {
                    "id": 4194557558,
                    "tags": {
                        "amenity": "cafe"
                    },
                    "distance": 464.91558239,
                    "sims": 0.9954929341061028
                },
                {
                    "id": 4192572937,
                    "tags": {
                        "name": "Michels",
                        "amenity": "cafe"
                    },
                    "distance": 590.28282555,
                    "sims": 0.9954656052348191
                },
                {
                    "id": 9047353491,
                    "tags": {
                        "amenity": "parking_space",
                        "capacity": "1",
                        "parking_space": "disabled"
                    },
                    "distance": 409.36058647,
                    "sims": 0.995326965072427
                },
                {
                    "id": 11618007665,
                    "tags": {
                        "lit": "no",
                        "bench": "yes",
                        "colour": "brown",
                        "leisure": "picnic_table",
                        "material": "wood"
                    },
                    "distance": 2070.58662746,
                    "sims": 0.994725106889042
                },
                {
                    "id": 11572236393,
                    "tags": {
                        "amenity": "bench",
                        "backrest": "yes",
                        "material": "concrete"
                    },
                    "distance": 2513.45046785,
                    "sims": 0.994687973503124
                },
                {
                    "id": 3951181648,
                    "tags": {
                        "name": "Woolworths",
                        "shop": "supermarket",
                        "brand": "Woolworths",
                        "operator": "Woolworths Group",
                        "brand:wikidata": "Q3249145",
                        "brand:wikipedia": "en:Woolworths Supermarkets",
                        "operator:wikidata": "Q607272"
                    },
                    "distance": 650.7254732,
                    "sims": 0.9946560254078116
                },
                {
                    "id": 4194557580,
                    "tags": {
                        "name": "Babycino on Main",
                        "amenity": "cafe"
                    },
                    "distance": 553.2678167,
                    "sims": 0.9946401705694663
                },
                {
                    "id": 11572236392,
                    "tags": {
                        "amenity": "bench",
                        "backrest": "no",
                        "material": "concrete"
                    },
                    "distance": 2566.34676726,
                    "sims": 0.9946053018460377
                },
                {
                    "id": 1818775476,
                    "tags": {
                        "bus": "yes",
                        "ref": "416",
                        "name": "Daniela Way/Shane Avenue",
                        "highway": "bus_stop",
                        "network": "PTV",
                        "operator": "Westrans",
                        "public_transport": "stop_position"
                    },
                    "distance": 1097.30351719,
                    "sims": 0.994593798147539
                },
                {
                    "id": 461534089,
                    "tags": {
                        "name": "Coles",
                        "shop": "supermarket",
                        "brand": "Coles",
                        "branch": "Sanctuary Lakes",
                        "website": "https://www.coles.com.au/",
                        "operator": "Coles Group",
                        "addr:street": "Point Cook Road",
                        "opening_hours": "Mo-Su 06:00-24:00",
                        "brand:wikidata": "Q1108172",
                        "brand:wikipedia": "en:Coles Supermarkets",
                        "addr:housenumber": "300",
                        "operator:wikidata": "Q131937428"
                    },
                    "distance": 1729.29782983,
                    "sims": 0.9945019473735159
                }
            ]
        },
        "8": {
            "execution_time": 0.1768198013305664,
            "results": [
                {
                    "id": 12411513513,
                    "tags": {
                        "addr:unit": "3",
                        "addr:street": "Tyler Street",
                        "addr:housenumber": "46"
                    },
                    "distance": 212.96545692,
                    "sims": 0.9978626362786468
                },
                {
                    "id": 12411512473,
                    "tags": {
                        "addr:unit": "2",
                        "addr:street": "Tyler Street",
                        "addr:housenumber": "75"
                    },
                    "distance": 162.01323322,
                    "sims": 0.9977308503619181
                },
                {
                    "id": 12411513992,
                    "tags": {
                        "addr:street": "Tyler Street",
                        "addr:housenumber": "83A"
                    },
                    "distance": 226.4040404,
                    "sims": 0.9976416223173651
                },
                {
                    "id": 12411508691,
                    "tags": {
                        "addr:street": "Tyler Street",
                        "addr:housenumber": "44"
                    },
                    "distance": 198.10658225,
                    "sims": 0.9976355426417861
                },
                {
                    "id": 12411511583,
                    "tags": {
                        "addr:unit": "11",
                        "addr:street": "Tyler Street",
                        "addr:housenumber": "26"
                    },
                    "distance": 328.01770126,
                    "sims": 0.9976127736606962
                },
                {
                    "id": 12411512971,
                    "tags": {
                        "addr:unit": "1",
                        "addr:street": "Tyler Street",
                        "addr:housenumber": "58"
                    },
                    "distance": 183.22698765,
                    "sims": 0.9976004951002132
                },
                {
                    "id": 12411511421,
                    "tags": {
                        "addr:unit": "7",
                        "addr:street": "Tyler Street",
                        "addr:housenumber": "26"
                    },
                    "distance": 311.20518875,
                    "sims": 0.9975975148670863
                },
                {
                    "id": 12421128827,
                    "tags": {
                        "addr:unit": "4",
                        "addr:street": "Seston Street",
                        "addr:housenumber": "36"
                    },
                    "distance": 476.67586882,
                    "sims": 0.9975775473051357
                },
                {
                    "id": 12418105381,
                    "tags": {
                        "addr:unit": "4",
                        "addr:street": "Liberty Parade",
                        "addr:housenumber": "317"
                    },
                    "distance": 385.05806986,
                    "sims": 0.9975745074673462
                },
                {
                    "id": 12418317043,
                    "tags": {
                        "addr:street": "Tyler Street",
                        "addr:housenumber": "61"
                    },
                    "distance": 146.50928872,
                    "sims": 0.9975476259107335
                }
            ]
        },
        "9": {
            "execution_time": 0.1851656436920166,
            "results": [
                {
                    "id": 292217600,
                    "tags": {
                        "leisure": "playground"
                    },
                    "distance": 1016.96561126,
                    "sims": 0.9947727344388724
                },
                {
                    "id": 12410861175,
                    "tags": {
                        "addr:street": "Nicholson Street",
                        "addr:housenumber": "194"
                    },
                    "distance": 440.23702812,
                    "sims": 0.9940598628307515
                },
                {
                    "id": 2210712066,
                    "tags": {
                        "ref": "129",
                        "name": "Stop 129: Holmes Street",
                        "tram": "yes",
                        "network": "PTV - Metropolitan Trams",
                        "railway": "tram_stop",
                        "operator": "Keolis Downer",
                        "network:wikidata": "Q7257648",
                        "public_transport": "stop_position",
                        "operator:wikidata": "Q6328065"
                    },
                    "distance": 605.60557861,
                    "sims": 0.9939604715811935
                },
                {
                    "id": 12410861449,
                    "tags": {
                        "addr:street": "Holmes Street",
                        "addr:housenumber": "7"
                    },
                    "distance": 126.75209613,
                    "sims": 0.9939392526945687
                },
                {
                    "id": 12410861460,
                    "tags": {
                        "addr:street": "Hickford Street",
                        "addr:housenumber": "65"
                    },
                    "distance": 535.35719109,
                    "sims": 0.9938848636562755
                },
                {
                    "id": 12418928475,
                    "tags": {
                        "addr:unit": "12",
                        "addr:street": "Moore Street",
                        "addr:housenumber": "110-116"
                    },
                    "distance": 750.61193714,
                    "sims": 0.9938675479649127
                },
                {
                    "id": 12410863185,
                    "tags": {
                        "addr:street": "Dunstan Avenue",
                        "addr:housenumber": "5"
                    },
                    "distance": 192.33696291,
                    "sims": 0.993867519441862
                },
                {
                    "id": 12410862952,
                    "tags": {
                        "addr:street": "Lanark Street",
                        "addr:housenumber": "20"
                    },
                    "distance": 527.69099574,
                    "sims": 0.9938440937269319
                },
                {
                    "id": 12410861419,
                    "tags": {
                        "addr:street": "Alsace Street",
                        "addr:housenumber": "5-5A"
                    },
                    "distance": 131.87513944,
                    "sims": 0.9938332464199076
                },
                {
                    "id": 12418148345,
                    "tags": {
                        "addr:street": "Davies Street",
                        "addr:housenumber": "129"
                    },
                    "distance": 545.11880281,
                    "sims": 0.9938288949148474
                }
            ]
        },
        "10": {
            "execution_time": 0.18230009078979492,
            "results": [
                {
                    "id": 12411993186,
                    "tags": {
                        "addr:street": "Osway Street",
                        "addr:housenumber": "14"
                    },
                    "distance": 1160.1979145,
                    "sims": 0.9973595434879344
                },
                {
                    "id": 12411992633,
                    "tags": {
                        "addr:street": "Osway Street",
                        "addr:housenumber": "16"
                    },
                    "distance": 1168.92186815,
                    "sims": 0.9972336584519071
                },
                {
                    "id": 12412012320,
                    "tags": {
                        "addr:street": "Landy Road",
                        "addr:housenumber": "13"
                    },
                    "distance": 1394.72231106,
                    "sims": 0.997070222656473
                },
                {
                    "id": 12411992325,
                    "tags": {
                        "addr:street": "Osway Street",
                        "addr:housenumber": "7"
                    },
                    "distance": 1105.88565932,
                    "sims": 0.9970533842539949
                },
                {
                    "id": 12411994613,
                    "tags": {
                        "addr:street": "Dunn Street",
                        "addr:housenumber": "29"
                    },
                    "distance": 1277.9741817,
                    "sims": 0.9970123465377719
                },
                {
                    "id": 12411992505,
                    "tags": {
                        "addr:street": "Dunn Street",
                        "addr:housenumber": "19"
                    },
                    "distance": 1202.2853441,
                    "sims": 0.9970031670638477
                },
                {
                    "id": 12411992673,
                    "tags": {
                        "addr:street": "Waverley Street",
                        "addr:housenumber": "25"
                    },
                    "distance": 1036.1586025,
                    "sims": 0.9969857925747333
                },
                {
                    "id": 12411994002,
                    "tags": {
                        "addr:street": "Dunn Street",
                        "addr:housenumber": "31"
                    },
                    "distance": 1295.92561523,
                    "sims": 0.9969824846062897
                },
                {
                    "id": 12419109327,
                    "tags": {
                        "addr:street": "Mitchell Court",
                        "addr:housenumber": "3"
                    },
                    "distance": 700.32061023,
                    "sims": 0.996973335021339
                },
                {
                    "id": 12411978984,
                    "tags": {
                        "addr:street": "Rowan Street",
                        "addr:housenumber": "5"
                    },
                    "distance": 454.6752651,
                    "sims": 0.9969695801084554
                }
            ]
        },
        "11": {
            "execution_time": 0.1822667121887207,
            "results": [
                {
                    "id": 12415033679,
                    "tags": {
                        "addr:street": "Phillipa Street",
                        "addr:housenumber": "38"
                    },
                    "distance": 644.48362659,
                    "sims": 0.9944143861371602
                },
                {
                    "id": 12415033507,
                    "tags": {
                        "addr:street": "Morris Street",
                        "addr:housenumber": "17"
                    },
                    "distance": 246.68849061,
                    "sims": 0.994360593756795
                },
                {
                    "id": 12415033212,
                    "tags": {
                        "addr:street": "Geoffrey Street",
                        "addr:housenumber": "34"
                    },
                    "distance": 629.33018965,
                    "sims": 0.994358507257132
                },
                {
                    "id": 12415034157,
                    "tags": {
                        "addr:street": "Darwin Street",
                        "addr:housenumber": "3"
                    },
                    "distance": 1540.28589002,
                    "sims": 0.9943230428160381
                },
                {
                    "id": 12415033260,
                    "tags": {
                        "addr:street": "Geoffrey Street",
                        "addr:housenumber": "2"
                    },
                    "distance": 967.51260126,
                    "sims": 0.9943187506026406
                },
                {
                    "id": 12415024520,
                    "tags": {
                        "addr:street": "Becket Street",
                        "addr:housenumber": "47"
                    },
                    "distance": 1412.09782641,
                    "sims": 0.9943176184525374
                },
                {
                    "id": 12415033088,
                    "tags": {
                        "addr:street": "Geoffrey Street",
                        "addr:housenumber": "22"
                    },
                    "distance": 810.37083375,
                    "sims": 0.9943158303123948
                },
                {
                    "id": 11258781591,
                    "tags": {
                        "building": "yes",
                        "addr:street": "Florence Drive",
                        "addr:housenumber": "52"
                    },
                    "distance": 1775.04939165,
                    "sims": 0.9942834646350563
                },
                {
                    "id": 12415033638,
                    "tags": {
                        "addr:street": "Morris Street",
                        "addr:housenumber": "25"
                    },
                    "distance": 202.91312531,
                    "sims": 0.9942767296479428
                },
                {
                    "id": 12415033012,
                    "tags": {
                        "addr:street": "Darwin Street",
                        "addr:housenumber": "9"
                    },
                    "distance": 1510.43153372,
                    "sims": 0.9942764908880845
                }
            ]
        },
        "12": {
            "execution_time": 0.17396950721740723,
            "results": [
                {
                    "id": 12412369345,
                    "tags": {
                        "addr:street": "Smith Street",
                        "addr:housenumber": "6"
                    },
                    "distance": 503.80874469,
                    "sims": 0.9963460850658458
                },
                {
                    "id": 12412369297,
                    "tags": {
                        "addr:street": "Jeffers Street",
                        "addr:housenumber": "2"
                    },
                    "distance": 469.38439376,
                    "sims": 0.996160804081247
                },
                {
                    "id": 12412369348,
                    "tags": {
                        "addr:street": "Smith Street",
                        "addr:housenumber": "21"
                    },
                    "distance": 614.70387314,
                    "sims": 0.9961562745851444
                },
                {
                    "id": 12412370316,
                    "tags": {
                        "addr:street": "Marshall Street",
                        "addr:housenumber": "4"
                    },
                    "distance": 747.20986213,
                    "sims": 0.9961026893029578
                },
                {
                    "id": 12419602468,
                    "tags": {
                        "addr:street": "Jeffers Street",
                        "addr:housenumber": "13"
                    },
                    "distance": 534.79795279,
                    "sims": 0.9960758078324664
                },
                {
                    "id": 12412369315,
                    "tags": {
                        "addr:street": "Jeffers Street",
                        "addr:housenumber": "8"
                    },
                    "distance": 509.06952086,
                    "sims": 0.996032713897939
                },
                {
                    "id": 6150788324,
                    "tags": {
                        "amenity": "telephone"
                    },
                    "distance": 502.55839614,
                    "sims": 0.9960029110919202
                },
                {
                    "id": 12419619052,
                    "tags": {
                        "addr:street": "Wigstone Street",
                        "addr:housenumber": "7"
                    },
                    "distance": 612.56294765,
                    "sims": 0.9959877121412338
                },
                {
                    "id": 12412373879,
                    "tags": {
                        "addr:street": "Fintonia Road",
                        "addr:housenumber": "34"
                    },
                    "distance": 185.67669214,
                    "sims": 0.9958997356593263
                },
                {
                    "id": 12419624253,
                    "tags": {
                        "addr:street": "Blaby Street",
                        "addr:housenumber": "5"
                    },
                    "distance": 651.94569601,
                    "sims": 0.995898692455495
                }
            ]
        },
        "13": {
            "execution_time": 0.18046045303344727,
            "results": [
                {
                    "id": 12418354002,
                    "tags": {
                        "addr:street": "Edward Street",
                        "addr:housenumber": "3"
                    },
                    "distance": 452.22012297,
                    "sims": 0.997450232961734
                },
                {
                    "id": 12418353140,
                    "tags": {
                        "addr:flats": "1-10",
                        "addr:street": "Springfield Avenue",
                        "addr:housenumber": "16"
                    },
                    "distance": 305.41865397,
                    "sims": 0.9973335566520602
                },
                {
                    "id": 12418352213,
                    "tags": {
                        "addr:street": "Ross Street",
                        "addr:housenumber": "32A"
                    },
                    "distance": 90.01253229,
                    "sims": 0.9973291459087412
                },
                {
                    "id": 12418353517,
                    "tags": {
                        "addr:street": "Baxter Street",
                        "addr:housenumber": "12"
                    },
                    "distance": 429.93807126,
                    "sims": 0.9973177018179675
                },
                {
                    "id": 12418353956,
                    "tags": {
                        "addr:street": "Ross Street",
                        "addr:housenumber": "20A"
                    },
                    "distance": 80.18663833,
                    "sims": 0.9972690347112446
                },
                {
                    "id": 12418352620,
                    "tags": {
                        "addr:street": "Ross Street",
                        "addr:housenumber": "15"
                    },
                    "distance": 73.26964585,
                    "sims": 0.9972550872260298
                },
                {
                    "id": 12418352289,
                    "tags": {
                        "addr:flats": "1-10",
                        "addr:street": "Ross Street",
                        "addr:housenumber": "53-55"
                    },
                    "distance": 134.64681186,
                    "sims": 0.9972485903205238
                },
                {
                    "id": 12411527807,
                    "tags": {
                        "addr:flats": "1-10",
                        "addr:street": "Douglas Street",
                        "addr:housenumber": "25"
                    },
                    "distance": 429.46030983,
                    "sims": 0.9972356561141494
                },
                {
                    "id": 12418352945,
                    "tags": {
                        "addr:street": "Springfield Avenue",
                        "addr:housenumber": "4"
                    },
                    "distance": 257.64682996,
                    "sims": 0.997155547481121
                },
                {
                    "id": 12418354435,
                    "tags": {
                        "addr:street": "Douglas Street",
                        "addr:housenumber": "20"
                    },
                    "distance": 390.96433528,
                    "sims": 0.9971156123738821
                }
            ]
        },
        "14": {
            "execution_time": 0.18118596076965332,
            "results": [
                {
                    "id": 12412474385,
                    "tags": {
                        "addr:unit": "3",
                        "addr:street": "King George Parade",
                        "addr:housenumber": "42"
                    },
                    "distance": 308.59397882,
                    "sims": 0.9976492532555093
                },
                {
                    "id": 12412472426,
                    "tags": {
                        "addr:unit": "1",
                        "addr:street": "King George Parade",
                        "addr:housenumber": "52-54"
                    },
                    "distance": 410.54799835,
                    "sims": 0.9975345147961444
                },
                {
                    "id": 12419824082,
                    "tags": {
                        "addr:street": "Maurice Street",
                        "addr:housenumber": "22"
                    },
                    "distance": 88.86597795,
                    "sims": 0.9975305805973644
                },
                {
                    "id": 12419618744,
                    "tags": {
                        "addr:unit": "2",
                        "addr:street": "Maxine Court",
                        "addr:housenumber": "4"
                    },
                    "distance": 594.84975257,
                    "sims": 0.9975236071520018
                },
                {
                    "id": 12412477116,
                    "tags": {
                        "addr:unit": "3",
                        "addr:street": "Jones Road",
                        "addr:housenumber": "79"
                    },
                    "distance": 487.78489714,
                    "sims": 0.9975027452398681
                },
                {
                    "id": 12419821028,
                    "tags": {
                        "addr:unit": "2",
                        "addr:street": "Jones Road",
                        "addr:housenumber": "56"
                    },
                    "distance": 750.33342447,
                    "sims": 0.9974887976091574
                },
                {
                    "id": 12419823047,
                    "tags": {
                        "addr:unit": "6",
                        "addr:street": "Lorraine Street",
                        "addr:housenumber": "8-10"
                    },
                    "distance": 796.39971775,
                    "sims": 0.997482181946105
                },
                {
                    "id": 12419820041,
                    "tags": {
                        "addr:unit": "5",
                        "addr:street": "King George Parade",
                        "addr:housenumber": "1A"
                    },
                    "distance": 92.28618863,
                    "sims": 0.9974786053688061
                },
                {
                    "id": 12419821673,
                    "tags": {
                        "addr:unit": "7",
                        "addr:street": "Lorraine Street",
                        "addr:housenumber": "8-10"
                    },
                    "distance": 770.33505551,
                    "sims": 0.9974752673596322
                },
                {
                    "id": 12412474541,
                    "tags": {
                        "addr:street": "Queen Street",
                        "addr:housenumber": "6"
                    },
                    "distance": 0.0,
                    "sims": 0.997447730023594
                }
            ]
        },
        "15": {
            "execution_time": 0.1846163272857666,
            "results": [
                {
                    "id": 12373116819,
                    "tags": {
                        "amenity": "bench",
                        "backrest": "no"
                    },
                    "distance": 772.63973403,
                    "sims": 0.9976662985085762
                },
                {
                    "id": 5282956565,
                    "tags": {
                        "amenity": "bench",
                        "backrest": "yes"
                    },
                    "distance": 784.32477824,
                    "sims": 0.9976009720805759
                },
                {
                    "id": 12418163402,
                    "tags": {
                        "addr:flats": "1-20",
                        "addr:street": "High Street",
                        "addr:housenumber": "828"
                    },
                    "distance": 39.31619283,
                    "sims": 0.997486620167728
                },
                {
                    "id": 12418163763,
                    "tags": {
                        "addr:unit": "7",
                        "addr:street": "High Street",
                        "addr:housenumber": "833"
                    },
                    "distance": 55.62614281,
                    "sims": 0.9974657288071778
                },
                {
                    "id": 12418163760,
                    "tags": {
                        "addr:unit": "3",
                        "addr:street": "High Street",
                        "addr:housenumber": "833"
                    },
                    "distance": 29.3992106,
                    "sims": 0.9974122635759577
                },
                {
                    "id": 12418157331,
                    "tags": {
                        "addr:unit": "2",
                        "addr:street": "Nicholson Street",
                        "addr:housenumber": "42"
                    },
                    "distance": 590.08336515,
                    "sims": 0.9973347177511082
                },
                {
                    "id": 12418158035,
                    "tags": {
                        "addr:unit": "1",
                        "addr:street": "Nicholson Street",
                        "addr:housenumber": "14"
                    },
                    "distance": 293.00470844,
                    "sims": 0.9973186244912634
                },
                {
                    "id": 12418159208,
                    "tags": {
                        "addr:unit": "2",
                        "addr:street": "Maud Street",
                        "addr:housenumber": "26"
                    },
                    "distance": 456.16956145,
                    "sims": 0.9973072400000399
                },
                {
                    "id": 12410832066,
                    "tags": {
                        "addr:unit": "2",
                        "addr:street": "High Street",
                        "addr:housenumber": "820"
                    },
                    "distance": 257.17622971,
                    "sims": 0.9972993725061055
                },
                {
                    "id": 12418158237,
                    "tags": {
                        "addr:unit": "2",
                        "addr:street": "Nicholson Street",
                        "addr:housenumber": "1"
                    },
                    "distance": 293.23949915,
                    "sims": 0.9972957362994842
                }
            ]
        },
        "16": {
            "execution_time": 0.18556952476501465,
            "results": [
                {
                    "id": 11260135055,
                    "tags": {
                        "amenity": "vending_machine",
                        "vending": "public_transport_tickets",
                        "operator": "PTV"
                    },
                    "distance": 1705.91425904,
                    "sims": 0.9978780149148712
                },
                {
                    "id": 12417784875,
                    "tags": {
                        "addr:street": "Picnic Street",
                        "addr:housenumber": "4"
                    },
                    "distance": 839.32690193,
                    "sims": 0.997702568564049
                },
                {
                    "id": 12417782927,
                    "tags": {
                        "addr:street": "Bowerbird Place",
                        "addr:housenumber": "11B"
                    },
                    "distance": 834.83728474,
                    "sims": 0.9975217878079952
                },
                {
                    "id": 12417784479,
                    "tags": {
                        "addr:street": "Souvenir Street",
                        "addr:housenumber": "22"
                    },
                    "distance": 899.0876601,
                    "sims": 0.9974984227865469
                },
                {
                    "id": 12417784120,
                    "tags": {
                        "addr:street": "Bowerbird Place",
                        "addr:housenumber": "14B"
                    },
                    "distance": 827.72038329,
                    "sims": 0.9974807798111676
                },
                {
                    "id": 12417778833,
                    "tags": {
                        "addr:street": "Peony Street",
                        "addr:housenumber": "4"
                    },
                    "distance": 1156.12874928,
                    "sims": 0.9974655804752337
                },
                {
                    "id": 12417785660,
                    "tags": {
                        "addr:street": "Morris Road",
                        "addr:housenumber": "518"
                    },
                    "distance": 329.67427129,
                    "sims": 0.9974189399134481
                },
                {
                    "id": 12417779093,
                    "tags": {
                        "addr:street": "Morris Road",
                        "addr:housenumber": "794"
                    },
                    "distance": 1427.74855668,
                    "sims": 0.9973351655008051
                },
                {
                    "id": 12417788817,
                    "tags": {
                        "addr:unit": "1",
                        "addr:street": "Saddle Wynd",
                        "addr:housenumber": "10"
                    },
                    "distance": 880.72759267,
                    "sims": 0.9973292945223626
                },
                {
                    "id": 12417658355,
                    "tags": {
                        "addr:street": "Tuana Place",
                        "addr:housenumber": "9"
                    },
                    "distance": 1083.44728921,
                    "sims": 0.997324645359793
                }
            ]
        },
        "17": {
            "execution_time": 0.17919182777404785,
            "results": [
                {
                    "id": 12418899608,
                    "tags": {
                        "addr:flats": "1-2",
                        "addr:street": "Hirst Street",
                        "addr:housenumber": "1"
                    },
                    "distance": 503.55120569,
                    "sims": 0.9945206622555681
                },
                {
                    "id": 4196590779,
                    "tags": {
                        "building": "yes",
                        "addr:street": "Middleborough Road",
                        "addr:housenumber": "292"
                    },
                    "distance": 508.52020687,
                    "sims": 0.9944697898378814
                },
                {
                    "id": 12411697656,
                    "tags": {
                        "addr:flats": "1-2",
                        "addr:street": "School Street",
                        "addr:housenumber": "1"
                    },
                    "distance": 817.90042223,
                    "sims": 0.9944635313481283
                },
                {
                    "id": 8998405217,
                    "tags": {
                        "building": "yes",
                        "addr:street": "Duckham Street",
                        "addr:housenumber": "7"
                    },
                    "distance": 558.77558092,
                    "sims": 0.9943970718134384
                },
                {
                    "id": 12418900786,
                    "tags": {
                        "addr:unit": "2",
                        "addr:street": "Hirst Street",
                        "addr:housenumber": "6"
                    },
                    "distance": 543.86314638,
                    "sims": 0.9943797271901009
                },
                {
                    "id": 12418898285,
                    "tags": {
                        "addr:street": "Malcolm Street",
                        "addr:housenumber": "39"
                    },
                    "distance": 1043.24320336,
                    "sims": 0.9943624418374495
                },
                {
                    "id": 10652774791,
                    "tags": {
                        "building": "yes",
                        "addr:street": "Donald Street",
                        "addr:housenumber": "24"
                    },
                    "distance": 1157.59083766,
                    "sims": 0.9943279307368109
                },
                {
                    "id": 12418899693,
                    "tags": {
                        "addr:unit": "1",
                        "addr:street": "Hirst Street",
                        "addr:housenumber": "12"
                    },
                    "distance": 594.97426057,
                    "sims": 0.9943000357539113
                },
                {
                    "id": 12418900406,
                    "tags": {
                        "addr:street": "Hirst Street",
                        "addr:housenumber": "17"
                    },
                    "distance": 636.40129908,
                    "sims": 0.9942875783790694
                },
                {
                    "id": 6566721514,
                    "tags": {
                        "leisure": "playground"
                    },
                    "distance": 1350.67818698,
                    "sims": 0.9942681476001689
                }
            ]
        },
        "18": {
            "execution_time": 0.18152546882629395,
            "results": [
                {
                    "id": 11628643452,
                    "tags": {
                        "bus": "yes",
                        "name": "Fowler Street/Riversdale Road",
                        "bench": "yes",
                        "highway": "bus_stop",
                        "network": "PTV - Metropolitan Buses",
                        "shelter": "yes",
                        "operator": "Kinetic",
                        "public_transport": "platform"
                    },
                    "distance": 556.74217749,
                    "sims": 0.9948675030312228
                },
                {
                    "id": 12418902742,
                    "tags": {
                        "addr:unit": "2",
                        "addr:street": "Monash Street",
                        "addr:housenumber": "49"
                    },
                    "distance": 585.21481086,
                    "sims": 0.9944626675755256
                },
                {
                    "id": 4194702764,
                    "tags": {
                        "building": "yes",
                        "addr:street": "Station Street",
                        "addr:housenumber": "422"
                    },
                    "distance": 1188.42363095,
                    "sims": 0.994370101875697
                },
                {
                    "id": 12418900936,
                    "tags": {
                        "addr:unit": "42",
                        "addr:street": "Station Street",
                        "addr:housenumber": "325"
                    },
                    "distance": 705.05853566,
                    "sims": 0.9943332065939836
                },
                {
                    "id": 12411605835,
                    "tags": {
                        "addr:unit": "2",
                        "addr:street": "Surrey Street",
                        "addr:housenumber": "15"
                    },
                    "distance": 1063.74242062,
                    "sims": 0.994263826775059
                },
                {
                    "id": 12418901345,
                    "tags": {
                        "addr:street": "Byron Street",
                        "addr:housenumber": "17"
                    },
                    "distance": 282.55693969,
                    "sims": 0.994229732912151
                },
                {
                    "id": 12418902954,
                    "tags": {
                        "addr:unit": "1",
                        "addr:street": "Station Street",
                        "addr:housenumber": "309"
                    },
                    "distance": 840.77818023,
                    "sims": 0.9941841353507442
                },
                {
                    "id": 12418900955,
                    "tags": {
                        "addr:street": "Fowler Street",
                        "addr:housenumber": "31"
                    },
                    "distance": 421.35140715,
                    "sims": 0.9941765951882761
                },
                {
                    "id": 12418901334,
                    "tags": {
                        "addr:street": "Monash Street",
                        "addr:housenumber": "46"
                    },
                    "distance": 550.33698758,
                    "sims": 0.9941472696969288
                },
                {
                    "id": 12418903712,
                    "tags": {
                        "addr:unit": "2",
                        "addr:street": "Lyndoch Street",
                        "addr:housenumber": "5"
                    },
                    "distance": 655.04665594,
                    "sims": 0.9941385674169761
                }
            ]
        },
        "19": {
            "execution_time": 0.18181848526000977,
            "results": [
                {
                    "id": 12418979750,
                    "tags": {
                        "addr:street": "Burwood Highway",
                        "addr:housenumber": "225"
                    },
                    "distance": 1234.08646916,
                    "sims": 0.9936639078064146
                },
                {
                    "id": 12418980846,
                    "tags": {
                        "addr:street": "Burwood Highway",
                        "addr:housenumber": "189"
                    },
                    "distance": 1331.63289933,
                    "sims": 0.9934520133194978
                },
                {
                    "id": 12411707541,
                    "tags": {
                        "addr:street": "Ray Road",
                        "addr:housenumber": "10"
                    },
                    "distance": 968.62896215,
                    "sims": 0.9933726795467591
                },
                {
                    "id": 12418980175,
                    "tags": {
                        "addr:street": "Newhaven Road",
                        "addr:housenumber": "5"
                    },
                    "distance": 1201.12374439,
                    "sims": 0.9933443077392282
                },
                {
                    "id": 12418982027,
                    "tags": {
                        "addr:unit": "1",
                        "addr:street": "Burwood Highway",
                        "addr:housenumber": "241"
                    },
                    "distance": 1228.71859181,
                    "sims": 0.9933214787649386
                },
                {
                    "id": 12418981870,
                    "tags": {
                        "addr:street": "Burwood Highway",
                        "addr:housenumber": "232"
                    },
                    "distance": 1165.97577838,
                    "sims": 0.9932731398018503
                },
                {
                    "id": 12418981871,
                    "tags": {
                        "addr:street": "Burwood Highway",
                        "addr:housenumber": "283"
                    },
                    "distance": 1283.88991779,
                    "sims": 0.9932574637821431
                },
                {
                    "id": 12418981784,
                    "tags": {
                        "addr:street": "Jade Circuit",
                        "addr:housenumber": "3"
                    },
                    "distance": 1524.41506664,
                    "sims": 0.9932353504615675
                },
                {
                    "id": 12418979477,
                    "tags": {
                        "addr:street": "Lakeside Drive",
                        "addr:housenumber": "5-5B"
                    },
                    "distance": 1468.22158215,
                    "sims": 0.9932210453485267
                },
                {
                    "id": 12418981041,
                    "tags": {
                        "addr:street": "Sevenoaks Road",
                        "addr:housenumber": "20"
                    },
                    "distance": 1000.35041538,
                    "sims": 0.9932186019625797
                }
            ]
        },
        "20": {
            "execution_time": 0.18224048614501953,
            "results": [
                {
                    "id": 9650949826,
                    "tags": {
                        "bus": "yes",
                        "name": "Amaroo Court",
                        "highway": "bus_stop",
                        "public_transport": "platform"
                    },
                    "distance": 1138.33470469,
                    "sims": 0.9949253812654829
                },
                {
                    "id": 9660864976,
                    "tags": {
                        "bus": "yes",
                        "name": "Ryefield Court",
                        "highway": "bus_stop",
                        "network": "PTV - Metropolitan Buses",
                        "network:wikidata": "Q7257648",
                        "public_transport": "platform",
                        "network:wikipedia": "en:Public Transport Victoria"
                    },
                    "distance": 1468.49482238,
                    "sims": 0.9949141755956047
                },
                {
                    "id": 12418340255,
                    "tags": {
                        "addr:street": "Wensley Street",
                        "addr:housenumber": "32-34"
                    },
                    "distance": 952.70459425,
                    "sims": 0.9945465342561958
                },
                {
                    "id": 9650949833,
                    "tags": {
                        "bus": "yes",
                        "name": "Chisholm Court",
                        "highway": "bus_stop",
                        "public_transport": "platform"
                    },
                    "distance": 1090.69911523,
                    "sims": 0.9943423877342688
                },
                {
                    "id": 3345300340,
                    "tags": {
                        "name": "Coles",
                        "shop": "supermarket",
                        "brand": "Coles",
                        "website": "https://www.coles.com.au/",
                        "operator": "Coles Group",
                        "addr:street": "Main Hurstbridge Road",
                        "brand:wikidata": "Q1108172",
                        "brand:wikipedia": "en:Coles Supermarkets",
                        "addr:housenumber": "67",
                        "operator:wikidata": "Q1339055"
                    },
                    "distance": 945.99374042,
                    "sims": 0.9943305563833507
                },
                {
                    "id": 12418338896,
                    "tags": {
                        "addr:street": "Fyffe Street",
                        "addr:housenumber": "39"
                    },
                    "distance": 476.93422768,
                    "sims": 0.9943182481960942
                },
                {
                    "id": 12418325136,
                    "tags": {
                        "addr:unit": "15",
                        "addr:street": "Fraser Street",
                        "addr:housenumber": "50"
                    },
                    "distance": 529.21203142,
                    "sims": 0.9942648424471083
                },
                {
                    "id": 9107250877,
                    "tags": {
                        "name": "Bakers Delight",
                        "shop": "bakery",
                        "brand": "Bakers Delight",
                        "addr:state": "VIC",
                        "addr:street": "Main Hurstbridge Road",
                        "addr:suburb": "Diamond Creek",
                        "addr:postcode": "3089",
                        "brand:wikidata": "Q4849261",
                        "brand:wikipedia": "en:Bakers Delight",
                        "addr:housenumber": "62B"
                    },
                    "distance": 832.26701651,
                    "sims": 0.9942201982343284
                },
                {
                    "id": 12418339834,
                    "tags": {
                        "addr:unit": "7",
                        "addr:street": "Fyffe Street",
                        "addr:housenumber": "20"
                    },
                    "distance": 434.14012572,
                    "sims": 0.9942094097955532
                },
                {
                    "id": 12418339975,
                    "tags": {
                        "addr:unit": "4",
                        "addr:street": "Norma Street",
                        "addr:housenumber": "2A"
                    },
                    "distance": 577.14489678,
                    "sims": 0.9941873564273744
                }
            ]
        },
        "21": {
            "execution_time": 0.18479013442993164,
            "results": [
                {
                    "id": 12410826572,
                    "tags": {
                        "addr:street": "Heffernan Walk",
                        "addr:housenumber": "13"
                    },
                    "distance": 346.87003932,
                    "sims": 0.9980381125326169
                },
                {
                    "id": 12410826602,
                    "tags": {
                        "addr:street": "Heffernan Walk",
                        "addr:housenumber": "26"
                    },
                    "distance": 391.48996592,
                    "sims": 0.9980140022690245
                },
                {
                    "id": 12418100520,
                    "tags": {
                        "addr:street": "Pizzey Walk",
                        "addr:housenumber": "6"
                    },
                    "distance": 322.72011186,
                    "sims": 0.9979975217574278
                },
                {
                    "id": 12418104854,
                    "tags": {
                        "addr:street": "Oriel Road",
                        "addr:housenumber": "182"
                    },
                    "distance": 451.70191894,
                    "sims": 0.9979162803539459
                },
                {
                    "id": 12418104817,
                    "tags": {
                        "addr:street": "Morotai Parade",
                        "addr:housenumber": "19"
                    },
                    "distance": 477.05361033,
                    "sims": 0.9978682092514193
                },
                {
                    "id": 12418104815,
                    "tags": {
                        "addr:street": "Morotai Parade",
                        "addr:housenumber": "23"
                    },
                    "distance": 454.82735526,
                    "sims": 0.9978412979369132
                },
                {
                    "id": 12410831778,
                    "tags": {
                        "addr:street": "Morotai Parade",
                        "addr:housenumber": "28"
                    },
                    "distance": 468.92652554,
                    "sims": 0.9977632158289871
                },
                {
                    "id": 12410826837,
                    "tags": {
                        "addr:street": "Lawson Parade",
                        "addr:housenumber": "4"
                    },
                    "distance": 627.62384759,
                    "sims": 0.9977183332460569
                },
                {
                    "id": 12410831010,
                    "tags": {
                        "addr:street": "Oriel Road",
                        "addr:housenumber": "238"
                    },
                    "distance": 649.98232355,
                    "sims": 0.9977113596361415
                },
                {
                    "id": 12418105596,
                    "tags": {
                        "addr:street": "Bridgeford Court",
                        "addr:housenumber": "2"
                    },
                    "distance": 163.64249998,
                    "sims": 0.99770799190419
                }
            ]
        },
        "22": {
            "execution_time": 0.18638038635253906,
            "results": [
                {
                    "id": 10731128939,
                    "tags": {
                        "bin": "no",
                        "bus": "yes",
                        "name": "Childs Rd/Prince Of Wales Ave",
                        "bench": "no",
                        "highway": "bus_stop",
                        "network": "PTV - Metropolitan Buses",
                        "shelter": "no",
                        "operator": "Dysons",
                        "tactile_paving": "yes",
                        "departures_board": "timetable",
                        "public_transport": "platform"
                    },
                    "distance": 176.78664469,
                    "sims": 0.9957227717107523
                },
                {
                    "id": 12418389085,
                    "tags": {
                        "addr:unit": "2",
                        "addr:street": "Devlin Court",
                        "addr:housenumber": "13"
                    },
                    "distance": 240.37445383,
                    "sims": 0.9953809394297626
                },
                {
                    "id": 12418387650,
                    "tags": {
                        "addr:unit": "1",
                        "addr:street": "Devlin Court",
                        "addr:housenumber": "13"
                    },
                    "distance": 243.05157547,
                    "sims": 0.9953674091794309
                },
                {
                    "id": 12418385602,
                    "tags": {
                        "addr:street": "Devlin Court",
                        "addr:housenumber": "3"
                    },
                    "distance": 205.04171743,
                    "sims": 0.9952927243012292
                },
                {
                    "id": 12411538127,
                    "tags": {
                        "addr:street": "Roycroft Avenue",
                        "addr:housenumber": "62"
                    },
                    "distance": 784.24478854,
                    "sims": 0.9951763766373524
                },
                {
                    "id": 12411538139,
                    "tags": {
                        "addr:street": "Freeman Crescent",
                        "addr:housenumber": "11"
                    },
                    "distance": 676.25902645,
                    "sims": 0.9951686870650244
                },
                {
                    "id": 12411540594,
                    "tags": {
                        "addr:street": "Boyle Crescent",
                        "addr:housenumber": "27"
                    },
                    "distance": 978.63572777,
                    "sims": 0.9951666610837285
                },
                {
                    "id": 12411539263,
                    "tags": {
                        "addr:street": "Birch Court",
                        "addr:housenumber": "1"
                    },
                    "distance": 980.92610194,
                    "sims": 0.9951487796966908
                },
                {
                    "id": 12418386386,
                    "tags": {
                        "addr:street": "Konrads Crescent",
                        "addr:housenumber": "59"
                    },
                    "distance": 826.42086126,
                    "sims": 0.9951193347218077
                },
                {
                    "id": 12411539532,
                    "tags": {
                        "addr:street": "Henry Cable Court",
                        "addr:housenumber": "5"
                    },
                    "distance": 539.76728853,
                    "sims": 0.9951093208529821
                }
            ]
        },
        "23": {
            "execution_time": 0.18251490592956543,
            "results": [
                {
                    "id": 12419108244,
                    "tags": {
                        "addr:street": "Outlook Drive",
                        "addr:housenumber": "88"
                    },
                    "distance": 275.02282067,
                    "sims": 0.9958393272017836
                },
                {
                    "id": 12419158228,
                    "tags": {
                        "addr:street": "Duranta Drive",
                        "addr:housenumber": "34"
                    },
                    "distance": 510.07658453,
                    "sims": 0.9957839542305406
                },
                {
                    "id": 12412055803,
                    "tags": {
                        "addr:street": "Holly Court",
                        "addr:housenumber": "11"
                    },
                    "distance": 707.26275101,
                    "sims": 0.9957296843206506
                },
                {
                    "id": 12411981687,
                    "tags": {
                        "addr:street": "Outlook Drive",
                        "addr:housenumber": "111"
                    },
                    "distance": 94.82103188,
                    "sims": 0.9956534799027579
                },
                {
                    "id": 12412055943,
                    "tags": {
                        "addr:street": "Orchid Court",
                        "addr:housenumber": "3"
                    },
                    "distance": 587.62254363,
                    "sims": 0.9956439134862389
                },
                {
                    "id": 12419158254,
                    "tags": {
                        "addr:unit": "S",
                        "addr:street": "Duranta Drive",
                        "addr:housenumber": "3"
                    },
                    "distance": 544.72745983,
                    "sims": 0.9955298897939873
                },
                {
                    "id": 12412056034,
                    "tags": {
                        "addr:street": "Marigold Crescent",
                        "addr:housenumber": "59"
                    },
                    "distance": 641.1821963,
                    "sims": 0.9955270285042558
                },
                {
                    "id": 12412056019,
                    "tags": {
                        "addr:street": "Marigold Crescent",
                        "addr:housenumber": "7"
                    },
                    "distance": 586.57185467,
                    "sims": 0.9955208296204602
                },
                {
                    "id": 12419108356,
                    "tags": {
                        "addr:street": "Moonee Boulevard",
                        "addr:housenumber": "6"
                    },
                    "distance": 725.14015936,
                    "sims": 0.9955035739397372
                },
                {
                    "id": 12419157944,
                    "tags": {
                        "addr:street": "Hannah Pascoe Drive",
                        "addr:housenumber": "10"
                    },
                    "distance": 668.92857527,
                    "sims": 0.9954569037667134
                }
            ]
        },
        "24": {
            "execution_time": 0.18293166160583496,
            "results": [
                {
                    "id": 2713409030,
                    "tags": {
                        "name": "Diggers Rest",
                        "train": "yes",
                        "railway": "stop",
                        "public_transport": "stop_position"
                    },
                    "distance": 4486.2958366,
                    "sims": 0.9928436845485712
                },
                {
                    "id": 8265868890,
                    "tags": {
                        "name": "Foodworks",
                        "shop": "supermarket",
                        "brand": "Foodworks",
                        "brand:wikidata": "Q5465579",
                        "brand:wikipedia": "en:FoodWorks"
                    },
                    "distance": 2093.88702174,
                    "sims": 0.9917290176215513
                },
                {
                    "id": 12099989743,
                    "tags": {
                        "amenity": "charging_station",
                        "operator": "Chargefox",
                        "socket:type2": "8",
                        "operator:wikidata": "Q105775824"
                    },
                    "distance": 2492.98770954,
                    "sims": 0.9915229041686235
                },
                {
                    "id": 12420132152,
                    "tags": {
                        "addr:street": "Watsons Road",
                        "addr:housenumber": "97"
                    },
                    "distance": 4224.17485226,
                    "sims": 0.9914719717212113
                },
                {
                    "id": 8382867670,
                    "tags": {
                        "bus": "yes",
                        "ref": "ID.44198",
                        "name": "Wilsons Lane/Charter Road West",
                        "highway": "bus_stop",
                        "network": "PTV - Metropolitan Buses",
                        "public_transport": "platform"
                    },
                    "distance": 1206.44760729,
                    "sims": 0.9914649093303569
                },
                {
                    "id": 348189212,
                    "tags": {
                        "amenity": "toilets"
                    },
                    "distance": 4668.31571338,
                    "sims": 0.9914085228007582
                },
                {
                    "id": 12420134628,
                    "tags": {
                        "addr:street": "Deakin Street",
                        "addr:housenumber": "42"
                    },
                    "distance": 990.4468327,
                    "sims": 0.9913899857473939
                },
                {
                    "id": 12420137993,
                    "tags": {
                        "addr:street": "Masonry Avenue",
                        "addr:housenumber": "17"
                    },
                    "distance": 1807.99958572,
                    "sims": 0.9913149434638387
                },
                {
                    "id": 12420106108,
                    "tags": {
                        "addr:street": "Buckley Road",
                        "addr:housenumber": "10"
                    },
                    "distance": 3481.89275263,
                    "sims": 0.9913121425620584
                },
                {
                    "id": 12417835307,
                    "tags": {
                        "addr:street": "Davenport Drive",
                        "addr:housenumber": "58"
                    },
                    "distance": 695.74153685,
                    "sims": 0.991258498880439
                }
            ]
        },
        "25": {
            "execution_time": 0.18247103691101074,
            "results": [
                {
                    "id": 2245998689,
                    "tags": {
                        "ref": "45",
                        "name": "Stop 45: Hardwicke Street",
                        "tram": "yes",
                        "network": "PTV - Metropolitan Trams",
                        "railway": "tram_stop",
                        "operator": "Keolis Downer",
                        "network:wikidata": "Q7257648",
                        "public_transport": "stop_position",
                        "operator:wikidata": "Q6328065"
                    },
                    "distance": 341.04048097,
                    "sims": 0.9960166230142555
                },
                {
                    "id": 2245998688,
                    "tags": {
                        "ref": "45",
                        "name": "Stop 45: Hardwicke Street",
                        "tram": "yes",
                        "network": "PTV - Metropolitan Trams",
                        "railway": "tram_stop",
                        "operator": "Keolis Downer",
                        "network:wikidata": "Q7257648",
                        "public_transport": "stop_position",
                        "operator:wikidata": "Q6328065"
                    },
                    "distance": 370.36895214,
                    "sims": 0.9960166230142555
                },
                {
                    "id": 12418269073,
                    "tags": {
                        "addr:unit": "3",
                        "addr:street": "Barnsbury Road",
                        "addr:housenumber": "19"
                    },
                    "distance": 413.59621498,
                    "sims": 0.9960030326836669
                },
                {
                    "id": 12418269050,
                    "tags": {
                        "addr:unit": "8",
                        "addr:street": "Barnsbury Road",
                        "addr:housenumber": "30"
                    },
                    "distance": 264.87761359,
                    "sims": 0.9959562430486737
                },
                {
                    "id": 12418296343,
                    "tags": {
                        "addr:unit": "2",
                        "addr:street": "Barnsbury Road",
                        "addr:housenumber": "38"
                    },
                    "distance": 227.45147427,
                    "sims": 0.9959243548142295
                },
                {
                    "id": 12157108843,
                    "tags": {
                        "building": "yes",
                        "addr:street": "Canyon Street",
                        "addr:housenumber": "8"
                    },
                    "distance": 487.29333627,
                    "sims": 0.99592214944303
                },
                {
                    "id": 10211772121,
                    "tags": {
                        "amenity": "bench",
                        "backrest": "yes"
                    },
                    "distance": 417.36011647,
                    "sims": 0.9958934796174373
                },
                {
                    "id": 12418314476,
                    "tags": {
                        "addr:street": "Reid Street",
                        "addr:housenumber": "10"
                    },
                    "distance": 577.77415539,
                    "sims": 0.9958850751197796
                },
                {
                    "id": 12411478647,
                    "tags": {
                        "addr:flats": "1-2",
                        "addr:street": "Kitchener Street",
                        "addr:housenumber": "39"
                    },
                    "distance": 147.97862781,
                    "sims": 0.9958770584198317
                },
                {
                    "id": 12411498119,
                    "tags": {
                        "addr:street": "Crest Avenue",
                        "addr:housenumber": "2"
                    },
                    "distance": 330.58798593,
                    "sims": 0.9958744058909086
                }
            ]
        },
        "26": {
            "execution_time": 0.18078947067260742,
            "results": [
                {
                    "id": 12414262598,
                    "tags": {
                        "addr:street": "Robbs Road",
                        "addr:housenumber": "107"
                    },
                    "distance": 1695.69958325,
                    "sims": 0.9941537411580724
                },
                {
                    "id": 12414262304,
                    "tags": {
                        "addr:street": "Robbs Road",
                        "addr:housenumber": "125"
                    },
                    "distance": 1619.96022485,
                    "sims": 0.9941126132734512
                },
                {
                    "id": 12414262696,
                    "tags": {
                        "addr:street": "Aviation Road",
                        "addr:housenumber": "835"
                    },
                    "distance": 573.63431091,
                    "sims": 0.9940375714123544
                },
                {
                    "id": 12420290428,
                    "tags": {
                        "addr:street": "Aviation Road",
                        "addr:housenumber": "785"
                    },
                    "distance": 0.0,
                    "sims": 0.9940022255173846
                },
                {
                    "id": 12420289961,
                    "tags": {
                        "addr:street": "Aviation Road",
                        "addr:housenumber": "733"
                    },
                    "distance": 459.5796714,
                    "sims": 0.9937858015128764
                },
                {
                    "id": 12414262319,
                    "tags": {
                        "addr:street": "Robbs Road",
                        "addr:housenumber": "21"
                    },
                    "distance": 2066.3294827,
                    "sims": 0.99341923273008
                },
                {
                    "id": 12420290356,
                    "tags": {
                        "addr:street": "Campbells Cove Road",
                        "addr:housenumber": "147"
                    },
                    "distance": 1715.67534551,
                    "sims": 0.9932990098123452
                },
                {
                    "id": 12420289765,
                    "tags": {
                        "addr:street": "Campbells Cove Road",
                        "addr:housenumber": "26"
                    },
                    "distance": 2218.92287256,
                    "sims": 0.9932966856315524
                },
                {
                    "id": 12420289756,
                    "tags": {
                        "addr:street": "Campbells Cove Road",
                        "addr:housenumber": "68"
                    },
                    "distance": 2082.56252502,
                    "sims": 0.9932628902136054
                },
                {
                    "id": 12420289741,
                    "tags": {
                        "addr:street": "Campbells Cove Road",
                        "addr:housenumber": "131"
                    },
                    "distance": 1735.65852743,
                    "sims": 0.9932390483670639
                }
            ]
        },
        "27": {
            "execution_time": 0.18252253532409668,
            "results": [
                {
                    "id": 12413700699,
                    "tags": {
                        "addr:street": "Jillian Street",
                        "addr:housenumber": "11"
                    },
                    "distance": 1906.37458087,
                    "sims": 0.9980999230206127
                },
                {
                    "id": 12420319838,
                    "tags": {
                        "addr:street": "Talc Street",
                        "addr:housenumber": "27"
                    },
                    "distance": 1330.58304813,
                    "sims": 0.998017608883103
                },
                {
                    "id": 12413704225,
                    "tags": {
                        "addr:street": "Russell Street",
                        "addr:housenumber": "4"
                    },
                    "distance": 869.65975307,
                    "sims": 0.9980139135130752
                },
                {
                    "id": 12414305091,
                    "tags": {
                        "addr:street": "Hendrix Street",
                        "addr:housenumber": "7"
                    },
                    "distance": 233.36600729,
                    "sims": 0.9980124232783893
                },
                {
                    "id": 12414300171,
                    "tags": {
                        "addr:street": "Welcomen Street",
                        "addr:housenumber": "34"
                    },
                    "distance": 408.12912742,
                    "sims": 0.9980075654398788
                },
                {
                    "id": 12420102780,
                    "tags": {
                        "addr:street": "Sladen Street",
                        "addr:housenumber": "167"
                    },
                    "distance": 1013.35505596,
                    "sims": 0.9979832767238346
                },
                {
                    "id": 12414303563,
                    "tags": {
                        "addr:street": "Anice Street",
                        "addr:housenumber": "2"
                    },
                    "distance": 641.07757779,
                    "sims": 0.9979811904408038
                },
                {
                    "id": 12413703293,
                    "tags": {
                        "addr:street": "Scott Street",
                        "addr:housenumber": "29"
                    },
                    "distance": 1490.9217102,
                    "sims": 0.997978448506318
                },
                {
                    "id": 12420318647,
                    "tags": {
                        "addr:street": "Annabella Street",
                        "addr:housenumber": "11"
                    },
                    "distance": 274.33152159,
                    "sims": 0.9979512390421728
                },
                {
                    "id": 12414303940,
                    "tags": {
                        "addr:street": "Nelson Street",
                        "addr:housenumber": "63"
                    },
                    "distance": 1226.07911841,
                    "sims": 0.9979507622049435
                }
            ]
        },
        "28": {
            "execution_time": 0.1873009204864502,
            "results": [
                {
                    "id": 7882136695,
                    "tags": {
                        "building": "yes",
                        "addr:street": "The Grange",
                        "addr:housenumber": "37"
                    },
                    "distance": 1112.62267674,
                    "sims": 0.9940834644983152
                },
                {
                    "id": 10005956938,
                    "tags": {
                        "amenity": "waste_basket"
                    },
                    "distance": 466.12935212,
                    "sims": 0.9939617525407536
                },
                {
                    "id": 12418374167,
                    "tags": {
                        "addr:unit": "1",
                        "addr:street": "Williamsons Road",
                        "addr:housenumber": "252"
                    },
                    "distance": 1220.05453405,
                    "sims": 0.993827522168905
                },
                {
                    "id": 12418370903,
                    "tags": {
                        "addr:street": "Caprice Court",
                        "addr:housenumber": "4"
                    },
                    "distance": 1077.3883553,
                    "sims": 0.9938203696119583
                },
                {
                    "id": 7799593653,
                    "tags": {
                        "leisure": "playground"
                    },
                    "distance": 1520.95416218,
                    "sims": 0.9938007000803548
                },
                {
                    "id": 12418379911,
                    "tags": {
                        "addr:unit": "1",
                        "addr:street": "Ballamore Crescent",
                        "addr:housenumber": "32"
                    },
                    "distance": 292.8805246,
                    "sims": 0.9937954844893411
                },
                {
                    "id": 12418373816,
                    "tags": {
                        "addr:unit": "6",
                        "addr:street": "Williamsons Road",
                        "addr:housenumber": "252"
                    },
                    "distance": 1184.63563477,
                    "sims": 0.993748009577514
                },
                {
                    "id": 10005956923,
                    "tags": {
                        "amenity": "bench"
                    },
                    "distance": 375.57035768,
                    "sims": 0.9937472347171781
                },
                {
                    "id": 12418374405,
                    "tags": {
                        "addr:unit": "1",
                        "addr:street": "The Grange",
                        "addr:housenumber": "29"
                    },
                    "distance": 1048.0033399,
                    "sims": 0.993729830161941
                },
                {
                    "id": 12418375757,
                    "tags": {
                        "addr:street": "Henry Street",
                        "addr:housenumber": "29"
                    },
                    "distance": 475.03229402,
                    "sims": 0.993680238723762
                }
            ]
        },
        "29": {
            "execution_time": 0.18942022323608398,
            "results": [
                {
                    "id": 12418332035,
                    "tags": {
                        "addr:street": "Dalton Street",
                        "addr:housenumber": "73"
                    },
                    "distance": 29.84759888,
                    "sims": 0.996249137520492
                },
                {
                    "id": 12418332071,
                    "tags": {
                        "addr:street": "Dalton Street",
                        "addr:housenumber": "114"
                    },
                    "distance": 320.8586246,
                    "sims": 0.9962224643166433
                },
                {
                    "id": 12418332070,
                    "tags": {
                        "addr:street": "Dalton Street",
                        "addr:housenumber": "112"
                    },
                    "distance": 303.886707,
                    "sims": 0.9961692076537347
                },
                {
                    "id": 12418335291,
                    "tags": {
                        "addr:unit": "7",
                        "addr:street": "Bridge Street",
                        "addr:housenumber": "62"
                    },
                    "distance": 580.49483664,
                    "sims": 0.9961455448282491
                },
                {
                    "id": 12418335813,
                    "tags": {
                        "addr:unit": "2",
                        "addr:street": "Pitt Street",
                        "addr:housenumber": "64"
                    },
                    "distance": 415.61162462,
                    "sims": 0.9960947015794378
                },
                {
                    "id": 12418336038,
                    "tags": {
                        "addr:unit": "24",
                        "addr:street": "Bridge Street",
                        "addr:housenumber": "64"
                    },
                    "distance": 563.35850724,
                    "sims": 0.9960630514960837
                },
                {
                    "id": 12418335398,
                    "tags": {
                        "addr:unit": "1",
                        "addr:street": "Dalton Street",
                        "addr:housenumber": "77"
                    },
                    "distance": 0.0,
                    "sims": 0.9960525017036148
                },
                {
                    "id": 12418335499,
                    "tags": {
                        "addr:street": "Pitt Street",
                        "addr:housenumber": "95"
                    },
                    "distance": 408.94163223,
                    "sims": 0.995973942744341
                },
                {
                    "id": 12418331303,
                    "tags": {
                        "addr:street": "Arthur Street",
                        "addr:housenumber": "46"
                    },
                    "distance": 1182.08062045,
                    "sims": 0.995970604882642
                },
                {
                    "id": 12418335114,
                    "tags": {
                        "addr:unit": "1",
                        "addr:street": "Pitt Street",
                        "addr:housenumber": "60"
                    },
                    "distance": 461.43147846,
                    "sims": 0.99596267770178
                }
            ]
        },
        "30": {
            "execution_time": 0.17862844467163086,
            "results": [
                {
                    "id": 12643310348,
                    "tags": {
                        "amenity": "bench"
                    },
                    "distance": 1626.85392423,
                    "sims": 0.9978252651899808
                },
                {
                    "id": 10239585577,
                    "tags": {
                        "bin": "no",
                        "bus": "yes",
                        "lit": "no",
                        "ref": "3022",
                        "name": "Sydney Parkinson Reserve/James Cook Drive",
                        "bench": "no",
                        "highway": "bus_stop",
                        "shelter": "no",
                        "tactile_paving": "yes",
                        "public_transport": "platform"
                    },
                    "distance": 674.31688091,
                    "sims": 0.9977476599517345
                },
                {
                    "id": 12419857045,
                    "tags": {
                        "addr:street": "Robert Molyneux Avenue",
                        "addr:housenumber": "41"
                    },
                    "distance": 352.80606062,
                    "sims": 0.9974635246439618
                },
                {
                    "id": 12419857348,
                    "tags": {
                        "addr:street": "Sydney Parkinson Avenue",
                        "addr:housenumber": "27"
                    },
                    "distance": 838.46724601,
                    "sims": 0.9973125462569231
                },
                {
                    "id": 12419853685,
                    "tags": {
                        "addr:street": "Lambert Court",
                        "addr:housenumber": "6"
                    },
                    "distance": 185.00950525,
                    "sims": 0.9973039927508949
                },
                {
                    "id": 12419855266,
                    "tags": {
                        "addr:street": "Sydney Parkinson Avenue",
                        "addr:housenumber": "15"
                    },
                    "distance": 779.24174534,
                    "sims": 0.9972993734718186
                },
                {
                    "id": 12412502879,
                    "tags": {
                        "addr:street": "Paul Court",
                        "addr:housenumber": "3"
                    },
                    "distance": 474.09026486,
                    "sims": 0.9972492160872437
                },
                {
                    "id": 12419897184,
                    "tags": {
                        "addr:street": "Cone Street",
                        "addr:housenumber": "10"
                    },
                    "distance": 1285.99576481,
                    "sims": 0.9972439707147108
                },
                {
                    "id": 12412503382,
                    "tags": {
                        "addr:flats": "1-2",
                        "addr:street": "Arthur Phillip Drive",
                        "addr:housenumber": "11"
                    },
                    "distance": 584.22688584,
                    "sims": 0.9972432855077712
                },
                {
                    "id": 12419857964,
                    "tags": {
                        "addr:unit": "2",
                        "addr:street": "Preston Avenue",
                        "addr:housenumber": "59"
                    },
                    "distance": 61.61604996,
                    "sims": 0.9972248080700935
                }
            ]
        },
        "31": {
            "execution_time": 0.19016218185424805,
            "results": [
                {
                    "id": 6373301879,
                    "tags": {
                        "name": "Charcoal Chickens",
                        "amenity": "fast_food"
                    },
                    "distance": 877.07749796,
                    "sims": 0.9961264421087259
                },
                {
                    "id": 9443885141,
                    "tags": {
                        "leisure": "picnic_table"
                    },
                    "distance": 1149.49164314,
                    "sims": 0.996013193253277
                },
                {
                    "id": 12419878062,
                    "tags": {
                        "addr:street": "Poltava Walk",
                        "addr:housenumber": "13"
                    },
                    "distance": 932.22825217,
                    "sims": 0.995618789474169
                },
                {
                    "id": 12413507466,
                    "tags": {
                        "addr:street": "Watervale Boulevard",
                        "addr:housenumber": "68"
                    },
                    "distance": 373.05100909,
                    "sims": 0.9955964374652249
                },
                {
                    "id": 12413507458,
                    "tags": {
                        "addr:street": "Watervale Boulevard",
                        "addr:housenumber": "71"
                    },
                    "distance": 400.82550501,
                    "sims": 0.9955950072159423
                },
                {
                    "id": 12419878056,
                    "tags": {
                        "addr:street": "Poltava Walk",
                        "addr:housenumber": "21"
                    },
                    "distance": 932.49434741,
                    "sims": 0.9955882718896776
                },
                {
                    "id": 12413507439,
                    "tags": {
                        "addr:street": "Watervale Boulevard",
                        "addr:housenumber": "54"
                    },
                    "distance": 258.52531928,
                    "sims": 0.9955881224835567
                },
                {
                    "id": 12419877913,
                    "tags": {
                        "addr:street": "Poltava Walk",
                        "addr:housenumber": "26"
                    },
                    "distance": 981.58719474,
                    "sims": 0.995522348871897
                },
                {
                    "id": 12413523213,
                    "tags": {
                        "addr:street": "Penghana Place",
                        "addr:housenumber": "7"
                    },
                    "distance": 1316.99298737,
                    "sims": 0.9955054214161558
                },
                {
                    "id": 12419877903,
                    "tags": {
                        "addr:street": "Poltava Walk",
                        "addr:housenumber": "2"
                    },
                    "distance": 965.73064381,
                    "sims": 0.9954685854678891
                }
            ]
        },
        "32": {
            "execution_time": 0.18004393577575684,
            "results": [
                {
                    "id": 12495150658,
                    "tags": {
                        "bus": "yes",
                        "name": "Beverage Drive/Tullamarine Park Road",
                        "highway": "bus_stop",
                        "network": "PTV - Metropolitan Buses",
                        "route_ref": "482",
                        "public_transport": "platform"
                    },
                    "distance": 768.08502034,
                    "sims": 0.9944989358629993
                },
                {
                    "id": 12412217488,
                    "tags": {
                        "addr:unit": "2",
                        "addr:street": "Gordon Street",
                        "addr:housenumber": "52"
                    },
                    "distance": 859.44761332,
                    "sims": 0.9943808883088268
                },
                {
                    "id": 12412217657,
                    "tags": {
                        "addr:unit": "2",
                        "addr:street": "Eumarella Street",
                        "addr:housenumber": "30"
                    },
                    "distance": 707.394592,
                    "sims": 0.9943526356920473
                },
                {
                    "id": 4507120289,
                    "tags": {
                        "building": "yes",
                        "addr:street": "Allied Avenue",
                        "addr:housenumber": "47"
                    },
                    "distance": 276.65089058,
                    "sims": 0.9943478982994625
                },
                {
                    "id": 12412216590,
                    "tags": {
                        "addr:unit": "4",
                        "addr:street": "Eumarella Street",
                        "addr:housenumber": "28"
                    },
                    "distance": 700.50574089,
                    "sims": 0.9943265002249733
                },
                {
                    "id": 12412216480,
                    "tags": {
                        "addr:flats": "1-5",
                        "addr:street": "Broadmeadows Road",
                        "addr:housenumber": "23"
                    },
                    "distance": 722.84430802,
                    "sims": 0.9942837626584312
                },
                {
                    "id": 12412216712,
                    "tags": {
                        "addr:unit": "1",
                        "addr:street": "Eumarella Street",
                        "addr:housenumber": "30A"
                    },
                    "distance": 728.5452722,
                    "sims": 0.9942444831776237
                },
                {
                    "id": 12412142633,
                    "tags": {
                        "addr:street": "Janus Street",
                        "addr:housenumber": "31A"
                    },
                    "distance": 1296.10192504,
                    "sims": 0.9942382250302049
                },
                {
                    "id": 12412216515,
                    "tags": {
                        "addr:unit": "2",
                        "addr:street": "Broadmeadows Road",
                        "addr:housenumber": "28"
                    },
                    "distance": 753.20816063,
                    "sims": 0.9941995712279095
                },
                {
                    "id": 10671965521,
                    "tags": {
                        "building": "yes",
                        "addr:street": "Victory Street",
                        "addr:housenumber": "116"
                    },
                    "distance": 1115.26641726,
                    "sims": 0.9941707528896352
                }
            ]
        },
        "33": {
            "execution_time": 0.17720484733581543,
            "results": [
                {
                    "id": 12417737690,
                    "tags": {
                        "addr:street": "Wool Street",
                        "addr:housenumber": "15"
                    },
                    "distance": 1904.0557633,
                    "sims": 0.9963240018664048
                },
                {
                    "id": 12417735193,
                    "tags": {
                        "addr:street": "Coffey Street",
                        "addr:housenumber": "3"
                    },
                    "distance": 2166.23949542,
                    "sims": 0.9960380783172478
                },
                {
                    "id": 12417735173,
                    "tags": {
                        "addr:street": "Coffey Street",
                        "addr:housenumber": "9"
                    },
                    "distance": 2203.75352991,
                    "sims": 0.9959852381887682
                },
                {
                    "id": 12417734137,
                    "tags": {
                        "addr:street": "Napier Street",
                        "addr:housenumber": "28"
                    },
                    "distance": 2160.27083604,
                    "sims": 0.995959221353409
                },
                {
                    "id": 12417770257,
                    "tags": {
                        "addr:street": "Kambah Street",
                        "addr:housenumber": "25"
                    },
                    "distance": 2845.48838991,
                    "sims": 0.9959553470505749
                },
                {
                    "id": 12417769656,
                    "tags": {
                        "addr:street": "Conondale Street",
                        "addr:housenumber": "37"
                    },
                    "distance": 3070.37479486,
                    "sims": 0.9959522471257423
                },
                {
                    "id": 12417741691,
                    "tags": {
                        "addr:street": "Elsmore Street",
                        "addr:housenumber": "32"
                    },
                    "distance": 2562.79775535,
                    "sims": 0.9959511445600925
                },
                {
                    "id": 12417770255,
                    "tags": {
                        "addr:street": "Kambah Street",
                        "addr:housenumber": "10"
                    },
                    "distance": 2864.3608669,
                    "sims": 0.9959498033344325
                },
                {
                    "id": 12417739837,
                    "tags": {
                        "addr:street": "Kirrama Street",
                        "addr:housenumber": "28"
                    },
                    "distance": 2552.87658486,
                    "sims": 0.9959405349298444
                },
                {
                    "id": 12417744895,
                    "tags": {
                        "addr:street": "Adina Street",
                        "addr:housenumber": "9"
                    },
                    "distance": 2257.55700517,
                    "sims": 0.9959333524465912
                }
            ]
        },
        "34": {
            "execution_time": 0.17763996124267578,
            "results": [
                {
                    "id": 9593395914,
                    "tags": {
                        "lit": "no",
                        "hoops": "2",
                        "sport": "basketball",
                        "access": "yes",
                        "leisure": "pitch",
                        "surface": "concrete"
                    },
                    "distance": 2761.81025793,
                    "sims": 0.995055587720604
                },
                {
                    "id": 11445879313,
                    "tags": {
                        "bus": "yes",
                        "ref": "21650",
                        "name": "Abbotswood Drive/Tarneit Road",
                        "highway": "bus_stop",
                        "public_transport": "platform"
                    },
                    "distance": 1655.60521336,
                    "sims": 0.9948811549373947
                },
                {
                    "id": 12417737690,
                    "tags": {
                        "addr:street": "Wool Street",
                        "addr:housenumber": "15"
                    },
                    "distance": 1860.85944263,
                    "sims": 0.9946342729068297
                },
                {
                    "id": 11445879351,
                    "tags": {
                        "bus": "yes",
                        "ref": "50120",
                        "name": "Sayers Road/Babele Road",
                        "highway": "bus_stop",
                        "public_transport": "platform"
                    },
                    "distance": 2460.81957856,
                    "sims": 0.9945049904862527
                },
                {
                    "id": 8937440465,
                    "tags": {
                        "name": "Aeroplane Park Playground",
                        "playground": "structure",
                        "wheelchair": "yes",
                        "playground:theme": "aeroplane"
                    },
                    "distance": 3088.77739957,
                    "sims": 0.9944654423261475
                },
                {
                    "id": 11445879356,
                    "tags": {
                        "bus": "yes",
                        "ref": "50123",
                        "name": "Amelie Parade/Bethany Road",
                        "highway": "bus_stop",
                        "public_transport": "platform"
                    },
                    "distance": 2148.7833467,
                    "sims": 0.9943946620007214
                },
                {
                    "id": 12420065918,
                    "tags": {
                        "addr:street": "Kimble Court",
                        "addr:housenumber": "5"
                    },
                    "distance": 500.53460839,
                    "sims": 0.9943944235822275
                },
                {
                    "id": 12417720218,
                    "tags": {
                        "addr:street": "Mirambeek Road",
                        "addr:housenumber": "28"
                    },
                    "distance": 840.11204553,
                    "sims": 0.9943680187340351
                },
                {
                    "id": 12420066018,
                    "tags": {
                        "addr:street": "Kimble Court",
                        "addr:housenumber": "9"
                    },
                    "distance": 561.21732355,
                    "sims": 0.9943196793844098
                },
                {
                    "id": 12420067096,
                    "tags": {
                        "addr:street": "Nerang Court",
                        "addr:housenumber": "1"
                    },
                    "distance": 916.98277359,
                    "sims": 0.9942601343655741
                }
            ]
        },
        "35": {
            "execution_time": 0.17725539207458496,
            "results": [
                {
                    "id": 12420284736,
                    "tags": {
                        "addr:unit": "3",
                        "addr:street": "Northgateway",
                        "addr:housenumber": "6"
                    },
                    "distance": 373.93212072,
                    "sims": 0.9942075310411318
                },
                {
                    "id": 12420284465,
                    "tags": {
                        "addr:unit": "3",
                        "addr:street": "Northgateway",
                        "addr:housenumber": "4"
                    },
                    "distance": 356.39323318,
                    "sims": 0.9941877126693726
                },
                {
                    "id": 12420284331,
                    "tags": {
                        "addr:unit": "9",
                        "addr:street": "Cranbourne Frankston Road",
                        "addr:housenumber": "291"
                    },
                    "distance": 795.53413153,
                    "sims": 0.9941468834877014
                },
                {
                    "id": 6052203145,
                    "tags": {
                        "building": "yes",
                        "addr:street": "Victory Road",
                        "addr:housenumber": "7"
                    },
                    "distance": 3414.73881914,
                    "sims": 0.9941366015117352
                },
                {
                    "id": 12420288161,
                    "tags": {
                        "addr:unit": "2",
                        "addr:street": "Elemes Court",
                        "addr:housenumber": "3"
                    },
                    "distance": 795.24157932,
                    "sims": 0.9940907055816725
                },
                {
                    "id": 12420288706,
                    "tags": {
                        "addr:street": "Chocolate Lily Lane",
                        "addr:housenumber": "4"
                    },
                    "distance": 818.28838672,
                    "sims": 0.9940515157015053
                },
                {
                    "id": 9438703679,
                    "tags": {
                        "name": "Lucky Lotto",
                        "shop": "lottery",
                        "wheelchair": "yes",
                        "opening_hours": "Mo-Fr 09:30-18:00; Sa 09:00-18:00; Su off",
                        "payment:debit_cards": "yes",
                        "payment:credit_cards": "yes"
                    },
                    "distance": 1594.47304767,
                    "sims": 0.9940045475959778
                },
                {
                    "id": 12420289148,
                    "tags": {
                        "addr:street": "Alexandra Mews",
                        "addr:housenumber": "26"
                    },
                    "distance": 1341.19791233,
                    "sims": 0.993981421352542
                },
                {
                    "id": 12420289150,
                    "tags": {
                        "addr:street": "Alexandra Mews",
                        "addr:housenumber": "26S"
                    },
                    "distance": 1340.4115361,
                    "sims": 0.9939786195755005
                },
                {
                    "id": 12414261536,
                    "tags": {
                        "addr:unit": "2",
                        "addr:street": "Noel Road",
                        "addr:housenumber": "15"
                    },
                    "distance": 1088.06133112,
                    "sims": 0.9939661622047424
                }
            ]
        },
        "36": {
            "execution_time": 0.18532991409301758,
            "results": [
                {
                    "id": 12418956477,
                    "tags": {
                        "addr:street": "Finch Place",
                        "addr:housenumber": "10"
                    },
                    "distance": 823.06403116,
                    "sims": 0.9964471465742173
                },
                {
                    "id": 12418957512,
                    "tags": {
                        "addr:street": "Wardle Close",
                        "addr:housenumber": "15"
                    },
                    "distance": 756.31845911,
                    "sims": 0.9963743099274179
                },
                {
                    "id": 12418956681,
                    "tags": {
                        "addr:street": "Meadow Court",
                        "addr:housenumber": "6"
                    },
                    "distance": 506.36308643,
                    "sims": 0.9963655777407335
                },
                {
                    "id": 12418957758,
                    "tags": {
                        "addr:street": "Wardle Close",
                        "addr:housenumber": "11"
                    },
                    "distance": 778.16144151,
                    "sims": 0.9963583957081014
                },
                {
                    "id": 12411696821,
                    "tags": {
                        "addr:street": "Samuel Road",
                        "addr:housenumber": "19"
                    },
                    "distance": 204.66657615,
                    "sims": 0.9963529118650453
                },
                {
                    "id": 12418957495,
                    "tags": {
                        "addr:street": "Wardle Close",
                        "addr:housenumber": "9"
                    },
                    "distance": 775.64400057,
                    "sims": 0.9963279971294693
                },
                {
                    "id": 12418957267,
                    "tags": {
                        "addr:street": "Hunter Drive",
                        "addr:housenumber": "47"
                    },
                    "distance": 918.37848241,
                    "sims": 0.9962943205132003
                },
                {
                    "id": 12418957490,
                    "tags": {
                        "addr:street": "Jobert Court",
                        "addr:housenumber": "9"
                    },
                    "distance": 738.35094897,
                    "sims": 0.9962416300197813
                },
                {
                    "id": 12411697538,
                    "tags": {
                        "addr:street": "Marama Street",
                        "addr:housenumber": "6"
                    },
                    "distance": 813.63673992,
                    "sims": 0.9962353413946953
                },
                {
                    "id": 12418980416,
                    "tags": {
                        "addr:street": "Bonview Crescent",
                        "addr:housenumber": "40"
                    },
                    "distance": 636.41880591,
                    "sims": 0.9962193974925807
                }
            ]
        },
        "37": {
            "execution_time": 0.1804497241973877,
            "results": [
                {
                    "id": 12420289269,
                    "tags": {
                        "addr:street": "Peter Chance Crescent",
                        "addr:housenumber": "25"
                    },
                    "distance": 2792.98242789,
                    "sims": 0.9971976884610548
                },
                {
                    "id": 12420316528,
                    "tags": {
                        "addr:street": "Martlesham Drive",
                        "addr:housenumber": "2"
                    },
                    "distance": 447.70451876,
                    "sims": 0.9971208579252389
                },
                {
                    "id": 12420316209,
                    "tags": {
                        "addr:street": "Ballochmyle Lane",
                        "addr:housenumber": "2"
                    },
                    "distance": 0.0,
                    "sims": 0.9970955855618795
                },
                {
                    "id": 12420288867,
                    "tags": {
                        "addr:street": "Red Wattlebird Crescent",
                        "addr:housenumber": "28"
                    },
                    "distance": 2865.67028749,
                    "sims": 0.9970892674710397
                },
                {
                    "id": 12414262066,
                    "tags": {
                        "addr:street": "Peter Chance Crescent",
                        "addr:housenumber": "4"
                    },
                    "distance": 2544.16203458,
                    "sims": 0.9970362193498372
                },
                {
                    "id": 12420315289,
                    "tags": {
                        "addr:street": "Healsview Court",
                        "addr:housenumber": "1"
                    },
                    "distance": 247.68634644,
                    "sims": 0.9970159535975982
                },
                {
                    "id": 12420284493,
                    "tags": {
                        "addr:street": "Francis Crescent",
                        "addr:housenumber": "42"
                    },
                    "distance": 3037.20918105,
                    "sims": 0.9970091588475609
                },
                {
                    "id": 12420316559,
                    "tags": {
                        "addr:street": "Rushmere Court",
                        "addr:housenumber": "7"
                    },
                    "distance": 358.69522233,
                    "sims": 0.996991932930049
                },
                {
                    "id": 12420285992,
                    "tags": {
                        "addr:street": "Dunn Crescent",
                        "addr:housenumber": "41"
                    },
                    "distance": 2586.2901039,
                    "sims": 0.9969779858058893
                },
                {
                    "id": 12420316479,
                    "tags": {
                        "addr:street": "Parzay Court",
                        "addr:housenumber": "1"
                    },
                    "distance": 467.0545232,
                    "sims": 0.9969471102451928
                }
            ]
        },
        "38": {
            "execution_time": 0.18572139739990234,
            "results": [
                {
                    "id": 12412481486,
                    "tags": {
                        "addr:street": "Fox Street",
                        "addr:housenumber": "11"
                    },
                    "distance": 329.11651944,
                    "sims": 0.9967518458510772
                },
                {
                    "id": 12412481485,
                    "tags": {
                        "addr:street": "Fox Street",
                        "addr:housenumber": "7"
                    },
                    "distance": 353.3568453,
                    "sims": 0.9967308056125781
                },
                {
                    "id": 12412481489,
                    "tags": {
                        "addr:street": "Fox Street",
                        "addr:housenumber": "19"
                    },
                    "distance": 280.58412915,
                    "sims": 0.9967258283338215
                },
                {
                    "id": 12412481497,
                    "tags": {
                        "addr:street": "Fox Street",
                        "addr:housenumber": "47"
                    },
                    "distance": 203.39447711,
                    "sims": 0.9967209108542358
                },
                {
                    "id": 12412480845,
                    "tags": {
                        "addr:street": "Arthur Street",
                        "addr:housenumber": "66"
                    },
                    "distance": 374.54635301,
                    "sims": 0.9966943275830211
                },
                {
                    "id": 12412480876,
                    "tags": {
                        "addr:street": "Arthur Street",
                        "addr:housenumber": "81"
                    },
                    "distance": 368.40339879,
                    "sims": 0.9966793070200038
                },
                {
                    "id": 12419830429,
                    "tags": {
                        "addr:street": "Biggs Street",
                        "addr:housenumber": "80"
                    },
                    "distance": 649.60147603,
                    "sims": 0.9966252460255635
                },
                {
                    "id": 12412487139,
                    "tags": {
                        "addr:street": "Fox Street",
                        "addr:housenumber": "46"
                    },
                    "distance": 624.1094465,
                    "sims": 0.996590048989442
                },
                {
                    "id": 12412481743,
                    "tags": {
                        "addr:street": "Grace Street",
                        "addr:housenumber": "9"
                    },
                    "distance": 256.56785992,
                    "sims": 0.9965879333301466
                },
                {
                    "id": 12419833708,
                    "tags": {
                        "addr:street": "Biggs Street",
                        "addr:housenumber": "25"
                    },
                    "distance": 687.94001685,
                    "sims": 0.9965563129747828
                }
            ]
        },
        "39": {
            "execution_time": 0.1789085865020752,
            "results": [
                {
                    "id": 11561543863,
                    "tags": {
                        "amenity": "parking_space",
                        "parking_space": "disabled"
                    },
                    "distance": 664.88338242,
                    "sims": 0.9976895147325646
                },
                {
                    "id": 12411625209,
                    "tags": {
                        "addr:street": "Esdale Street",
                        "addr:housenumber": "76"
                    },
                    "distance": 270.17307467,
                    "sims": 0.9975176151868876
                },
                {
                    "id": 12411625379,
                    "tags": {
                        "addr:street": "Sandy Street",
                        "addr:housenumber": "36"
                    },
                    "distance": 366.16570886,
                    "sims": 0.9974683219873921
                },
                {
                    "id": 12418918357,
                    "tags": {
                        "addr:street": "Luckie Street",
                        "addr:housenumber": "78"
                    },
                    "distance": 503.63359403,
                    "sims": 0.9974291316953977
                },
                {
                    "id": 12411625794,
                    "tags": {
                        "addr:street": "Esdale Street",
                        "addr:housenumber": "90"
                    },
                    "distance": 360.4582489,
                    "sims": 0.9974241547828494
                },
                {
                    "id": 12411618569,
                    "tags": {
                        "addr:street": "Renfrew Street",
                        "addr:housenumber": "2"
                    },
                    "distance": 749.16817759,
                    "sims": 0.9974105649201955
                },
                {
                    "id": 12411625309,
                    "tags": {
                        "addr:street": "Esdale Street",
                        "addr:housenumber": "60"
                    },
                    "distance": 264.85186306,
                    "sims": 0.9974086575710511
                },
                {
                    "id": 12418918636,
                    "tags": {
                        "addr:street": "Zander Avenue",
                        "addr:housenumber": "12"
                    },
                    "distance": 132.02766809,
                    "sims": 0.9973992994842834
                },
                {
                    "id": 12418921521,
                    "tags": {
                        "addr:street": "Charles Street",
                        "addr:housenumber": "2A"
                    },
                    "distance": 481.41334243,
                    "sims": 0.997398971736153
                },
                {
                    "id": 12418918470,
                    "tags": {
                        "addr:street": "Luckie Street",
                        "addr:housenumber": "88"
                    },
                    "distance": 526.09963073,
                    "sims": 0.9973978096779128
                }
            ]
        },
        "40": {
            "execution_time": 0.17846035957336426,
            "results": [
                {
                    "id": 12411513984,
                    "tags": {
                        "addr:unit": "2",
                        "addr:street": "Albert Street",
                        "addr:housenumber": "178"
                    },
                    "distance": 252.91916543,
                    "sims": 0.9959208072447576
                },
                {
                    "id": 12411514451,
                    "tags": {
                        "addr:unit": "4",
                        "addr:street": "Wood Street",
                        "addr:housenumber": "94"
                    },
                    "distance": 333.90448665,
                    "sims": 0.9957909880814255
                },
                {
                    "id": 12417621305,
                    "tags": {
                        "addr:unit": "1",
                        "addr:street": "Newton Street",
                        "addr:housenumber": "1"
                    },
                    "distance": 159.73927986,
                    "sims": 0.9957824646169686
                },
                {
                    "id": 12418322123,
                    "tags": {
                        "addr:unit": "2",
                        "addr:street": "Albert Street",
                        "addr:housenumber": "93"
                    },
                    "distance": 1008.33806135,
                    "sims": 0.9957448241558566
                },
                {
                    "id": 12411509423,
                    "tags": {
                        "addr:street": "Wood Street",
                        "addr:housenumber": "67A"
                    },
                    "distance": 341.49759076,
                    "sims": 0.9957145749245462
                },
                {
                    "id": 12421135469,
                    "tags": {
                        "addr:unit": "4",
                        "addr:street": "Albert Street",
                        "addr:housenumber": "161"
                    },
                    "distance": 364.97468299,
                    "sims": 0.995714217552123
                },
                {
                    "id": 12417623899,
                    "tags": {
                        "addr:street": "Kirby Street",
                        "addr:housenumber": "62A-62B"
                    },
                    "distance": 359.94876729,
                    "sims": 0.9957000909954341
                },
                {
                    "id": 12418296061,
                    "tags": {
                        "addr:unit": "3",
                        "addr:street": "Albert Street",
                        "addr:housenumber": "115"
                    },
                    "distance": 784.9667977,
                    "sims": 0.9956794675302034
                },
                {
                    "id": 12418322158,
                    "tags": {
                        "addr:unit": "4",
                        "addr:street": "Albert Street",
                        "addr:housenumber": "110"
                    },
                    "distance": 959.43828257,
                    "sims": 0.9956604539054772
                },
                {
                    "id": 12421129575,
                    "tags": {
                        "addr:unit": "3",
                        "addr:street": "Newton Street",
                        "addr:housenumber": "54"
                    },
                    "distance": 560.45993844,
                    "sims": 0.9956566988127444
                }
            ]
        },
        "41": {
            "execution_time": 0.17838358879089355,
            "results": [
                {
                    "id": 2402084241,
                    "tags": {
                        "amenity": "vending_machine",
                        "vending": "parking_tickets"
                    },
                    "distance": 1830.22665175,
                    "sims": 0.9978611180808403
                },
                {
                    "id": 12417721452,
                    "tags": {
                        "addr:street": "Matlock Street",
                        "addr:housenumber": "41"
                    },
                    "distance": 289.3630342,
                    "sims": 0.9968547836043615
                },
                {
                    "id": 12417716227,
                    "tags": {
                        "addr:street": "Matlock Street",
                        "addr:housenumber": "39"
                    },
                    "distance": 270.1689508,
                    "sims": 0.9968285872809733
                },
                {
                    "id": 12420066759,
                    "tags": {
                        "addr:street": "Matlock Street",
                        "addr:housenumber": "38"
                    },
                    "distance": 195.99819296,
                    "sims": 0.9967595354274283
                },
                {
                    "id": 12420064682,
                    "tags": {
                        "addr:street": "Matlock Street",
                        "addr:housenumber": "17"
                    },
                    "distance": 171.69389178,
                    "sims": 0.9967351573339128
                },
                {
                    "id": 12420068574,
                    "tags": {
                        "addr:street": "Dunlop Road",
                        "addr:housenumber": "1A"
                    },
                    "distance": 1087.37853756,
                    "sims": 0.9966225640190476
                },
                {
                    "id": 12420068847,
                    "tags": {
                        "addr:street": "Industrial Avenue",
                        "addr:housenumber": "10"
                    },
                    "distance": 1260.01733956,
                    "sims": 0.9966193453697645
                },
                {
                    "id": 12420069090,
                    "tags": {
                        "addr:street": "Dunlop Road",
                        "addr:housenumber": "8"
                    },
                    "distance": 1100.39959044,
                    "sims": 0.9965930001293362
                },
                {
                    "id": 12420068410,
                    "tags": {
                        "addr:street": "Dunlop Road",
                        "addr:housenumber": "25"
                    },
                    "distance": 1084.120607,
                    "sims": 0.9965387001175585
                },
                {
                    "id": 12420067054,
                    "tags": {
                        "addr:street": "Dunlop Road",
                        "addr:housenumber": "7-9"
                    },
                    "distance": 1066.85728903,
                    "sims": 0.9965022519967113
                }
            ]
        },
        "42": {
            "execution_time": 0.17983031272888184,
            "results": [
                {
                    "id": 12410611444,
                    "tags": {
                        "addr:street": "Ironside Street",
                        "addr:housenumber": "32"
                    },
                    "distance": 877.74442484,
                    "sims": 0.9943168486729727
                },
                {
                    "id": 12410611696,
                    "tags": {
                        "addr:street": "Warrnambool Street",
                        "addr:housenumber": "19"
                    },
                    "distance": 785.36747678,
                    "sims": 0.9941916193702814
                },
                {
                    "id": 12410612056,
                    "tags": {
                        "addr:street": "Silver Street",
                        "addr:housenumber": "17"
                    },
                    "distance": 1542.60579479,
                    "sims": 0.9941109446951353
                },
                {
                    "id": 12410611592,
                    "tags": {
                        "addr:street": "Warrnambool Street",
                        "addr:housenumber": "7"
                    },
                    "distance": 719.15958311,
                    "sims": 0.9940972952379903
                },
                {
                    "id": 12410612033,
                    "tags": {
                        "addr:street": "Silver Street",
                        "addr:housenumber": "12"
                    },
                    "distance": 1511.0978643,
                    "sims": 0.994036081296995
                },
                {
                    "id": 12410613105,
                    "tags": {
                        "addr:street": "Suffern Street",
                        "addr:housenumber": "5"
                    },
                    "distance": 1959.34937513,
                    "sims": 0.993986192233107
                },
                {
                    "id": 12410612538,
                    "tags": {
                        "addr:street": "Hardwood Grove",
                        "addr:housenumber": "52"
                    },
                    "distance": 1645.4326068,
                    "sims": 0.9939219976990471
                },
                {
                    "id": 12410612270,
                    "tags": {
                        "addr:street": "Byron Street",
                        "addr:housenumber": "8"
                    },
                    "distance": 1178.55856439,
                    "sims": 0.99392062751745
                },
                {
                    "id": 12417940749,
                    "tags": {
                        "addr:street": "Cameron Street",
                        "addr:housenumber": "545"
                    },
                    "distance": 1798.53680357,
                    "sims": 0.9939169320314564
                },
                {
                    "id": 12410611032,
                    "tags": {
                        "addr:street": "Hayes Hill Boulevard",
                        "addr:housenumber": "71"
                    },
                    "distance": 1034.65648077,
                    "sims": 0.9939069780611186
                }
            ]
        },
        "43": {
            "execution_time": 0.17646002769470215,
            "results": [
                {
                    "id": 12417450178,
                    "tags": {
                        "addr:street": "Ranger Street",
                        "addr:housenumber": "32"
                    },
                    "distance": 1237.808191,
                    "sims": 0.9982456264265855
                },
                {
                    "id": 12417451258,
                    "tags": {
                        "addr:street": "Jaylie Street",
                        "addr:housenumber": "32"
                    },
                    "distance": 801.6917748,
                    "sims": 0.9981942769636428
                },
                {
                    "id": 12417450263,
                    "tags": {
                        "addr:street": "Ranger Street",
                        "addr:housenumber": "10"
                    },
                    "distance": 1382.69727864,
                    "sims": 0.9981575606057191
                },
                {
                    "id": 12417454273,
                    "tags": {
                        "addr:street": "Kenana Street",
                        "addr:housenumber": "8"
                    },
                    "distance": 2017.15684288,
                    "sims": 0.9981569646690627
                },
                {
                    "id": 12421162971,
                    "tags": {
                        "addr:street": "Jaylie Street",
                        "addr:housenumber": "19"
                    },
                    "distance": 747.95941691,
                    "sims": 0.9981157181400988
                },
                {
                    "id": 12421162972,
                    "tags": {
                        "addr:street": "Jaylie Street",
                        "addr:housenumber": "17"
                    },
                    "distance": 745.19106783,
                    "sims": 0.9980769750017496
                },
                {
                    "id": 12417451268,
                    "tags": {
                        "addr:street": "Saldi Street",
                        "addr:housenumber": "14"
                    },
                    "distance": 796.45951591,
                    "sims": 0.9979712662058016
                },
                {
                    "id": 12417450006,
                    "tags": {
                        "addr:street": "Observatory Street",
                        "addr:housenumber": "35"
                    },
                    "distance": 3016.36143025,
                    "sims": 0.9978902337420337
                },
                {
                    "id": 12417451526,
                    "tags": {
                        "addr:street": "Niloma Street",
                        "addr:housenumber": "1"
                    },
                    "distance": 654.46853473,
                    "sims": 0.9978809950209921
                },
                {
                    "id": 12417453168,
                    "tags": {
                        "addr:street": "Honour Avenue",
                        "addr:housenumber": "171"
                    },
                    "distance": 3587.84420901,
                    "sims": 0.9978732465430209
                }
            ]
        },
        "44": {
            "execution_time": 0.17895746231079102,
            "results": [
                {
                    "id": 12418119307,
                    "tags": {
                        "addr:street": "Sellars Street",
                        "addr:housenumber": "26B"
                    },
                    "distance": 476.38192531,
                    "sims": 0.9945163733343704
                },
                {
                    "id": 12418119298,
                    "tags": {
                        "addr:street": "Sellars Street",
                        "addr:housenumber": "62"
                    },
                    "distance": 407.32652103,
                    "sims": 0.9945052868717638
                },
                {
                    "id": 12418119278,
                    "tags": {
                        "addr:street": "Sellars Street",
                        "addr:housenumber": "18"
                    },
                    "distance": 510.24763404,
                    "sims": 0.994442940420761
                },
                {
                    "id": 12418118931,
                    "tags": {
                        "addr:street": "Macorna Street",
                        "addr:housenumber": "119"
                    },
                    "distance": 464.46825609,
                    "sims": 0.9943847959293718
                },
                {
                    "id": 12418118839,
                    "tags": {
                        "addr:street": "Macorna Street",
                        "addr:housenumber": "63"
                    },
                    "distance": 95.44384518,
                    "sims": 0.9943636362823683
                },
                {
                    "id": 12410805485,
                    "tags": {
                        "addr:street": "Gillingham Street",
                        "addr:housenumber": "19"
                    },
                    "distance": 623.91013458,
                    "sims": 0.9943336851199119
                },
                {
                    "id": 12410843632,
                    "tags": {
                        "addr:street": "Sellars Street",
                        "addr:housenumber": "59"
                    },
                    "distance": 371.38882638,
                    "sims": 0.99431634017035
                },
                {
                    "id": 12418090686,
                    "tags": {
                        "addr:street": "Elwers Street",
                        "addr:housenumber": "29"
                    },
                    "distance": 0.0,
                    "sims": 0.9942816502712261
                },
                {
                    "id": 8386973078,
                    "tags": {
                        "bus": "yes",
                        "name": "Frye Street",
                        "network": "PTV \u2013 Metropolitan Buses",
                        "ref:ptv": "2703",
                        "website": "https://ptv.vic.gov.au/stop/11372",
                        "operator": "Transdev;Dysons",
                        "public_transport": "stop_position"
                    },
                    "distance": 539.67436459,
                    "sims": 0.9942501194178986
                },
                {
                    "id": 12418110695,
                    "tags": {
                        "addr:unit": "1",
                        "addr:street": "McKellar Street",
                        "addr:housenumber": "18"
                    },
                    "distance": 684.80041001,
                    "sims": 0.9942001407563671
                }
            ]
        },
        "45": {
            "execution_time": 0.17872142791748047,
            "results": [
                {
                    "id": 12417834884,
                    "tags": {
                        "addr:street": "Neill Street",
                        "addr:housenumber": "28"
                    },
                    "distance": 403.85559633,
                    "sims": 0.9966735227936556
                },
                {
                    "id": 12420135051,
                    "tags": {
                        "addr:street": "Stockfeld Street",
                        "addr:housenumber": "24"
                    },
                    "distance": 1206.78157834,
                    "sims": 0.9966684567936487
                },
                {
                    "id": 12420137715,
                    "tags": {
                        "addr:street": "Hoya Place",
                        "addr:housenumber": "19"
                    },
                    "distance": 952.83366621,
                    "sims": 0.9966546879163516
                },
                {
                    "id": 12420138536,
                    "tags": {
                        "addr:street": "Hoya Place",
                        "addr:housenumber": "14"
                    },
                    "distance": 962.16695369,
                    "sims": 0.9966487868542788
                },
                {
                    "id": 12417840856,
                    "tags": {
                        "addr:street": "Betula Terrace",
                        "addr:housenumber": "42"
                    },
                    "distance": 1306.98202342,
                    "sims": 0.9966422301400618
                },
                {
                    "id": 12420134628,
                    "tags": {
                        "addr:street": "Deakin Street",
                        "addr:housenumber": "42"
                    },
                    "distance": 411.83946973,
                    "sims": 0.9966125470110404
                },
                {
                    "id": 12420138983,
                    "tags": {
                        "addr:street": "Mitchells Lane",
                        "addr:housenumber": "43"
                    },
                    "distance": 325.60692426,
                    "sims": 0.9966033084886294
                },
                {
                    "id": 12417837887,
                    "tags": {
                        "addr:street": "Fawkner Street",
                        "addr:housenumber": "8"
                    },
                    "distance": 186.04006668,
                    "sims": 0.9965881689016374
                },
                {
                    "id": 12417837453,
                    "tags": {
                        "addr:street": "Mitchells Lane",
                        "addr:housenumber": "44"
                    },
                    "distance": 349.78236583,
                    "sims": 0.9965826852717032
                },
                {
                    "id": 12417836816,
                    "tags": {
                        "addr:street": "Gap Road",
                        "addr:housenumber": "64"
                    },
                    "distance": 536.3013897,
                    "sims": 0.9965444190715106
                }
            ]
        },
        "46": {
            "execution_time": 0.18036222457885742,
            "results": [
                {
                    "id": 5068040813,
                    "tags": {
                        "name": "The Athlete's Foot",
                        "shop": "shoes",
                        "brand": "The Athlete's Foot",
                        "level": "0",
                        "wheelchair": "yes",
                        "second_hand": "no",
                        "brand:wikidata": "Q7714792",
                        "opening_hours:signed": "no",
                        "check_date:opening_hours": "2024-09-25"
                    },
                    "distance": 680.26680153,
                    "sims": 0.9962761091899255
                },
                {
                    "id": 11133502127,
                    "tags": {
                        "amenity": "bench",
                        "backrest": "yes",
                        "material": "metal"
                    },
                    "distance": 369.51477524,
                    "sims": 0.996246187872198
                },
                {
                    "id": 11411909942,
                    "tags": {
                        "amenity": "bench",
                        "backrest": "yes",
                        "material": "metal"
                    },
                    "distance": 263.62321525,
                    "sims": 0.9961995174228209
                },
                {
                    "id": 11756722946,
                    "tags": {
                        "amenity": "bench",
                        "backrest": "yes",
                        "material": "metal"
                    },
                    "distance": 527.98287961,
                    "sims": 0.9959960271109773
                },
                {
                    "id": 3945798986,
                    "tags": {
                        "bin": "no",
                        "lit": "no",
                        "ref": "8",
                        "name": "Stop 8: Peel Street",
                        "tram": "yes",
                        "bench": "no",
                        "network": "PTV - Metropolitan Trams",
                        "shelter": "no",
                        "operator": "Yarra Trams",
                        "route_ref": "57",
                        "wheelchair": "no",
                        "tactile_paving": "no",
                        "public_transport": "platform"
                    },
                    "distance": 792.11023359,
                    "sims": 0.9959382105900376
                },
                {
                    "id": 1282403459,
                    "tags": {
                        "name": "Commonwealth Bank",
                        "brand": "Commonwealth Bank",
                        "indoor": "no",
                        "amenity": "atm",
                        "cash_in": "no",
                        "website": "https://www.commbank.com.au/",
                        "operator": "Commonwealth Bank",
                        "wheelchair": "yes",
                        "brand:wikidata": "Q285328",
                        "brand:wikipedia": "en:Commonwealth Bank",
                        "operator:wikidata": "Q285328",
                        "operator:wikipedia": "en:Commonwealth Bank"
                    },
                    "distance": 274.70404416,
                    "sims": 0.9957495615853639
                },
                {
                    "id": 3105262652,
                    "tags": {
                        "name": "Street Art",
                        "tourism": "viewpoint"
                    },
                    "distance": 699.00135678,
                    "sims": 0.9955663371115397
                },
                {
                    "id": 9632353831,
                    "tags": {
                        "access": "yes",
                        "amenity": "bicycle_parking",
                        "covered": "no",
                        "capacity": "10",
                        "bicycle_parking": "stands"
                    },
                    "distance": 455.13856606,
                    "sims": 0.9955535221094758
                },
                {
                    "id": 634757176,
                    "tags": {
                        "name": "Metropolitan Hotel",
                        "phone": "+61 3 9670 1385",
                        "amenity": "pub",
                        "website": "http://www.themetropolitanhotel.com.au",
                        "addr:state": "VIC",
                        "addr:street": "William Street",
                        "addr:suburb": "Melbourne",
                        "addr:postcode": "3000",
                        "addr:housenumber": "263"
                    },
                    "distance": 0.0,
                    "sims": 0.9955352531478846
                },
                {
                    "id": 3945798984,
                    "tags": {
                        "ref": "8",
                        "name": "Stop 8: Franklin Street",
                        "tram": "yes",
                        "network": "PTV - Metropolitan Trams",
                        "shelter": "no",
                        "operator": "Yarra Trams",
                        "route_ref": "58",
                        "removed:public_transport": "platform"
                    },
                    "distance": 399.80231651,
                    "sims": 0.9955281302574325
                }
            ]
        },
        "47": {
            "execution_time": 0.18068933486938477,
            "results": [
                {
                    "id": 12410612717,
                    "tags": {
                        "addr:street": "English Street",
                        "addr:housenumber": "58W"
                    },
                    "distance": 1144.38415803,
                    "sims": 0.9954671581982647
                },
                {
                    "id": 12417457456,
                    "tags": {
                        "addr:street": "Dwyer Street",
                        "addr:housenumber": "271"
                    },
                    "distance": 1656.44081875,
                    "sims": 0.9953252692655038
                },
                {
                    "id": 12421019592,
                    "tags": {
                        "addr:street": "Hunter Street",
                        "addr:housenumber": "100-110"
                    },
                    "distance": 542.1804228,
                    "sims": 0.9952959440728633
                },
                {
                    "id": 12410609723,
                    "tags": {
                        "addr:street": "English Street",
                        "addr:housenumber": "4W"
                    },
                    "distance": 957.05634961,
                    "sims": 0.9952498098167022
                },
                {
                    "id": 12410608865,
                    "tags": {
                        "addr:street": "Greywell Street",
                        "addr:housenumber": "13"
                    },
                    "distance": 2236.22942141,
                    "sims": 0.99510228867433
                },
                {
                    "id": 12417945692,
                    "tags": {
                        "addr:street": "Englefield Street",
                        "addr:housenumber": "3"
                    },
                    "distance": 1164.42445193,
                    "sims": 0.9950822019186188
                },
                {
                    "id": 12410608884,
                    "tags": {
                        "addr:street": "Greywell Street",
                        "addr:housenumber": "16"
                    },
                    "distance": 2242.22712183,
                    "sims": 0.9950765397734996
                },
                {
                    "id": 12417455659,
                    "tags": {
                        "addr:street": "Dwyer Street",
                        "addr:housenumber": "186"
                    },
                    "distance": 1173.22024416,
                    "sims": 0.9950450978972857
                },
                {
                    "id": 12421019476,
                    "tags": {
                        "addr:street": "Dwyer Street",
                        "addr:housenumber": "45"
                    },
                    "distance": 448.10646902,
                    "sims": 0.9950022721280886
                },
                {
                    "id": 12421008195,
                    "tags": {
                        "addr:street": "Dwyer Street",
                        "addr:housenumber": "156"
                    },
                    "distance": 940.57411245,
                    "sims": 0.9949814704160821
                }
            ]
        },
        "48": {
            "execution_time": 0.17410969734191895,
            "results": [
                {
                    "id": 12414305478,
                    "tags": {
                        "addr:street": "Guineas Street",
                        "addr:housenumber": "66"
                    },
                    "distance": 1242.35350398,
                    "sims": 0.9958370320505716
                },
                {
                    "id": 12414305476,
                    "tags": {
                        "addr:street": "Guineas Street",
                        "addr:housenumber": "63"
                    },
                    "distance": 1231.98276826,
                    "sims": 0.9958230249565447
                },
                {
                    "id": 9832413287,
                    "tags": {
                        "amenity": "bench"
                    },
                    "distance": 1116.34049535,
                    "sims": 0.995739518580329
                },
                {
                    "id": 9832413286,
                    "tags": {
                        "amenity": "bench"
                    },
                    "distance": 1115.7344943,
                    "sims": 0.9957365979520387
                },
                {
                    "id": 3830281283,
                    "tags": {
                        "name": "ALDI",
                        "shop": "supermarket",
                        "brand": "ALDI",
                        "website": "https://store.aldi.com.au/vic/cranbourne-east/1-s-linsell-boulevard",
                        "full_name": "ALDI Cranbourne East",
                        "wheelchair": "yes",
                        "addr:street": "Linsell Boulevard",
                        "opening_hours": "Mo-Su 08:30-20:00",
                        "brand:wikidata": "Q41171672",
                        "brand:wikipedia": "en:Aldi",
                        "addr:housenumber": "1",
                        "check_date:opening_hours": "2023-05-05"
                    },
                    "distance": 3294.34528921,
                    "sims": 0.9956706757153169
                },
                {
                    "id": 12420316962,
                    "tags": {
                        "addr:street": "Theresa Street",
                        "addr:housenumber": "1"
                    },
                    "distance": 357.51123015,
                    "sims": 0.9954452509219036
                },
                {
                    "id": 12420338995,
                    "tags": {
                        "addr:street": "Slattery Street",
                        "addr:housenumber": "37"
                    },
                    "distance": 825.4435179,
                    "sims": 0.9953792979614573
                },
                {
                    "id": 12420338716,
                    "tags": {
                        "addr:street": "Slattery Street",
                        "addr:housenumber": "35"
                    },
                    "distance": 836.00067268,
                    "sims": 0.9953486015629942
                },
                {
                    "id": 6645553895,
                    "tags": {
                        "name": "Petstock",
                        "shop": "pet",
                        "brand": "Petstock",
                        "addr:state": "VIC",
                        "addr:street": "Sladen Street",
                        "addr:suburb": "Cranbourne",
                        "addr:postcode": "3977",
                        "brand:wikidata": "Q106540728",
                        "addr:housenumber": "202"
                    },
                    "distance": 2970.11413993,
                    "sims": 0.995345293643245
                },
                {
                    "id": 12414302976,
                    "tags": {
                        "addr:street": "Artfield Street",
                        "addr:housenumber": "41"
                    },
                    "distance": 1627.86610074,
                    "sims": 0.9953317037818061
                }
            ]
        },
        "49": {
            "execution_time": 0.17870879173278809,
            "results": [
                {
                    "id": 12419828145,
                    "tags": {
                        "addr:street": "Belle Crescent",
                        "addr:housenumber": "11B"
                    },
                    "distance": 753.24781281,
                    "sims": 0.9950656297763966
                },
                {
                    "id": 12419664574,
                    "tags": {
                        "addr:street": "Balmoral Drive",
                        "addr:housenumber": "22"
                    },
                    "distance": 594.80977692,
                    "sims": 0.9950301653110855
                },
                {
                    "id": 12412407515,
                    "tags": {
                        "addr:street": "Balmoral Drive",
                        "addr:housenumber": "37"
                    },
                    "distance": 438.53954804,
                    "sims": 0.9950067409860972
                },
                {
                    "id": 12412408107,
                    "tags": {
                        "addr:street": "Balmoral Drive",
                        "addr:housenumber": "23"
                    },
                    "distance": 593.53699868,
                    "sims": 0.9949995581806211
                },
                {
                    "id": 12419662991,
                    "tags": {
                        "addr:street": "Brownfield Street",
                        "addr:housenumber": "22"
                    },
                    "distance": 1001.44260848,
                    "sims": 0.9949001672923624
                },
                {
                    "id": 12419828536,
                    "tags": {
                        "addr:street": "De Havilland Road",
                        "addr:housenumber": "57"
                    },
                    "distance": 771.72459513,
                    "sims": 0.9947367017206629
                },
                {
                    "id": 12412408946,
                    "tags": {
                        "addr:street": "McSwain Street",
                        "addr:housenumber": "17"
                    },
                    "distance": 383.21696941,
                    "sims": 0.9946747425392582
                },
                {
                    "id": 12419664079,
                    "tags": {
                        "addr:street": "Cedric Street",
                        "addr:housenumber": "17"
                    },
                    "distance": 1270.42413945,
                    "sims": 0.9946711668960171
                },
                {
                    "id": 4234704956,
                    "tags": {
                        "addr:street": "De Havilland Road",
                        "addr:housenumber": "51"
                    },
                    "distance": 740.47384347,
                    "sims": 0.994600505119528
                },
                {
                    "id": 12412407587,
                    "tags": {
                        "addr:street": "McSwain Street",
                        "addr:housenumber": "7"
                    },
                    "distance": 390.58919114,
                    "sims": 0.9945714776601177
                }
            ]
        }
    }
}