{
    "insertion_time": 5.7696733474731445,
    "index_creation": {
        "func": [
            "CREATE INDEX IF NOT EXISTS idx_pois_geom ON PoIs USING GIST (geom);",
            "CREATE INDEX IF NOT EXISTS idx_pois_tags ON PoIs USING GIN (tags);"
        ],
        "time": 0.4129524230957031
    },
    "query_results": {
        "0": {
            "execution_time": 0.01809978485107422,
            "results": [
                {
                    "id": 9396035013,
                    "tags": {
                        "name": "The Little Birdie Cafee",
                        "amenity": "cafe",
                        "addr:street": "Ricketts Road",
                        "addr:housenumber": "12"
                    },
                    "distance": 1279.03075319
                },
                {
                    "id": 9396035012,
                    "tags": {
                        "name": "Poacher & Hound Cafe & Catering",
                        "amenity": "cafe"
                    },
                    "distance": 1299.87161349
                },
                {
                    "id": 592653412,
                    "tags": {
                        "name": "Caf\u00e9 Cinque Lire",
                        "email": "cinqueliremonash@yahoo.com.au",
                        "phone": "+61 3 9540 0778",
                        "amenity": "cafe",
                        "cuisine": "italian",
                        "website": "https://www.monash.edu/food-and-retail/vendors/cinque-lire-cafe",
                        "addr:street": "Innovation Walk",
                        "opening_hours": "Mo-Th 06:30-17:00; Fr 06:30-18:30",
                        "outdoor_seating": "yes",
                        "addr:housenumber": "15",
                        "opening_hours:url": "https://www.monash.edu/food-and-retail/vendors/cinque-lire-cafe"
                    },
                    "distance": 2888.11892932
                },
                {
                    "id": 12478150413,
                    "tags": {
                        "name": "Sharetea",
                        "brand": "Sharetea",
                        "amenity": "cafe",
                        "cuisine": "bubble_tea",
                        "name:en": "Sharetea",
                        "name:zh": "\u6b47\u8173\u4ead",
                        "website": "https://www.monash.edu/food-and-retail/vendors/sharetea",
                        "takeaway": "yes",
                        "diet:vegan": "yes",
                        "opening_hours": "Mo-Fr 09:00-18:00",
                        "brand:wikidata": "Q64827032",
                        "diet:vegetarian": "yes",
                        "internet_access": "no",
                        "outdoor_seating": "no",
                        "diet:gluten_free": "yes"
                    },
                    "distance": 3076.23318969
                },
                {
                    "id": 605209413,
                    "tags": {
                        "name": "Kafe Mument",
                        "amenity": "cafe"
                    },
                    "distance": 3160.57517928
                },
                {
                    "id": 5680708784,
                    "tags": {
                        "name": "Cafelito",
                        "layer": "2",
                        "source": "survey",
                        "amenity": "cafe",
                        "website": "https://www.monash.edu/food-and-retail/vendors/cafelito"
                    },
                    "distance": 3290.40559838
                },
                {
                    "id": 4463141814,
                    "tags": {
                        "source": "survey",
                        "amenity": "cafe"
                    },
                    "distance": 4284.46317398
                },
                {
                    "id": 6040867139,
                    "tags": {
                        "name": "Health Link Cafe",
                        "amenity": "cafe",
                        "check_date": "2024-12-30"
                    },
                    "distance": 4864.27052465
                },
                {
                    "id": 10600623537,
                    "tags": {
                        "name": "The Alleyway Cartel",
                        "amenity": "cafe",
                        "addr:state": "VIC",
                        "addr:street": "Neerim Road",
                        "addr:suburb": "Murrumbeena",
                        "addr:postcode": "3163",
                        "addr:housenumber": "474"
                    },
                    "distance": 5200.55052257
                },
                {
                    "id": 11142702578,
                    "tags": {
                        "name": "White Mojo",
                        "level": "0",
                        "amenity": "cafe",
                        "takeaway": "yes",
                        "wheelchair": "yes"
                    },
                    "distance": 7237.61404212
                }
            ]
        },
        "1": {
            "execution_time": 0.006902933120727539,
            "results": []
        },
        "2": {
            "execution_time": 0.010463476181030273,
            "results": [
                {
                    "id": 5257546863,
                    "tags": {
                        "name": "Merri Bar",
                        "phone": "+61 3 9480 5940",
                        "amenity": "bar",
                        "wheelchair": "yes",
                        "addr:street": "Gilbert Road",
                        "opening_hours": "Mo off, Tu-Th 15:00-23:00, Fr 03:00-01:00, Sa 12:00-01:00, Su 12:00-23:00",
                        "addr:housenumber": "15",
                        "contact:facebook": "http://facebook.com/themerribar"
                    },
                    "distance": 8793.48215734
                },
                {
                    "id": 12243677642,
                    "tags": {
                        "name": "Capers",
                        "phone": "+61 3 7013 9693",
                        "amenity": "bar",
                        "website": "https://www.capersthornbury.com",
                        "addr:state": "VIC",
                        "check_date": "2024-10-11",
                        "addr:street": "High Street",
                        "addr:suburb": "Thornbury",
                        "payment:cash": "yes",
                        "addr:postcode": "3071",
                        "addr:housenumber": "843",
                        "payment:debit_cards": "yes",
                        "payment:credit_cards": "yes"
                    },
                    "distance": 9620.26577021
                },
                {
                    "id": 11002825673,
                    "tags": {
                        "name": "Craftsman's Corner",
                        "amenity": "bar",
                        "website": "https://www.craftsmanscorner.com.au/",
                        "addr:street": "Lygon Street",
                        "addr:housenumber": "313"
                    },
                    "distance": 10572.06103457
                },
                {
                    "id": 6649064085,
                    "tags": {
                        "name": "Mr Wilkinsons",
                        "phone": "+61 3 9388 8578",
                        "amenity": "bar",
                        "website": "https://www.mrwilkinsonbar.com.au/",
                        "addr:street": "Lygon Street",
                        "opening_hours": "Mo, We-Fr 16:00-01:00; Sa-Su 14:00-01:00",
                        "addr:housenumber": "295"
                    },
                    "distance": 10641.95453312
                },
                {
                    "id": 6687010931,
                    "tags": {
                        "name": "Sig. Enzo Aperetivo Bar",
                        "phone": "+61 3 9388 8718",
                        "amenity": "bar",
                        "addr:street": "Michael Street",
                        "opening_hours": "We-Sa 16:00-21:00+",
                        "addr:housenumber": "1D",
                        "contact:facebook": "https://www.facebook.com/sig.enzobar/"
                    },
                    "distance": 10997.31689567
                },
                {
                    "id": 7856558278,
                    "tags": {
                        "name": "Brunswick Aces",
                        "craft": "distillery",
                        "phone": "+61 3 7067 9224",
                        "amenity": "bar",
                        "website": "https://brunswickaces.com/",
                        "addr:street": "Weston Street",
                        "addr:housenumber": "124"
                    },
                    "distance": 11393.15970177
                },
                {
                    "id": 4574487201,
                    "tags": {
                        "name": "Vintage Infusion",
                        "amenity": "bar",
                        "name:en": "Vintage Infusion"
                    },
                    "distance": 13671.84267317
                },
                {
                    "id": 7587892185,
                    "tags": {
                        "name": "Shisha bar",
                        "amenity": "bar"
                    },
                    "distance": 14434.63015888
                },
                {
                    "id": 2926038305,
                    "tags": {
                        "name": "the grape & HOP wine bar",
                        "email": "lincoln@grapehop.com",
                        "phone": "+61 3 8406 7979",
                        "amenity": "bar",
                        "wheelchair": "yes",
                        "addr:street": "Were Street",
                        "opening_hours": "Tu-Fr 15:00+; Sa 14:00+; Su 14:00-21:30",
                        "addr:housenumber": "10"
                    },
                    "distance": 14745.85399981
                },
                {
                    "id": 10598284188,
                    "tags": {
                        "name": "Her",
                        "amenity": "bar",
                        "check_date": "2024-10-19",
                        "outdoor_seating": "yes"
                    },
                    "distance": 15291.59848394
                }
            ]
        },
        "3": {
            "execution_time": 0.010932445526123047,
            "results": [
                {
                    "id": 10711345805,
                    "tags": {
                        "name": "Meletos",
                        "amenity": "restaurant"
                    },
                    "distance": 5255.77109817
                },
                {
                    "id": 9618873527,
                    "tags": {
                        "name": "Wandin Pizza Bar",
                        "phone": "+61 3 5964 3381",
                        "amenity": "restaurant",
                        "cuisine": "pizza",
                        "website": "https://www.wandinpizza.com.au/",
                        "addr:state": "VIC",
                        "addr:street": "Warburton Highway",
                        "addr:suburb": "Wandin North",
                        "addr:postcode": "3139",
                        "opening_hours": "Tu-Su 17:00-22:00",
                        "addr:housenumber": "372"
                    },
                    "distance": 14983.96301056
                },
                {
                    "id": 10110288001,
                    "tags": {
                        "name": "Carlos Cantina",
                        "phone": "+61 3 9725 0397",
                        "amenity": "restaurant",
                        "cuisine": "mexican",
                        "website": "https://carloscantina.com.au/",
                        "addr:state": "VIC",
                        "addr:street": "Maroondah Highway",
                        "addr:suburb": "Croydon",
                        "addr:postcode": "3136",
                        "addr:housenumber": "72B"
                    },
                    "distance": 18270.6751917
                }
            ]
        },
        "4": {
            "execution_time": 0.011086463928222656,
            "results": [
                {
                    "id": 2214010994,
                    "tags": {
                        "ref": "21",
                        "name": "Stop 21: Alexandra Parade",
                        "tram": "yes",
                        "network": "PTV - Metropolitan Trams",
                        "railway": "tram_stop",
                        "operator": "Keolis Downer",
                        "network:wikidata": "Q7257648",
                        "public_transport": "stop_position",
                        "operator:wikidata": "Q6328065"
                    },
                    "distance": 10998.56488433
                }
            ]
        },
        "5": {
            "execution_time": 0.005747079849243164,
            "results": []
        },
        "6": {
            "execution_time": 0.006262540817260742,
            "results": []
        },
        "7": {
            "execution_time": 0.0061571598052978516,
            "results": []
        },
        "8": {
            "execution_time": 0.012622356414794922,
            "results": [
                {
                    "id": 11804006248,
                    "tags": {
                        "door": "automatic",
                        "name": "Entrance to tenancy only",
                        "access": "private",
                        "entrance": "secondary",
                        "check_date": "2024-04-09",
                        "wheelchair": "yes"
                    },
                    "distance": 7219.40985313
                }
            ]
        },
        "9": {
            "execution_time": 0.009585380554199219,
            "results": []
        },
        "10": {
            "execution_time": 0.01765155792236328,
            "results": [
                {
                    "id": 585128132,
                    "tags": {
                        "name": "BP",
                        "brand": "BP",
                        "source": "bp.com.au",
                        "amenity": "fuel",
                        "website": "https://map.bp.com/en-AU/AU/gas-station/south-melbourne/bp-clarendon-vic/3759",
                        "brand:wikidata": "Q152057",
                        "brand:wikipedia": "en:BP"
                    },
                    "distance": 8251.95330747
                },
                {
                    "id": 2057008288,
                    "tags": {
                        "atm": "yes",
                        "name": "BP North Fitzroy",
                        "brand": "BP",
                        "phone": "+61 3 9481 6185",
                        "amenity": "fuel",
                        "website": "http://www.bp.com.au/",
                        "building": "yes",
                        "car_wash": "yes",
                        "operator": "BP",
                        "addr:street": "St Georges Road",
                        "brand:wikidata": "Q152057",
                        "addr:housenumber": "257"
                    },
                    "distance": 12014.8633688
                },
                {
                    "id": 7105899713,
                    "tags": {
                        "name": "7-Eleven",
                        "brand": "7-Eleven",
                        "amenity": "fuel",
                        "brand:wikidata": "Q259340",
                        "brand:wikipedia": "en:7-Eleven"
                    },
                    "distance": 12140.34360875
                },
                {
                    "id": 598434277,
                    "tags": {
                        "name": "Shell",
                        "brand": "Shell",
                        "amenity": "fuel",
                        "website": "https://www.shell.com.au",
                        "addr:street": "Barkers Road",
                        "brand:wikidata": "Q110716465",
                        "compressed_air": "yes",
                        "brand:wikipedia": "en:Royal Dutch Shell",
                        "addr:housenumber": "82"
                    },
                    "distance": 14158.58111857
                }
            ]
        },
        "11": {
            "execution_time": 0.0076541900634765625,
            "results": []
        },
        "12": {
            "execution_time": 0.010793685913085938,
            "results": [
                {
                    "id": 493891516,
                    "tags": {
                        "name": "Dolce Mio Pasticceria & Gelateria",
                        "amenity": "cafe",
                        "cuisine": "italian"
                    },
                    "distance": 3649.06952585
                },
                {
                    "id": 2488924787,
                    "tags": {
                        "name": "Little Buddy Cafe",
                        "phone": "+61 3 9870 1115",
                        "amenity": "cafe",
                        "website": "https://m.facebook.com/littlebuddycafeaus/",
                        "takeaway": "yes",
                        "addr:state": "VIC",
                        "addr:street": "Loughnan Road",
                        "addr:suburb": "Ringwood",
                        "addr:postcode": "3134",
                        "opening_hours": "Tu-Su 06:00-14:00",
                        "internet_access": "wlan",
                        "outdoor_seating": "yes",
                        "addr:housenumber": "91",
                        "internet_access:fee": "customers"
                    },
                    "distance": 4158.33765821
                },
                {
                    "id": 11142702578,
                    "tags": {
                        "name": "White Mojo",
                        "level": "0",
                        "amenity": "cafe",
                        "takeaway": "yes",
                        "wheelchair": "yes"
                    },
                    "distance": 4813.77285425
                },
                {
                    "id": 9396035012,
                    "tags": {
                        "name": "Poacher & Hound Cafe & Catering",
                        "amenity": "cafe"
                    },
                    "distance": 8618.04440855
                },
                {
                    "id": 9396035013,
                    "tags": {
                        "name": "The Little Birdie Cafee",
                        "amenity": "cafe",
                        "addr:street": "Ricketts Road",
                        "addr:housenumber": "12"
                    },
                    "distance": 8726.76478002
                },
                {
                    "id": 9347698504,
                    "tags": {
                        "name": "The Full Pantry",
                        "shop": "health_food",
                        "phone": "+61 3 9723 7466",
                        "amenity": "cafe",
                        "website": "https://www.thefullpantry.com.au/",
                        "addr:state": "VIC",
                        "addr:street": "Maroondah Highway",
                        "addr:suburb": "Croydon",
                        "addr:postcode": "3136",
                        "opening_hours": "Mo-Fr 08:30-17:00; Sa 08:30-15:30",
                        "outdoor_seating": "yes",
                        "addr:housenumber": "66-68"
                    },
                    "distance": 8838.35367619
                },
                {
                    "id": 6187393835,
                    "tags": {
                        "name": "Olive Lane",
                        "phone": "+61 3 9859 5029",
                        "amenity": "cafe",
                        "cuisine": "coffee_shop;greek",
                        "website": "https://www.olivelane.com.au/",
                        "takeaway": "yes",
                        "addr:state": "VIC",
                        "addr:street": "Doncaster Road",
                        "addr:suburb": "Balwyn North",
                        "addr:postcode": "3104",
                        "opening_hours": "Mo-Su 06:30-16:30",
                        "diet:vegetarian": "yes",
                        "outdoor_seating": "yes",
                        "addr:housenumber": "69"
                    },
                    "distance": 9888.96680699
                },
                {
                    "id": 605209413,
                    "tags": {
                        "name": "Kafe Mument",
                        "amenity": "cafe"
                    },
                    "distance": 9997.08945813
                },
                {
                    "id": 12478150413,
                    "tags": {
                        "name": "Sharetea",
                        "brand": "Sharetea",
                        "amenity": "cafe",
                        "cuisine": "bubble_tea",
                        "name:en": "Sharetea",
                        "name:zh": "\u6b47\u8173\u4ead",
                        "website": "https://www.monash.edu/food-and-retail/vendors/sharetea",
                        "takeaway": "yes",
                        "diet:vegan": "yes",
                        "opening_hours": "Mo-Fr 09:00-18:00",
                        "brand:wikidata": "Q64827032",
                        "diet:vegetarian": "yes",
                        "internet_access": "no",
                        "outdoor_seating": "no",
                        "diet:gluten_free": "yes"
                    },
                    "distance": 10349.91320186
                },
                {
                    "id": 7824640912,
                    "tags": {
                        "amenity": "cafe"
                    },
                    "distance": 10385.33614084
                }
            ]
        },
        "13": {
            "execution_time": 0.010677337646484375,
            "results": [
                {
                    "id": 978059869,
                    "tags": {
                        "amenity": "telephone"
                    },
                    "distance": 1833.74145115
                },
                {
                    "id": 2941686970,
                    "tags": {
                        "amenity": "telephone"
                    },
                    "distance": 2372.72473239
                },
                {
                    "id": 2668710091,
                    "tags": {
                        "amenity": "telephone",
                        "operator": "Telstra",
                        "operator:wikidata": "Q721162"
                    },
                    "distance": 2428.10511302
                },
                {
                    "id": 5947932759,
                    "tags": {
                        "amenity": "telephone",
                        "operator": "Telstra",
                        "operator:wikidata": "Q721162"
                    },
                    "distance": 4055.33700692
                },
                {
                    "id": 978062248,
                    "tags": {
                        "amenity": "telephone"
                    },
                    "distance": 5085.72071651
                },
                {
                    "id": 11558065667,
                    "tags": {
                        "name": "Telstra free call & SMS",
                        "amenity": "telephone"
                    },
                    "distance": 5327.32364477
                },
                {
                    "id": 3006733963,
                    "tags": {
                        "amenity": "telephone",
                        "operator": "Telstra",
                        "payment:coins": "yes",
                        "operator:wikidata": "Q721162",
                        "payment:telephone_cards": "yes"
                    },
                    "distance": 6470.78298985
                },
                {
                    "id": 11411379427,
                    "tags": {
                        "amenity": "telephone",
                        "covered": "booth",
                        "operator": "Telstra (free Australia calls & SMS)",
                        "payment:telephone_cards": "yes"
                    },
                    "distance": 7800.13523144
                },
                {
                    "id": 582304872,
                    "tags": {
                        "amenity": "telephone"
                    },
                    "distance": 8227.6983145
                },
                {
                    "id": 5306169357,
                    "tags": {
                        "amenity": "telephone"
                    },
                    "distance": 8820.91408607
                }
            ]
        },
        "14": {
            "execution_time": 0.010523080825805664,
            "results": [
                {
                    "id": 3299929984,
                    "tags": {
                        "name": "Barry Street Lunch Bar",
                        "amenity": "fast_food",
                        "opening_hours": "Mo-Fr 06:30-17:00; Sa 06:30-14:00"
                    },
                    "distance": 2256.90835012
                },
                {
                    "id": 269688711,
                    "tags": {
                        "name": "Red Rooster",
                        "brand": "Red Rooster",
                        "amenity": "fast_food",
                        "cuisine": "chicken",
                        "website": "https://www.redrooster.com.au/",
                        "takeaway": "yes",
                        "brand:wikidata": "Q376466",
                        "brand:wikipedia": "en:Red Rooster"
                    },
                    "distance": 2755.04006331
                },
                {
                    "id": 10272516998,
                    "tags": {
                        "name": "Grey Shark Fish & Chips",
                        "phone": "+61 3 9879 2567",
                        "amenity": "fast_food",
                        "cuisine": "fish_and_chips",
                        "addr:unit": "3",
                        "addr:state": "VIC",
                        "addr:street": "Old Lilydale Road",
                        "addr:suburb": "Ringwood East",
                        "addr:postcode": "3135",
                        "drive_through": "no",
                        "opening_hours": "Tu-Th 12:00-20:00; Fr 11:30-20:30; Sa-Su 12:00-20:00",
                        "addr:housenumber": "11"
                    },
                    "distance": 5506.21669651
                },
                {
                    "id": 9910662673,
                    "tags": {
                        "name": "2 sisters pizzeria",
                        "phone": "+61 3 8739 9994",
                        "amenity": "fast_food",
                        "cuisine": "pizza",
                        "website": "http://www.2sp.com.au/",
                        "addr:state": "VIC",
                        "addr:street": "Lincoln Road",
                        "addr:suburb": "Croydon",
                        "addr:postcode": "3136",
                        "drive_through": "no",
                        "opening_hours": "We-Th 16:30-20:30; Fr-Sa 16:30-21:30; Su 16:30-20:30",
                        "addr:housenumber": "97"
                    },
                    "distance": 5528.45438634
                },
                {
                    "id": 10026035426,
                    "tags": {
                        "name": "Subway",
                        "brand": "Subway",
                        "phone": "+61 3 9876 9432",
                        "amenity": "fast_food",
                        "cuisine": "sandwich",
                        "website": "https://www.subway.com/en-AU/",
                        "takeaway": "yes",
                        "addr:state": "VIC",
                        "addr:street": "Maroondah Highway",
                        "addr:suburb": "Ringwood",
                        "addr:postcode": "3134",
                        "drive_through": "no",
                        "opening_hours": "Mo-Fr 09:00-20:30; Sa-Su 10:00-19:00",
                        "brand:wikidata": "Q244457",
                        "addr:housenumber": "293-305"
                    },
                    "distance": 6386.22653038
                },
                {
                    "id": 5374509956,
                    "tags": {
                        "name": "McAdam Square Fish and Chips",
                        "amenity": "fast_food",
                        "cuisine": "fish_and_chips"
                    },
                    "distance": 6619.55791729
                },
                {
                    "id": 3114406708,
                    "tags": {
                        "name": "Milk Bar",
                        "amenity": "fast_food",
                        "indoor_seating": "no",
                        "outdoor_seating": "yes"
                    },
                    "distance": 7112.04732327
                },
                {
                    "id": 9704331746,
                    "tags": {
                        "name": "Grill'd",
                        "brand": "Grill'd",
                        "phone": "+61 3 8682 1880",
                        "amenity": "fast_food",
                        "cuisine": "burger",
                        "website": "https://www.grilld.com.au/",
                        "takeaway": "yes",
                        "addr:state": "VIC",
                        "addr:street": "Maroondah Highway",
                        "addr:suburb": "Chirnside Park",
                        "addr:postcode": "3116",
                        "drive_through": "no",
                        "brand:wikidata": "Q18165852",
                        "addr:housenumber": "239-241"
                    },
                    "distance": 8572.73618384
                },
                {
                    "id": 1278212705,
                    "tags": {
                        "name": "Victoria's Quality Fish and Chips",
                        "amenity": "fast_food",
                        "cuisine": "fish_and_chips"
                    },
                    "distance": 8914.98841288
                },
                {
                    "id": 2153949407,
                    "tags": {
                        "name": "Johnny Boys Pizza",
                        "amenity": "fast_food",
                        "cuisine": "pizza",
                        "website": "https://www.johnnyboyspizza.com.au/",
                        "addr:street": "Main Street",
                        "addr:postcode": "3140",
                        "addr:housenumber": "203"
                    },
                    "distance": 9856.50458402
                }
            ]
        },
        "15": {
            "execution_time": 0.014894723892211914,
            "results": [
                {
                    "id": 8404873042,
                    "tags": {
                        "name": "ANZ",
                        "brand": "ANZ",
                        "amenity": "bank",
                        "official_name": "Australia and New Zealand Banking Group Limited",
                        "brand:wikidata": "Q714641",
                        "brand:wikipedia": "en:Australia and New Zealand Banking Group"
                    },
                    "distance": 15596.57223969
                }
            ]
        },
        "16": {
            "execution_time": 0.016562223434448242,
            "results": [
                {
                    "id": 5050859656,
                    "tags": {
                        "name": "The Sharp Kat",
                        "shop": "hairdresser",
                        "addr:state": "VIC",
                        "addr:street": "Mason Street",
                        "addr:suburb": "Newport",
                        "addr:postcode": "3015",
                        "addr:housenumber": "40"
                    },
                    "distance": 11243.36144703
                },
                {
                    "id": 10026346571,
                    "tags": {
                        "name": "Fantasy Hair Studio",
                        "shop": "hairdresser"
                    },
                    "distance": 11872.51467184
                },
                {
                    "id": 5824764078,
                    "tags": {
                        "name": "The Beauty Of Hair",
                        "shop": "hairdresser"
                    },
                    "distance": 13648.66135824
                },
                {
                    "id": 5824764050,
                    "tags": {
                        "name": "Hanan Hairdress",
                        "shop": "hairdresser",
                        "addr:unit": "G3",
                        "addr:street": "Hampshire Road",
                        "addr:housenumber": "254"
                    },
                    "distance": 13680.19308847
                },
                {
                    "id": 5824763971,
                    "tags": {
                        "name": "National Hair Design",
                        "shop": "hairdresser"
                    },
                    "distance": 13756.04480527
                },
                {
                    "id": 5824763977,
                    "tags": {
                        "name": "Lindy Hair Beauty",
                        "shop": "hairdresser"
                    },
                    "distance": 14135.20660543
                },
                {
                    "id": 6403353733,
                    "tags": {
                        "shop": "hairdresser"
                    },
                    "distance": 16185.24974123
                }
            ]
        },
        "17": {
            "execution_time": 0.01574254035949707,
            "results": [
                {
                    "id": 11087778324,
                    "tags": {
                        "access": "yes",
                        "amenity": "bicycle_parking",
                        "covered": "no",
                        "capacity": "4",
                        "bicycle_parking": "stands"
                    },
                    "distance": 558.26316757
                },
                {
                    "id": 9880139590,
                    "tags": {
                        "access": "yes",
                        "amenity": "bicycle_parking",
                        "capacity": "2",
                        "survey:date": "2020-02-15",
                        "bicycle_parking": "stands"
                    },
                    "distance": 921.42032589
                },
                {
                    "id": 7076843288,
                    "tags": {
                        "amenity": "bicycle_parking",
                        "covered": "no",
                        "capacity": "25",
                        "bicycle_parking": "wide_stands"
                    },
                    "distance": 1055.9044135
                },
                {
                    "id": 10228158782,
                    "tags": {
                        "amenity": "bicycle_parking",
                        "capacity": "4"
                    },
                    "distance": 1655.51583492
                },
                {
                    "id": 10958662431,
                    "tags": {
                        "amenity": "bicycle_parking",
                        "covered": "no",
                        "capacity": "8",
                        "bicycle_parking": "stands"
                    },
                    "distance": 1800.242571
                },
                {
                    "id": 11932311046,
                    "tags": {
                        "fee": "no",
                        "access": "yes",
                        "amenity": "bicycle_parking",
                        "covered": "no",
                        "capacity": "8",
                        "material": "metal",
                        "bicycle_parking": "stands"
                    },
                    "distance": 1863.18913083
                },
                {
                    "id": 10142741884,
                    "tags": {
                        "access": "yes",
                        "amenity": "bicycle_parking",
                        "covered": "no",
                        "capacity": "10",
                        "bicycle_parking": "stands"
                    },
                    "distance": 1951.59893655
                },
                {
                    "id": 9888670147,
                    "tags": {
                        "access": "yes",
                        "amenity": "bicycle_parking",
                        "capacity": "2",
                        "bicycle_parking": "stands"
                    },
                    "distance": 2977.18847563
                },
                {
                    "id": 9888670148,
                    "tags": {
                        "access": "yes",
                        "amenity": "bicycle_parking",
                        "capacity": "2",
                        "bicycle_parking": "stands"
                    },
                    "distance": 3010.72066532
                },
                {
                    "id": 9962820432,
                    "tags": {
                        "access": "yes",
                        "amenity": "bicycle_parking",
                        "covered": "no",
                        "capacity": "2",
                        "bicycle_parking": "post_hoop"
                    },
                    "distance": 3041.68593558
                }
            ]
        },
        "18": {
            "execution_time": 0.014267206192016602,
            "results": [
                {
                    "id": 3382070401,
                    "tags": {
                        "name": "Panic Pizza",
                        "phone": "+61 3 9357 9350",
                        "amenity": "fast_food",
                        "cuisine": "pizza",
                        "takeaway": "yes",
                        "addr:street": "Barry Road",
                        "addr:suburb": "Campbellfield",
                        "addr:housenumber": "335"
                    },
                    "distance": 4044.42661266
                },
                {
                    "id": 9129657964,
                    "tags": {
                        "name": "Indian Takeaway Fish and Chips",
                        "amenity": "fast_food",
                        "cuisine": "curry"
                    },
                    "distance": 4056.03724162
                },
                {
                    "id": 6968130703,
                    "tags": {
                        "name": "Hungry Jack's",
                        "brand": "Hungry Jack's",
                        "amenity": "fast_food",
                        "cuisine": "burger",
                        "takeaway": "yes",
                        "brand:wikidata": "Q3036373",
                        "brand:wikipedia": "en:Hungry Jack's"
                    },
                    "distance": 4551.76219269
                },
                {
                    "id": 5240504726,
                    "tags": {
                        "name": "Subway",
                        "brand": "Subway",
                        "amenity": "fast_food",
                        "cuisine": "sandwich",
                        "takeaway": "yes",
                        "brand:wikidata": "Q244457",
                        "brand:wikipedia": "en:Subway (restaurant)"
                    },
                    "distance": 4623.25138499
                },
                {
                    "id": 6369136178,
                    "tags": {
                        "name": "Moon Palace",
                        "phone": "+61 3 9478 5937",
                        "amenity": "fast_food",
                        "cuisine": "chinese",
                        "takeaway": "only",
                        "addr:state": "VIC",
                        "addr:street": "Gilbert Road",
                        "addr:suburb": "Preston",
                        "addr:postcode": "3072",
                        "drive_through": "no",
                        "opening_hours": "Mo-Sa 11:30-14:00,17:00-21:00; Tu off; Su 17:00-21:00",
                        "addr:housenumber": "609"
                    },
                    "distance": 6165.96758977
                },
                {
                    "id": 2911249230,
                    "tags": {
                        "amenity": "fast_food",
                        "cuisine": "fish_and_chips"
                    },
                    "distance": 6470.24492985
                },
                {
                    "id": 7396461315,
                    "tags": {
                        "name": "Gills Fish & Chips",
                        "phone": "+61 3 9484 4557",
                        "amenity": "fast_food",
                        "cuisine": "fish_and_chips",
                        "website": "https://www.facebook.com/gillsfishnchips/",
                        "addr:street": "Gilbert Road",
                        "addr:housenumber": "13"
                    },
                    "distance": 7456.04094192
                },
                {
                    "id": 5638787971,
                    "tags": {
                        "name": "Peter's Pizza and Takeaway",
                        "note": "Shop C207",
                        "phone": "+61 3 9478 1793",
                        "amenity": "fast_food",
                        "cuisine": "pizza;italian",
                        "smoking": "no",
                        "delivery": "no",
                        "takeaway": "yes",
                        "addr:state": "VIC",
                        "addr:street": "The Centreway",
                        "addr:suburb": "Preston",
                        "addr:postcode": "3072",
                        "drive_through": "no",
                        "outdoor_seating": "yes"
                    },
                    "distance": 7550.87847943
                },
                {
                    "id": 6017199866,
                    "tags": {
                        "name": "Sylvester\u2019s Pizza",
                        "amenity": "fast_food"
                    },
                    "distance": 7816.03564411
                },
                {
                    "id": 2200740935,
                    "tags": {
                        "name": "Subway",
                        "brand": "Subway",
                        "amenity": "fast_food",
                        "cuisine": "sandwich",
                        "takeaway": "yes",
                        "brand:wikidata": "Q244457",
                        "brand:wikipedia": "en:Subway (restaurant)"
                    },
                    "distance": 8028.367883
                }
            ]
        },
        "19": {
            "execution_time": 0.01123666763305664,
            "results": []
        },
        "20": {
            "execution_time": 0.010759592056274414,
            "results": [
                {
                    "id": 4678180524,
                    "tags": {
                        "name": "Foodworks",
                        "shop": "supermarket",
                        "brand": "Foodworks",
                        "level": "0",
                        "website": "https://www.foodworks.com.au/",
                        "full_name": "Foodworks Greythorn",
                        "addr:state": "VIC",
                        "wheelchair": "yes",
                        "addr:street": "Doncaster Road",
                        "addr:suburb": "Balwyn North",
                        "addr:postcode": "3104",
                        "opening_hours": "Mo-Sa 07:30-20:00; Su 08:00-20:00",
                        "brand:wikidata": "Q5465579",
                        "brand:wikipedia": "en:FoodWorks",
                        "addr:housenumber": "293"
                    },
                    "distance": 1750.64541622
                },
                {
                    "id": 6717437396,
                    "tags": {
                        "name": "IGA",
                        "shop": "supermarket",
                        "brand": "IGA",
                        "phone": "+61 3 9859 1782",
                        "addr:street": "High Street",
                        "opening_hours": "Mo-Sa 08:00-19:00; Fr 08:00-19:30; Su 09:00-18:00",
                        "brand:wikidata": "Q5970945",
                        "brand:wikipedia": "en:IGA (supermarkets)",
                        "addr:housenumber": "655"
                    },
                    "distance": 2032.2365842
                },
                {
                    "id": 7690432997,
                    "tags": {
                        "name": "Coles",
                        "shop": "supermarket",
                        "brand": "Coles",
                        "level": "0",
                        "organic": "yes",
                        "toilets": "no",
                        "operator": "Coles Group",
                        "wheelchair": "yes",
                        "opening_hours": "Mo-Su 07:00-22:00; PH open",
                        "brand:wikidata": "Q1108172",
                        "brand:wikipedia": "en:Coles Supermarkets",
                        "operator:wikidata": "Q1339055"
                    },
                    "distance": 4739.19195986
                },
                {
                    "id": 11806575269,
                    "tags": {
                        "name": "Bivihome",
                        "shop": "supermarket",
                        "email": "customerservice@bivihome.com.au",
                        "phone": "+61 433 788 159",
                        "website": "https://bivihome.com.au",
                        "addr:street": "Darebin Road",
                        "addr:postcode": "3071",
                        "opening_hours": "24/7",
                        "addr:housenumber": "351"
                    },
                    "distance": 5204.0222436
                },
                {
                    "id": 3840226142,
                    "tags": {
                        "name": "Fitzroy IGA",
                        "shop": "supermarket",
                        "brand": "IGA",
                        "brand:wikidata": "Q5970945",
                        "brand:wikipedia": "en:IGA (supermarkets)"
                    },
                    "distance": 8430.96319596
                },
                {
                    "id": 5793452696,
                    "tags": {
                        "name": "IGA",
                        "shop": "supermarket",
                        "brand": "IGA",
                        "branch": "Xpress",
                        "website": "https://www.iga.com.au/stores/iga-xpress-ettaro-plus-liquor/",
                        "opening_hours": "Mo-Fr 07:00-23:00; Sa-Su 08:00-23:00",
                        "brand:wikidata": "Q5970945",
                        "brand:wikipedia": "en:IGA (Australian supermarket group)"
                    },
                    "distance": 8907.34032982
                },
                {
                    "id": 2045666737,
                    "tags": {
                        "name": "ALDI",
                        "shop": "supermarket",
                        "brand": "ALDI",
                        "website": "https://store.aldi.com.au/vic/the-pines/181-reynolds-road",
                        "full_name": "ALDI The Pines",
                        "addr:street": "Reynolds Road",
                        "opening_hours": "Mo-Su 08:30-20:00",
                        "brand:wikidata": "Q41171672",
                        "brand:wikipedia": "en:Aldi",
                        "addr:housenumber": "181",
                        "check_date:opening_hours": "2023-05-05"
                    },
                    "distance": 9191.84653549
                },
                {
                    "id": 10223008755,
                    "tags": {
                        "ref": "7724",
                        "name": "Coles",
                        "note": "Estimated location from survey",
                        "shop": "supermarket",
                        "brand": "Coles",
                        "image": "https://web.archive.org/web/20221219000703/https://i.imgur.com/TwJn5sC_d.webp?maxwidth=2560&shape=thumb&fidelity=high",
                        "phone": "+61 3 9056 0000",
                        "branch": "Caulfield Village",
                        "alt_name": "Caulfield Village Coles;Coles Caulfield Village",
                        "operator": "Coles Group",
                        "wheelchair": "yes",
                        "official_name": "Coles Supermarkets Australia Pty Ltd",
                        "opening_hours": "Mo-Su 07:00-23:00",
                        "brand:wikidata": "Q1108172",
                        "operator:ref:abn": "45004189708",
                        "operator:wikidata": "Q1339055"
                    },
                    "distance": 9412.22549115
                },
                {
                    "id": 3841977822,
                    "tags": {
                        "name": "Crown Asian Supermarket",
                        "shop": "supermarket"
                    },
                    "distance": 10157.3094579
                },
                {
                    "id": 666846427,
                    "tags": {
                        "name": "Woolworths",
                        "shop": "supermarket",
                        "brand": "Woolworths",
                        "phone": "+61 3 9381 4442",
                        "website": "https://www.woolworths.com.au/",
                        "operator": "Woolworths Group",
                        "full_name": "Woolworths Barkly Square",
                        "opening_hours": "Mo-Su 7:00-0:00",
                        "brand:wikidata": "Q3249145",
                        "brand:wikipedia": "en:Woolworths Supermarkets",
                        "operator:wikidata": "Q607272"
                    },
                    "distance": 10231.4350383
                }
            ]
        },
        "21": {
            "execution_time": 0.012135982513427734,
            "results": [
                {
                    "id": 6018879560,
                    "tags": {
                        "name": "Westpac",
                        "brand": "Westpac",
                        "amenity": "atm",
                        "operator": "Westpac",
                        "check_date": "2023-01-21",
                        "brand:wikidata": "Q2031726",
                        "operator:wikidata": "Q2031726"
                    },
                    "distance": 2520.56760847
                },
                {
                    "id": 2365308409,
                    "tags": {
                        "name": "Bendigo Bank",
                        "brand": "Bendigo Bank",
                        "amenity": "atm",
                        "website": "https://www.bendigobank.com.au/",
                        "operator": "Bendigo Bank",
                        "brand:wikidata": "Q4887077",
                        "operator:wikidata": "Q4887077"
                    },
                    "distance": 3418.76198584
                },
                {
                    "id": 6359523427,
                    "tags": {
                        "amenity": "atm"
                    },
                    "distance": 6973.07840518
                },
                {
                    "id": 319636022,
                    "tags": {
                        "name": "Westpac",
                        "brand": "Westpac",
                        "amenity": "atm",
                        "operator": "Westpac",
                        "brand:wikidata": "Q2031726",
                        "brand:wikipedia": "en:Westpac",
                        "operator:wikidata": "Q2031726",
                        "operator:wikipedia": "en:Westpac"
                    },
                    "distance": 8156.39053009
                },
                {
                    "id": 2515559833,
                    "tags": {
                        "name": "Westpac Bank",
                        "amenity": "atm",
                        "website": "https://www.westpac.com.au/",
                        "operator": "Westpac Bank",
                        "addr:street": "Main Street",
                        "addr:suburb": "Mordialloc",
                        "addr:postcode": "3195",
                        "addr:housenumber": "529-531"
                    },
                    "distance": 8459.19789134
                },
                {
                    "id": 615077652,
                    "tags": {
                        "name": "Westpac",
                        "brand": "Westpac",
                        "level": "2",
                        "amenity": "atm",
                        "operator": "Westpac",
                        "brand:wikidata": "Q2031726",
                        "brand:wikipedia": "en:Westpac",
                        "operator:wikidata": "Q2031726",
                        "operator:wikipedia": "en:Westpac"
                    },
                    "distance": 8548.97874283
                },
                {
                    "id": 1709524536,
                    "tags": {
                        "amenity": "atm",
                        "operator": "atmx",
                        "currency:AUD": "yes",
                        "drive_through": "no"
                    },
                    "distance": 10551.09348036
                },
                {
                    "id": 5251551373,
                    "tags": {
                        "name": "DC Atm",
                        "amenity": "atm"
                    },
                    "distance": 10841.80056064
                },
                {
                    "id": 5243876838,
                    "tags": {
                        "name": "Commonwealth Bank",
                        "amenity": "atm"
                    },
                    "distance": 11926.13213932
                },
                {
                    "id": 3889897784,
                    "tags": {
                        "name": "NAB",
                        "brand": "NAB",
                        "amenity": "atm",
                        "operator": "NAB",
                        "wheelchair": "yes",
                        "brand:wikidata": "Q1430985",
                        "brand:wikipedia": "en:National Australia Bank",
                        "operator:wikidata": "Q1430985",
                        "operator:wikipedia": "en:National Australia Bank"
                    },
                    "distance": 13341.34230426
                }
            ]
        },
        "22": {
            "execution_time": 0.012192010879516602,
            "results": [
                {
                    "id": 7745862796,
                    "tags": {
                        "amenity": "bench",
                        "tourism": "viewpoint",
                        "backrest": "yes"
                    },
                    "distance": 2372.59775119
                },
                {
                    "id": 11016755952,
                    "tags": {
                        "amenity": "bench"
                    },
                    "distance": 2852.3269575
                },
                {
                    "id": 8383668149,
                    "tags": {
                        "seats": "3",
                        "colour": "green",
                        "amenity": "bench",
                        "backrest": "yes",
                        "material": "wood",
                        "check_date": "2024-10-06"
                    },
                    "distance": 5609.77299835
                },
                {
                    "id": 4357505655,
                    "tags": {
                        "amenity": "bench"
                    },
                    "distance": 11354.89832454
                },
                {
                    "id": 9482964023,
                    "tags": {
                        "amenity": "bench"
                    },
                    "distance": 17459.79573696
                },
                {
                    "id": 9575179132,
                    "tags": {
                        "amenity": "bench"
                    },
                    "distance": 17612.11381879
                },
                {
                    "id": 9544937926,
                    "tags": {
                        "amenity": "bench"
                    },
                    "distance": 17704.76982791
                },
                {
                    "id": 9260723033,
                    "tags": {
                        "amenity": "bench"
                    },
                    "distance": 17844.65026679
                }
            ]
        },
        "23": {
            "execution_time": 0.010872602462768555,
            "results": [
                {
                    "id": 5402564822,
                    "tags": {
                        "name": "Frozen Mart",
                        "shop": "supermarket",
                        "layer": "2"
                    },
                    "distance": 3713.68258059
                },
                {
                    "id": 5187993676,
                    "tags": {
                        "name": "Pride Of Punjab",
                        "shop": "supermarket"
                    },
                    "distance": 5092.03554361
                },
                {
                    "id": 1583422493,
                    "tags": {
                        "ref": "536",
                        "name": "Coles",
                        "note": "yes, there are two here, this is the former bilo",
                        "shop": "supermarket",
                        "brand": "Coles",
                        "phone": "+61 3 9544 9530",
                        "website": "https://www.coles.com.au/",
                        "alt_name": "Coles Centre Road; Centre Road Coles; Coles Clayton; Coles Clayton Centre Road; Clayton Coles Centre Road",
                        "operator": "Coles Group",
                        "addr:state": "VIC",
                        "addr:street": "Centre Road",
                        "addr:suburb": "Clayton",
                        "addr:postcode": "3168",
                        "official_name": "Coles Supermarkets Pty Ltd",
                        "brand:wikidata": "Q1108172",
                        "brand:wikipedia": "en:Coles Supermarkets",
                        "addr:housenumber": "1389-1391",
                        "operator:ref:abn": "45004189708",
                        "operator:wikidata": "Q1339055"
                    },
                    "distance": 5833.37011538
                },
                {
                    "id": 1489457274,
                    "tags": {
                        "name": "Ritchies",
                        "shop": "supermarket",
                        "brand": "Ritchies",
                        "website": "https://www.ritchies.com.au/",
                        "opening_hours": "Mo-Su 07:00-22:00",
                        "brand:wikidata": "Q7336696",
                        "brand:wikipedia": "en:Ritchies Stores"
                    },
                    "distance": 5985.32483575
                },
                {
                    "id": 11687951069,
                    "tags": {
                        "name": "Big Watermelon",
                        "shop": "supermarket"
                    },
                    "distance": 6374.94186647
                },
                {
                    "id": 1453185997,
                    "tags": {
                        "shop": "supermarket"
                    },
                    "distance": 7813.82788073
                },
                {
                    "id": 1557920937,
                    "tags": {
                        "name": "Coles",
                        "shop": "supermarket",
                        "brand": "Coles",
                        "website": "https://www.coles.com.au/",
                        "operator": "Coles Group",
                        "addr:unit": "93-94",
                        "addr:street": "Heatherton Road",
                        "opening_hours": "Mo-Su,PH 07:00-22:00",
                        "brand:wikidata": "Q1108172",
                        "brand:wikipedia": "en:Coles Supermarkets",
                        "addr:housenumber": "78",
                        "operator:wikidata": "Q1339055"
                    },
                    "distance": 8379.51706125
                },
                {
                    "id": 7690432997,
                    "tags": {
                        "name": "Coles",
                        "shop": "supermarket",
                        "brand": "Coles",
                        "level": "0",
                        "organic": "yes",
                        "toilets": "no",
                        "operator": "Coles Group",
                        "wheelchair": "yes",
                        "opening_hours": "Mo-Su 07:00-22:00; PH open",
                        "brand:wikidata": "Q1108172",
                        "brand:wikipedia": "en:Coles Supermarkets",
                        "operator:wikidata": "Q1339055"
                    },
                    "distance": 13476.8591951
                },
                {
                    "id": 1239740988,
                    "tags": {
                        "name": "Woolworths",
                        "shop": "supermarket",
                        "brand": "Woolworths",
                        "website": "https://www.woolworths.com.au/",
                        "operator": "Woolworths Group",
                        "brand:wikidata": "Q3249145",
                        "brand:wikipedia": "en:Woolworths Supermarkets",
                        "operator:wikidata": "Q607272"
                    },
                    "distance": 13497.05054765
                },
                {
                    "id": 10223008755,
                    "tags": {
                        "ref": "7724",
                        "name": "Coles",
                        "note": "Estimated location from survey",
                        "shop": "supermarket",
                        "brand": "Coles",
                        "image": "https://web.archive.org/web/20221219000703/https://i.imgur.com/TwJn5sC_d.webp?maxwidth=2560&shape=thumb&fidelity=high",
                        "phone": "+61 3 9056 0000",
                        "branch": "Caulfield Village",
                        "alt_name": "Caulfield Village Coles;Coles Caulfield Village",
                        "operator": "Coles Group",
                        "wheelchair": "yes",
                        "official_name": "Coles Supermarkets Australia Pty Ltd",
                        "opening_hours": "Mo-Su 07:00-23:00",
                        "brand:wikidata": "Q1108172",
                        "operator:ref:abn": "45004189708",
                        "operator:wikidata": "Q1339055"
                    },
                    "distance": 14230.47655234
                }
            ]
        },
        "24": {
            "execution_time": 0.014605998992919922,
            "results": [
                {
                    "id": 4696822420,
                    "tags": {
                        "amenity": "bench",
                        "backrest": "yes",
                        "check_date": "2021-04-01"
                    },
                    "distance": 717.44590302
                },
                {
                    "id": 9063440990,
                    "tags": {
                        "amenity": "bench"
                    },
                    "distance": 1485.57775192
                },
                {
                    "id": 2676312410,
                    "tags": {
                        "amenity": "bench"
                    },
                    "distance": 1509.78824141
                },
                {
                    "id": 2676351303,
                    "tags": {
                        "amenity": "bench"
                    },
                    "distance": 1695.30208892
                },
                {
                    "id": 2676253975,
                    "tags": {
                        "source": "GPS",
                        "amenity": "bench"
                    },
                    "distance": 2075.42355957
                },
                {
                    "id": 9724971908,
                    "tags": {
                        "amenity": "bench"
                    },
                    "distance": 2766.65169518
                },
                {
                    "id": 2673961388,
                    "tags": {
                        "amenity": "bench"
                    },
                    "distance": 2993.51709713
                },
                {
                    "id": 5824764005,
                    "tags": {
                        "amenity": "bench"
                    },
                    "distance": 3058.65429142
                },
                {
                    "id": 2655250143,
                    "tags": {
                        "amenity": "bench"
                    },
                    "distance": 3129.0118164
                },
                {
                    "id": 11924029312,
                    "tags": {
                        "amenity": "bench",
                        "backrest": "yes"
                    },
                    "distance": 3361.9055358
                }
            ]
        },
        "25": {
            "execution_time": 0.012400150299072266,
            "results": [
                {
                    "id": 4213572165,
                    "tags": {
                        "source": "survey",
                        "amenity": "telephone"
                    },
                    "distance": 16037.84644665
                }
            ]
        },
        "26": {
            "execution_time": 0.00868368148803711,
            "results": []
        },
        "27": {
            "execution_time": 0.007524728775024414,
            "results": []
        },
        "28": {
            "execution_time": 0.021433353424072266,
            "results": [
                {
                    "id": 9653844871,
                    "tags": {
                        "amenity": "bench"
                    },
                    "distance": 1210.64475388
                },
                {
                    "id": 2651176375,
                    "tags": {
                        "amenity": "bench"
                    },
                    "distance": 2115.83089311
                },
                {
                    "id": 2673961388,
                    "tags": {
                        "amenity": "bench"
                    },
                    "distance": 3076.00898476
                },
                {
                    "id": 4698479277,
                    "tags": {
                        "amenity": "bench",
                        "backrest": "yes"
                    },
                    "distance": 3185.1218458
                },
                {
                    "id": 11497393044,
                    "tags": {
                        "amenity": "bench"
                    },
                    "distance": 3409.99154288
                },
                {
                    "id": 11916984793,
                    "tags": {
                        "seats": "3",
                        "colour": "brown",
                        "amenity": "bench",
                        "backrest": "yes",
                        "material": "wood"
                    },
                    "distance": 3562.28629048
                },
                {
                    "id": 11266417642,
                    "tags": {
                        "amenity": "bench"
                    },
                    "distance": 3712.67991307
                },
                {
                    "id": 3194806131,
                    "tags": {
                        "amenity": "bench",
                        "backrest": "yes"
                    },
                    "distance": 4008.58469521
                },
                {
                    "id": 2646549662,
                    "tags": {
                        "amenity": "bench"
                    },
                    "distance": 4021.85729081
                },
                {
                    "id": 5551522123,
                    "tags": {
                        "amenity": "bench"
                    },
                    "distance": 4043.16307864
                }
            ]
        },
        "29": {
            "execution_time": 0.00634455680847168,
            "results": []
        },
        "30": {
            "execution_time": 0.01287841796875,
            "results": [
                {
                    "id": 1502373849,
                    "tags": {
                        "amenity": "bench",
                        "backrest": "no",
                        "material": "wood"
                    },
                    "distance": 1326.03500227
                },
                {
                    "id": 603104087,
                    "tags": {
                        "source": "nearmap",
                        "amenity": "bench"
                    },
                    "distance": 1402.31323523
                },
                {
                    "id": 11377494037,
                    "tags": {
                        "amenity": "bench"
                    },
                    "distance": 1618.02947209
                },
                {
                    "id": 5258760278,
                    "tags": {
                        "amenity": "bench",
                        "backrest": "yes"
                    },
                    "distance": 2549.10493327
                },
                {
                    "id": 9602759008,
                    "tags": {
                        "amenity": "bench"
                    },
                    "distance": 3396.95449423
                },
                {
                    "id": 12160514658,
                    "tags": {
                        "amenity": "bench"
                    },
                    "distance": 4457.19079124
                },
                {
                    "id": 2926008961,
                    "tags": {
                        "colour": "green",
                        "source": "survey",
                        "amenity": "bench",
                        "backrest": "yes",
                        "material": "metal"
                    },
                    "distance": 5158.47727671
                },
                {
                    "id": 10005956923,
                    "tags": {
                        "amenity": "bench"
                    },
                    "distance": 6157.79778717
                },
                {
                    "id": 12537260696,
                    "tags": {
                        "amenity": "bench",
                        "armrest": "no",
                        "backrest": "no",
                        "material": "wood"
                    },
                    "distance": 6205.88650389
                },
                {
                    "id": 9996118701,
                    "tags": {
                        "amenity": "bench"
                    },
                    "distance": 6242.64864046
                }
            ]
        },
        "31": {
            "execution_time": 0.0146636962890625,
            "results": [
                {
                    "id": 9687083040,
                    "tags": {
                        "amenity": "bench",
                        "backrest": "no"
                    },
                    "distance": 13490.74970965
                },
                {
                    "id": 8958634146,
                    "tags": {
                        "seats": "4",
                        "amenity": "bench",
                        "backrest": "yes",
                        "material": "wood"
                    },
                    "distance": 14000.61186265
                },
                {
                    "id": 9546217620,
                    "tags": {
                        "amenity": "bench"
                    },
                    "distance": 15220.8687552
                },
                {
                    "id": 8954137630,
                    "tags": {
                        "amenity": "bench",
                        "backrest": "yes",
                        "material": "wood"
                    },
                    "distance": 15658.94370701
                }
            ]
        },
        "32": {
            "execution_time": 0.014622211456298828,
            "results": [
                {
                    "id": 9789737812,
                    "tags": {
                        "amenity": "drinking_water"
                    },
                    "distance": 602.43014581
                },
                {
                    "id": 9789744819,
                    "tags": {
                        "amenity": "drinking_water"
                    },
                    "distance": 1466.02838074
                },
                {
                    "id": 11554844285,
                    "tags": {
                        "amenity": "drinking_water",
                        "fountain": "bubbler"
                    },
                    "distance": 2514.67203952
                },
                {
                    "id": 5999588617,
                    "tags": {
                        "amenity": "drinking_water"
                    },
                    "distance": 2750.15758644
                },
                {
                    "id": 5551530322,
                    "tags": {
                        "amenity": "drinking_water"
                    },
                    "distance": 3066.84220651
                },
                {
                    "id": 4696830494,
                    "tags": {
                        "amenity": "drinking_water"
                    },
                    "distance": 3401.17663208
                },
                {
                    "id": 10292348700,
                    "tags": {
                        "amenity": "drinking_water"
                    },
                    "distance": 3734.97144616
                },
                {
                    "id": 3797996647,
                    "tags": {
                        "amenity": "drinking_water",
                        "fountain": "bubbler",
                        "check_date": "2022-12-02"
                    },
                    "distance": 4294.75321645
                },
                {
                    "id": 5425877105,
                    "tags": {
                        "amenity": "drinking_water"
                    },
                    "distance": 4324.30651285
                },
                {
                    "id": 3207150515,
                    "tags": {
                        "amenity": "drinking_water",
                        "fountain": "bubbler",
                        "check_date": "2024-03-03"
                    },
                    "distance": 4662.29352275
                }
            ]
        },
        "33": {
            "execution_time": 0.00994729995727539,
            "results": [
                {
                    "id": 1793129409,
                    "tags": {
                        "name": "Woolworths",
                        "shop": "supermarket",
                        "brand": "Woolworths",
                        "phone": "+61 3 8361 4713",
                        "website": "www.woolwoths.com.au",
                        "operator": "Woolworths Group",
                        "full_name": "Woolworths Taylors Hill",
                        "opening_hours": "Mo-Su 07:00-23:00",
                        "brand:wikidata": "Q3249145",
                        "brand:wikipedia": "en:Woolworths Supermarkets",
                        "operator:wikidata": "Q607272"
                    },
                    "distance": 7325.09666364
                },
                {
                    "id": 8219338729,
                    "tags": {
                        "name": "Woolworths",
                        "shop": "supermarket",
                        "brand": "Woolworths",
                        "operator": "Woolworths Group",
                        "opening_hours": "Mo-Su 07:00-22:00",
                        "brand:wikidata": "Q3249145",
                        "brand:wikipedia": "en:Woolworths Supermarkets",
                        "operator:wikidata": "Q607272"
                    },
                    "distance": 8629.44185962
                },
                {
                    "id": 1278126819,
                    "tags": {
                        "name": "Woolworths",
                        "shop": "supermarket",
                        "brand": "Woolworths",
                        "website": "https://www.woolworths.com.au/",
                        "brand:wikidata": "Q3249145",
                        "brand:wikipedia": "en:Woolworths Supermarkets"
                    },
                    "distance": 9869.32780346
                },
                {
                    "id": 3260801984,
                    "tags": {
                        "name": "Aldi",
                        "shop": "supermarket",
                        "brand": "Aldi",
                        "website": "https://www.aldi.com.au/",
                        "brand:wikidata": "Q125054",
                        "brand:wikipedia": "en:Aldi"
                    },
                    "distance": 9917.07605896
                },
                {
                    "id": 8265868890,
                    "tags": {
                        "name": "Foodworks",
                        "shop": "supermarket",
                        "brand": "Foodworks",
                        "brand:wikidata": "Q5465579",
                        "brand:wikipedia": "en:FoodWorks"
                    },
                    "distance": 14707.33029832
                },
                {
                    "id": 3951181648,
                    "tags": {
                        "name": "Woolworths",
                        "shop": "supermarket",
                        "brand": "Woolworths",
                        "operator": "Woolworths Group",
                        "brand:wikidata": "Q3249145",
                        "brand:wikipedia": "en:Woolworths Supermarkets",
                        "operator:wikidata": "Q607272"
                    },
                    "distance": 19195.11317023
                }
            ]
        },
        "34": {
            "execution_time": 0.010922670364379883,
            "results": [
                {
                    "id": 7838610674,
                    "tags": {
                        "amenity": "bench"
                    },
                    "distance": 4810.97852513
                },
                {
                    "id": 10571708261,
                    "tags": {
                        "seats": "4",
                        "amenity": "bench",
                        "backrest": "yes",
                        "material": "wood"
                    },
                    "distance": 5031.08260688
                },
                {
                    "id": 9761453233,
                    "tags": {
                        "amenity": "bench"
                    },
                    "distance": 10403.49120382
                },
                {
                    "id": 11815768179,
                    "tags": {
                        "colour": "gray",
                        "amenity": "bench",
                        "backrest": "yes",
                        "material": "plastic"
                    },
                    "distance": 11172.98066429
                },
                {
                    "id": 5980632046,
                    "tags": {
                        "amenity": "bench"
                    },
                    "distance": 11775.75564743
                },
                {
                    "id": 5980632269,
                    "tags": {
                        "amenity": "bench"
                    },
                    "distance": 11812.25406719
                },
                {
                    "id": 9921613443,
                    "tags": {
                        "amenity": "bench"
                    },
                    "distance": 12776.66503114
                },
                {
                    "id": 9546217620,
                    "tags": {
                        "amenity": "bench"
                    },
                    "distance": 13552.65371454
                },
                {
                    "id": 8873701547,
                    "tags": {
                        "amenity": "bench"
                    },
                    "distance": 15732.93798188
                },
                {
                    "id": 9687083040,
                    "tags": {
                        "amenity": "bench",
                        "backrest": "no"
                    },
                    "distance": 15960.94099795
                }
            ]
        },
        "35": {
            "execution_time": 0.010590553283691406,
            "results": [
                {
                    "id": 1749593153,
                    "tags": {
                        "name": "The King of Tonga",
                        "phone": "+61 3 9531 5279",
                        "amenity": "pub",
                        "website": "https://www.thekingoftonga.com.au/",
                        "addr:street": "Tennyson Street",
                        "addr:suburb": "Elwood",
                        "opening_hours": "Mo-Th 15:00-23:00; Fr,Sa 12:00-24:00; Su 12:00-23:00",
                        "addr:housenumber": "164a"
                    },
                    "distance": 7651.47190607
                },
                {
                    "id": 455979637,
                    "tags": {
                        "name": "Dingley International",
                        "amenity": "pub"
                    },
                    "distance": 7889.71827924
                },
                {
                    "id": 302977766,
                    "tags": {
                        "name": "Dick Whittington Tavern",
                        "amenity": "pub"
                    },
                    "distance": 8796.80021683
                },
                {
                    "id": 570698836,
                    "tags": {
                        "name": "George Hotel",
                        "amenity": "pub",
                        "website": "www.thegeorgehotelstkilda.com.au",
                        "wikidata": "Q56051943"
                    },
                    "distance": 10031.84991086
                },
                {
                    "id": 576854416,
                    "tags": {
                        "name": "St Hotel",
                        "amenity": "pub",
                        "website": "https://sthotel.com.au/"
                    },
                    "distance": 10093.66380936
                },
                {
                    "id": 11639103022,
                    "tags": {
                        "amenity": "pub",
                        "addr:street": "Chapel Street",
                        "addr:housenumber": "455"
                    },
                    "distance": 10348.80588865
                },
                {
                    "id": 2192007534,
                    "tags": {
                        "name": "Braeside Brewing Co",
                        "phone": "+61 435 985 423",
                        "amenity": "pub",
                        "website": "https://www.braesidebrewingco.com.au/",
                        "addr:street": "Governor Road",
                        "microbrewery": "yes",
                        "addr:housenumber": "43"
                    },
                    "distance": 10353.13944081
                },
                {
                    "id": 3979090377,
                    "tags": {
                        "name": "Cricketers Arms Hotel",
                        "amenity": "pub",
                        "wheelchair": "no",
                        "opening_hours": "We,Th 16:00-23:00+; Fr,Sa 13:00-23:00+; Su 14:00-23:00+",
                        "payment:debit_cards": "yes",
                        "payment:credit_cards": "yes"
                    },
                    "distance": 12552.38104916
                },
                {
                    "id": 1657117167,
                    "tags": {
                        "name": "Postmaster Hotel",
                        "phone": "+61 3 9852 8200",
                        "amenity": "pub",
                        "website": "https://postmasterhotel.com/",
                        "takeaway": "yes",
                        "addr:street": "High Street",
                        "happy_hours": "Th-Su 16:00-18:00",
                        "payment:cash": "yes",
                        "payment:visa": "yes",
                        "opening_hours": "Mo-We, Su 11:30-23:00; Th-Sa 11:30-23:30",
                        "addr:housenumber": "186",
                        "payment:mastercard": "yes",
                        "payment:american_express": "yes"
                    },
                    "distance": 12815.54850182
                },
                {
                    "id": 380060564,
                    "tags": {
                        "name": "Town Hall Hotel",
                        "amenity": "pub",
                        "addr:street": "Bank Street",
                        "addr:housenumber": "135-137"
                    },
                    "distance": 12960.33927469
                }
            ]
        },
        "36": {
            "execution_time": 0.010352849960327148,
            "results": [
                {
                    "id": 9159885939,
                    "tags": {
                        "amenity": "bbq"
                    },
                    "distance": 6252.80532074
                },
                {
                    "id": 2500320096,
                    "tags": {
                        "fuel": "electric",
                        "amenity": "bbq",
                        "covered": "no"
                    },
                    "distance": 6965.41138175
                },
                {
                    "id": 2760877297,
                    "tags": {
                        "fuel": "electric",
                        "amenity": "bbq"
                    },
                    "distance": 6979.37388122
                },
                {
                    "id": 3632447797,
                    "tags": {
                        "amenity": "bbq"
                    },
                    "distance": 7940.14719361
                },
                {
                    "id": 2172941313,
                    "tags": {
                        "fuel": "electric",
                        "source": "survey",
                        "amenity": "bbq"
                    },
                    "distance": 8129.96325002
                },
                {
                    "id": 11153206743,
                    "tags": {
                        "amenity": "bbq"
                    },
                    "distance": 11472.83006925
                },
                {
                    "id": 7763487680,
                    "tags": {
                        "amenity": "bbq"
                    },
                    "distance": 11560.87189021
                },
                {
                    "id": 6941075607,
                    "tags": {
                        "amenity": "bbq"
                    },
                    "distance": 12541.28834897
                },
                {
                    "id": 1817214944,
                    "tags": {
                        "amenity": "bbq",
                        "designation": "public electric"
                    },
                    "distance": 12640.37284479
                },
                {
                    "id": 2031353428,
                    "tags": {
                        "source": "survey",
                        "amenity": "bbq"
                    },
                    "distance": 12879.56250079
                }
            ]
        },
        "37": {
            "execution_time": 0.00797891616821289,
            "results": []
        },
        "38": {
            "execution_time": 0.014810800552368164,
            "results": [
                {
                    "id": 12646909915,
                    "tags": {
                        "amenity": "bench"
                    },
                    "distance": 529.4099011
                },
                {
                    "id": 12646869340,
                    "tags": {
                        "amenity": "bench"
                    },
                    "distance": 657.76508413
                },
                {
                    "id": 9731424455,
                    "tags": {
                        "amenity": "bench"
                    },
                    "distance": 3467.47184794
                },
                {
                    "id": 9689089859,
                    "tags": {
                        "colour": "brown",
                        "amenity": "bench",
                        "material": "wood"
                    },
                    "distance": 4191.46439775
                },
                {
                    "id": 9309874630,
                    "tags": {
                        "amenity": "bench",
                        "backrest": "yes"
                    },
                    "distance": 4878.11730539
                },
                {
                    "id": 9345112380,
                    "tags": {
                        "amenity": "bench",
                        "backrest": "yes"
                    },
                    "distance": 4879.2590752
                },
                {
                    "id": 10201380110,
                    "tags": {
                        "amenity": "bench",
                        "backrest": "yes"
                    },
                    "distance": 6119.78181777
                },
                {
                    "id": 12381264466,
                    "tags": {
                        "seats": "3",
                        "colour": "brown",
                        "amenity": "bench",
                        "armrest": "no",
                        "backrest": "yes",
                        "material": "wood"
                    },
                    "distance": 6168.94052215
                },
                {
                    "id": 12147240164,
                    "tags": {
                        "amenity": "bench"
                    },
                    "distance": 6441.63177357
                },
                {
                    "id": 12404244206,
                    "tags": {
                        "colour": "brown",
                        "amenity": "bench",
                        "armrest": "yes",
                        "backrest": "yes",
                        "material": "wood"
                    },
                    "distance": 7030.04054564
                }
            ]
        },
        "39": {
            "execution_time": 0.010591506958007812,
            "results": [
                {
                    "id": 10669308924,
                    "tags": {
                        "fee": "no",
                        "amenity": "bicycle_parking",
                        "covered": "no",
                        "capacity": "4",
                        "bicycle_parking": "staple"
                    },
                    "distance": 1393.18881053
                },
                {
                    "id": 8493717901,
                    "tags": {
                        "amenity": "bicycle_parking",
                        "capacity": "12",
                        "bicycle_parking": "stands"
                    },
                    "distance": 16197.73162557
                }
            ]
        },
        "40": {
            "execution_time": 0.01372528076171875,
            "results": [
                {
                    "id": 11396048950,
                    "tags": {
                        "amenity": "waste_basket"
                    },
                    "distance": 2903.01380344
                },
                {
                    "id": 10292558212,
                    "tags": {
                        "amenity": "waste_basket"
                    },
                    "distance": 3002.75182747
                },
                {
                    "id": 5317535628,
                    "tags": {
                        "amenity": "waste_basket",
                        "check_date": "2025-03-06"
                    },
                    "distance": 3408.96720982
                },
                {
                    "id": 3702245150,
                    "tags": {
                        "amenity": "waste_basket",
                        "check_date": "2021-02-15"
                    },
                    "distance": 3463.14211451
                },
                {
                    "id": 11299435505,
                    "tags": {
                        "amenity": "waste_basket"
                    },
                    "distance": 4189.36847992
                },
                {
                    "id": 2631959414,
                    "tags": {
                        "amenity": "waste_basket"
                    },
                    "distance": 4469.16070701
                },
                {
                    "id": 4192561691,
                    "tags": {
                        "amenity": "waste_basket",
                        "check_date": "2021-01-25"
                    },
                    "distance": 5054.057232
                },
                {
                    "id": 10003595031,
                    "tags": {
                        "amenity": "waste_basket"
                    },
                    "distance": 5218.24867302
                },
                {
                    "id": 9669558736,
                    "tags": {
                        "amenity": "waste_basket"
                    },
                    "distance": 5370.18104334
                },
                {
                    "id": 9407004686,
                    "tags": {
                        "amenity": "waste_basket"
                    },
                    "distance": 5535.03356677
                }
            ]
        },
        "41": {
            "execution_time": 0.012165307998657227,
            "results": [
                {
                    "id": 12316465702,
                    "tags": {
                        "amenity": "shelter",
                        "shelter_type": "picnic_shelter"
                    },
                    "distance": 2374.39267562
                },
                {
                    "id": 1665511217,
                    "tags": {
                        "amenity": "shelter"
                    },
                    "distance": 3093.27098521
                },
                {
                    "id": 1665467233,
                    "tags": {
                        "amenity": "shelter"
                    },
                    "distance": 3637.64460133
                },
                {
                    "id": 1634785575,
                    "tags": {
                        "amenity": "shelter"
                    },
                    "distance": 6386.59704925
                },
                {
                    "id": 729656608,
                    "tags": {
                        "source": "survey",
                        "amenity": "shelter"
                    },
                    "distance": 7105.17477009
                },
                {
                    "id": 9204956682,
                    "tags": {
                        "amenity": "shelter"
                    },
                    "distance": 7366.72425483
                },
                {
                    "id": 6571381663,
                    "tags": {
                        "amenity": "shelter",
                        "shelter_type": "picnic_shelter"
                    },
                    "distance": 7820.24309203
                },
                {
                    "id": 8918639632,
                    "tags": {
                        "amenity": "shelter"
                    },
                    "distance": 8132.93089656
                },
                {
                    "id": 3565547532,
                    "tags": {
                        "amenity": "shelter",
                        "shelter_type": "picnic_shelter"
                    },
                    "distance": 12442.06239231
                },
                {
                    "id": 7513185096,
                    "tags": {
                        "amenity": "shelter"
                    },
                    "distance": 12489.23778941
                }
            ]
        },
        "42": {
            "execution_time": 0.007355451583862305,
            "results": []
        },
        "43": {
            "execution_time": 0.013816356658935547,
            "results": [
                {
                    "id": 925354559,
                    "tags": {
                        "bus": "yes",
                        "name": "Ray Road",
                        "source": "nearmap",
                        "highway": "bus_stop",
                        "operator": "Ventura",
                        "wheelchair": "yes",
                        "public_transport": "platform"
                    },
                    "distance": 2857.77795028
                }
            ]
        },
        "44": {
            "execution_time": 0.010843515396118164,
            "results": [
                {
                    "id": 6648580139,
                    "tags": {
                        "name": "La Porchetta",
                        "amenity": "restaurant",
                        "cuisine": "pizza;italian"
                    },
                    "distance": 2396.14587864
                },
                {
                    "id": 5140239022,
                    "tags": {
                        "name": "Pizzaly",
                        "amenity": "restaurant",
                        "cuisine": "pizza"
                    },
                    "distance": 4349.37584465
                },
                {
                    "id": 6017200020,
                    "tags": {
                        "name": "Shahnai",
                        "amenity": "restaurant"
                    },
                    "distance": 5240.42772146
                },
                {
                    "id": 10164115785,
                    "tags": {
                        "name": "Amalfi Pizza & Pasta",
                        "amenity": "restaurant",
                        "cuisine": "pizza;pasta"
                    },
                    "distance": 5746.02906609
                },
                {
                    "id": 2887172102,
                    "tags": {
                        "name": "Paradise Indian Restaurant",
                        "phone": "+61 3 9484 5959",
                        "amenity": "restaurant",
                        "cuisine": "indian",
                        "website": "https://www.paradiserestaurant.com.au/",
                        "building": "yes",
                        "addr:unit": "2A",
                        "addr:state": "VIC",
                        "addr:street": "High Street",
                        "addr:suburb": "Preston",
                        "addr:postcode": "3072",
                        "opening_hours": "17:30-22:30",
                        "addr:housenumber": "50"
                    },
                    "distance": 6080.77381157
                },
                {
                    "id": 8558723122,
                    "tags": {
                        "name": "Ciccio Pizza",
                        "amenity": "restaurant",
                        "cuisine": "pizza",
                        "addr:state": "VIC",
                        "addr:street": "Kent Road",
                        "addr:suburb": "Pascoe Vale",
                        "addr:postcode": "3044",
                        "addr:housenumber": "98"
                    },
                    "distance": 6299.17073535
                },
                {
                    "id": 6017236212,
                    "tags": {
                        "name": "Dosa Plaza",
                        "amenity": "restaurant"
                    },
                    "distance": 6327.77617858
                },
                {
                    "id": 7045454988,
                    "tags": {
                        "name": "The Warehouse Pizzeria",
                        "phone": "+61 3 9043 5769",
                        "amenity": "restaurant",
                        "cuisine": "italian",
                        "website": "https://www.thewarehousepizzeria.com.au/",
                        "addr:street": "Gilbert Road",
                        "addr:housenumber": "11"
                    },
                    "distance": 6341.89175957
                },
                {
                    "id": 1330277782,
                    "tags": {
                        "name": "The Merri Table & Bar",
                        "email": "themerri@ceres.org.au",
                        "phone": "+61 3 9389 0166",
                        "amenity": "restaurant",
                        "website": "https://www.ceres.org.au/restaurantandcafe",
                        "opening_hours": "We-Sa 12:00-21:30; Su 10:00-15:00",
                        "internet_access": "no"
                    },
                    "distance": 8022.4335399
                },
                {
                    "id": 10259337548,
                    "tags": {
                        "name": "Souva So Good",
                        "amenity": "restaurant",
                        "cuisine": "greek",
                        "addr:street": "Upper Heidelberg Road",
                        "addr:housenumber": "231"
                    },
                    "distance": 8660.97391923
                }
            ]
        },
        "45": {
            "execution_time": 0.006534099578857422,
            "results": []
        },
        "46": {
            "execution_time": 0.016316890716552734,
            "results": [
                {
                    "id": 585128132,
                    "tags": {
                        "name": "BP",
                        "brand": "BP",
                        "source": "bp.com.au",
                        "amenity": "fuel",
                        "website": "https://map.bp.com/en-AU/AU/gas-station/south-melbourne/bp-clarendon-vic/3759",
                        "brand:wikidata": "Q152057",
                        "brand:wikipedia": "en:BP"
                    },
                    "distance": 7775.77646296
                },
                {
                    "id": 2057008288,
                    "tags": {
                        "atm": "yes",
                        "name": "BP North Fitzroy",
                        "brand": "BP",
                        "phone": "+61 3 9481 6185",
                        "amenity": "fuel",
                        "website": "http://www.bp.com.au/",
                        "building": "yes",
                        "car_wash": "yes",
                        "operator": "BP",
                        "addr:street": "St Georges Road",
                        "brand:wikidata": "Q152057",
                        "addr:housenumber": "257"
                    },
                    "distance": 8993.00487512
                },
                {
                    "id": 7105899713,
                    "tags": {
                        "name": "7-Eleven",
                        "brand": "7-Eleven",
                        "amenity": "fuel",
                        "brand:wikidata": "Q259340",
                        "brand:wikipedia": "en:7-Eleven"
                    },
                    "distance": 10620.74629585
                },
                {
                    "id": 598434277,
                    "tags": {
                        "name": "Shell",
                        "brand": "Shell",
                        "amenity": "fuel",
                        "website": "https://www.shell.com.au",
                        "addr:street": "Barkers Road",
                        "brand:wikidata": "Q110716465",
                        "compressed_air": "yes",
                        "brand:wikipedia": "en:Royal Dutch Shell",
                        "addr:housenumber": "82"
                    },
                    "distance": 12596.78103034
                },
                {
                    "id": 634963682,
                    "tags": {
                        "name": "Caltex Petrol",
                        "brand": "Caltex",
                        "amenity": "fuel",
                        "website": "https://www.woolworthspetrol.com.au/",
                        "full_name": "Woolworths Petrol Roxburgh Park",
                        "brand:wikidata": "Q277470"
                    },
                    "distance": 17228.99610764
                }
            ]
        },
        "47": {
            "execution_time": 0.018614530563354492,
            "results": [
                {
                    "id": 1070216327,
                    "tags": {
                        "name": "S&J Lotto",
                        "shop": "newsagent",
                        "wheelchair": "yes",
                        "addr:street": "Smith Street",
                        "addr:suburb": "Collingwood",
                        "addr:postcode": "3066",
                        "addr:housenumber": "200"
                    },
                    "distance": 2517.58108365
                },
                {
                    "id": 6822003747,
                    "tags": {
                        "shop": "newsagent",
                        "wheelchair": "yes",
                        "toilets:wheelchair": "yes"
                    },
                    "distance": 4021.23600756
                },
                {
                    "id": 2296929584,
                    "tags": {
                        "name": "Tatts",
                        "shop": "newsagent",
                        "addr:street": "Glen Huntly Road"
                    },
                    "distance": 13058.01613885
                },
                {
                    "id": 10247935043,
                    "tags": {
                        "name": "WHSmith",
                        "shop": "newsagent",
                        "brand": "WHSmith",
                        "wheelchair": "yes",
                        "brand:wikidata": "Q1548712"
                    },
                    "distance": 16913.11935106
                },
                {
                    "id": 6946444462,
                    "tags": {
                        "name": "WHSmith",
                        "shop": "newsagent",
                        "brand": "WHSmith",
                        "level": "1",
                        "brand:wikidata": "Q1548712",
                        "brand:wikipedia": "en:WHSmith"
                    },
                    "distance": 17147.72518759
                }
            ]
        },
        "48": {
            "execution_time": 0.013187408447265625,
            "results": [
                {
                    "id": 10185009217,
                    "tags": {
                        "name": "Bethy's Caf\u00e9",
                        "amenity": "cafe"
                    },
                    "distance": 6574.1610241
                },
                {
                    "id": 10213665448,
                    "tags": {
                        "name": "Degani",
                        "amenity": "cafe"
                    },
                    "distance": 7956.23864792
                }
            ]
        },
        "49": {
            "execution_time": 0.012920141220092773,
            "results": [
                {
                    "id": 767172011,
                    "tags": {
                        "name": "Chemist Warehouse",
                        "brand": "Chemist Warehouse",
                        "amenity": "pharmacy",
                        "healthcare": "pharmacy",
                        "brand:wikidata": "Q48782120"
                    },
                    "distance": 10345.8251245
                }
            ]
        }
    }
}