{
    "insertion_time": 5.8682472705841064,
    "index_creation": {
        "func": [
            "CREATE INDEX IF NOT EXISTS idx_pois_tags ON PoIs USING GIN (tags);"
        ],
        "time": 0.31383299827575684
    },
    "query_results": {
        "0": {
            "execution_time": 0.01867842674255371,
            "results": [
                {
                    "id": 9411746364,
                    "tags": {
                        "amenity": "bench",
                        "backrest": "yes"
                    },
                    "distance": 975.51768656
                },
                {
                    "id": 6799028506,
                    "tags": {
                        "amenity": "bench"
                    },
                    "distance": 1583.50887187
                },
                {
                    "id": 12153073032,
                    "tags": {
                        "amenity": "bench",
                        "backrest": "yes"
                    },
                    "distance": 1966.11391351
                },
                {
                    "id": 9497286103,
                    "tags": {
                        "amenity": "bench",
                        "backrest": "yes"
                    },
                    "distance": 2090.59866478
                },
                {
                    "id": 10657330813,
                    "tags": {
                        "colour": "brown",
                        "amenity": "bench",
                        "backrest": "yes",
                        "material": "wood"
                    },
                    "distance": 2726.88377377
                }
            ]
        },
        "1": {
            "execution_time": 0.005788564682006836,
            "results": []
        },
        "2": {
            "execution_time": 0.005388736724853516,
            "results": []
        },
        "3": {
            "execution_time": 0.011136293411254883,
            "results": [
                {
                    "id": 12435710854,
                    "tags": {
                        "amenity": "bench"
                    },
                    "distance": 1094.09036156
                },
                {
                    "id": 2646549662,
                    "tags": {
                        "amenity": "bench"
                    },
                    "distance": 1735.41665609
                },
                {
                    "id": 2674646700,
                    "tags": {
                        "amenity": "bench"
                    },
                    "distance": 1805.86804802
                },
                {
                    "id": 2651176375,
                    "tags": {
                        "amenity": "bench"
                    },
                    "distance": 1930.43737164
                },
                {
                    "id": 4698381144,
                    "tags": {
                        "amenity": "bench"
                    },
                    "distance": 2210.64822668
                }
            ]
        },
        "4": {
            "execution_time": 0.010735273361206055,
            "results": [
                {
                    "id": 598434277,
                    "tags": {
                        "name": "Shell",
                        "brand": "Shell",
                        "amenity": "fuel",
                        "website": "https://www.shell.com.au",
                        "addr:street": "Barkers Road",
                        "brand:wikidata": "Q110716465",
                        "compressed_air": "yes",
                        "brand:wikipedia": "en:Royal Dutch Shell",
                        "addr:housenumber": "82"
                    },
                    "distance": 7059.55900218
                },
                {
                    "id": 4708952309,
                    "tags": {
                        "name": "EG Australia",
                        "brand": "Ampol",
                        "amenity": "fuel",
                        "operator": "EG Australia",
                        "fuel:discount": "Woolworths",
                        "brand:wikidata": "Q4748528",
                        "operator:wikidata": "Q5023980"
                    },
                    "distance": 8717.62842695
                }
            ]
        },
        "5": {
            "execution_time": 0.010202646255493164,
            "results": [
                {
                    "id": 10815888356,
                    "tags": {
                        "name": "Strudels Cafe",
                        "phone": "+61 3 9379 3452",
                        "amenity": "cafe",
                        "website": "https://strudelscafe.com.au/",
                        "addr:street": "Keilor Road",
                        "opening_hours": "Mo-Sa 06:00-15:00; Su closed",
                        "addr:housenumber": "427"
                    },
                    "distance": 4602.2227832
                },
                {
                    "id": 7848463919,
                    "tags": {
                        "name": "The Coffee Club",
                        "brand": "The Coffee Club",
                        "amenity": "cafe",
                        "cuisine": "coffee_shop",
                        "takeaway": "yes",
                        "brand:wikidata": "Q7726599",
                        "brand:wikipedia": "en:The Coffee Club",
                        "outdoor_seating": "no"
                    },
                    "distance": 8841.83806752
                }
            ]
        },
        "6": {
            "execution_time": 0.011699438095092773,
            "results": [
                {
                    "id": 9256129185,
                    "tags": {
                        "amenity": "bench"
                    },
                    "distance": 1728.51372271
                },
                {
                    "id": 9256129186,
                    "tags": {
                        "amenity": "bench"
                    },
                    "distance": 1728.83907743
                },
                {
                    "id": 9243492475,
                    "tags": {
                        "amenity": "bench"
                    },
                    "distance": 2021.47061936
                },
                {
                    "id": 9832413286,
                    "tags": {
                        "amenity": "bench"
                    },
                    "distance": 2717.05879732
                },
                {
                    "id": 9832413287,
                    "tags": {
                        "amenity": "bench"
                    },
                    "distance": 2737.45124091
                }
            ]
        },
        "7": {
            "execution_time": 0.011105537414550781,
            "results": [
                {
                    "id": 1363204585,
                    "tags": {
                        "amenity": "drinking_water"
                    },
                    "distance": 4147.68552187
                },
                {
                    "id": 2594892499,
                    "tags": {
                        "source": "survey",
                        "amenity": "drinking_water"
                    },
                    "distance": 4383.48833636
                },
                {
                    "id": 6285223385,
                    "tags": {
                        "source": "survey",
                        "amenity": "drinking_water"
                    },
                    "distance": 4658.62075948
                },
                {
                    "id": 716716967,
                    "tags": {
                        "amenity": "drinking_water"
                    },
                    "distance": 5834.50827612
                },
                {
                    "id": 11399485669,
                    "tags": {
                        "amenity": "drinking_water"
                    },
                    "distance": 5917.15611107
                }
            ]
        },
        "8": {
            "execution_time": 0.01164555549621582,
            "results": [
                {
                    "id": 6089226542,
                    "tags": {
                        "amenity": "toilets"
                    },
                    "distance": 4098.61789912
                },
                {
                    "id": 5952810617,
                    "tags": {
                        "fee": "no",
                        "amenity": "toilets",
                        "wheelchair": "yes",
                        "changing_table": "yes",
                        "toilets:disposal": "flush"
                    },
                    "distance": 5356.39686754
                },
                {
                    "id": 9513144194,
                    "tags": {
                        "amenity": "toilets"
                    },
                    "distance": 5987.51585129
                },
                {
                    "id": 496447183,
                    "tags": {
                        "fee": "no",
                        "amenity": "toilets",
                        "check_date": "2022-04-20"
                    },
                    "distance": 7194.53232268
                },
                {
                    "id": 5417495955,
                    "tags": {
                        "amenity": "toilets"
                    },
                    "distance": 7276.8261829
                }
            ]
        },
        "9": {
            "execution_time": 0.005448102951049805,
            "results": []
        },
        "10": {
            "execution_time": 0.014729499816894531,
            "results": [
                {
                    "id": 11282285612,
                    "tags": {
                        "amenity": "drinking_water"
                    },
                    "distance": 6641.84449686
                },
                {
                    "id": 675487520,
                    "tags": {
                        "amenity": "drinking_water"
                    },
                    "distance": 8846.40098061
                },
                {
                    "id": 8592030494,
                    "tags": {
                        "amenity": "drinking_water",
                        "fountain": "bubbler",
                        "drinking_water": "yes"
                    },
                    "distance": 8865.26843229
                },
                {
                    "id": 11580853556,
                    "tags": {
                        "fee": "no",
                        "amenity": "drinking_water",
                        "fountain": "bubbler",
                        "seasonal": "no",
                        "opening_hours": "24/7"
                    },
                    "distance": 8997.99051439
                }
            ]
        },
        "11": {
            "execution_time": 0.005439043045043945,
            "results": []
        },
        "12": {
            "execution_time": 0.0048749446868896484,
            "results": []
        },
        "13": {
            "execution_time": 0.0056307315826416016,
            "results": []
        },
        "14": {
            "execution_time": 0.01467132568359375,
            "results": [
                {
                    "id": 6165387375,
                    "tags": {
                        "amenity": "bench",
                        "backrest": "yes"
                    },
                    "distance": 587.74521983
                },
                {
                    "id": 6165387336,
                    "tags": {
                        "amenity": "bench",
                        "backrest": "yes"
                    },
                    "distance": 652.40889877
                },
                {
                    "id": 11528912600,
                    "tags": {
                        "amenity": "bench"
                    },
                    "distance": 1165.24582994
                },
                {
                    "id": 11528912605,
                    "tags": {
                        "amenity": "bench"
                    },
                    "distance": 1192.50734502
                },
                {
                    "id": 11528912608,
                    "tags": {
                        "amenity": "bench"
                    },
                    "distance": 1213.55737226
                }
            ]
        },
        "15": {
            "execution_time": 0.005338430404663086,
            "results": []
        },
        "16": {
            "execution_time": 0.014583587646484375,
            "results": [
                {
                    "id": 4186725543,
                    "tags": {
                        "layer": "-1",
                        "amenity": "parking",
                        "parking": "underground"
                    },
                    "distance": 5658.14829639
                }
            ]
        },
        "17": {
            "execution_time": 0.006793975830078125,
            "results": []
        },
        "18": {
            "execution_time": 0.01136469841003418,
            "results": [
                {
                    "id": 3716720525,
                    "tags": {
                        "name": "Ruckers Hill View of City Skyline",
                        "tourism": "viewpoint"
                    },
                    "distance": 4306.52028839
                }
            ]
        },
        "19": {
            "execution_time": 0.010853767395019531,
            "results": [
                {
                    "id": 10138871834,
                    "tags": {
                        "name": "Lola Lovely",
                        "shop": "clothes",
                        "phone": "+61 3 9480 2423",
                        "clothes": "women",
                        "website": "https://www.lolalovelygifts.com.au/",
                        "addr:state": "VIC",
                        "addr:street": "High Street",
                        "addr:suburb": "Thornbury",
                        "addr:postcode": "3071",
                        "addr:housenumber": "692"
                    },
                    "distance": 2534.48667997
                },
                {
                    "id": 4751681522,
                    "tags": {
                        "name": "RB Sellars",
                        "shop": "clothes",
                        "phone": "+61 3 9281 1200",
                        "name:en": "RB Sellars",
                        "website": "https://www.rbsellars.com.au/",
                        "addr:street": "Marine Parade",
                        "addr:postcode": "3067",
                        "opening_hours": "Mo-Fr 10:00-16:00; Sa 09:00-15:00",
                        "addr:housenumber": "25"
                    },
                    "distance": 7172.65950751
                },
                {
                    "id": 579414072,
                    "tags": {
                        "name": "Halsinky Project",
                        "shop": "clothes",
                        "phone": "+61 3 9419 8040",
                        "addr:street": "Brunswick Street",
                        "addr:suburb": "Fitzroy",
                        "addr:postcode": "3065",
                        "addr:housenumber": "345",
                        "contact:facebook": "https://www.facebook.com/pages/Halsinky-Project/220887975189"
                    },
                    "distance": 7209.69610595
                },
                {
                    "id": 623879037,
                    "tags": {
                        "name": "Next",
                        "shop": "clothes",
                        "brand": "Next",
                        "branch": "Precinct",
                        "addr:street": "Nicholson Street",
                        "brand:wikidata": "Q246655",
                        "addr:housenumber": "278"
                    },
                    "distance": 7311.21677067
                },
                {
                    "id": 1064731518,
                    "tags": {
                        "name": "Kh\u00f8ben",
                        "shop": "clothes",
                        "phone": "+61 3 8415 1802",
                        "website": "https://www.privilegeaustralia.com.au/",
                        "opening_hours": "Mo-Sa 10:00-18:00; Su 12:00-18:00"
                    },
                    "distance": 7563.78808048
                }
            ]
        },
        "20": {
            "execution_time": 0.010278940200805664,
            "results": [
                {
                    "id": 616604127,
                    "tags": {
                        "name": "1st Choice Liquor Superstore",
                        "shop": "alcohol",
                        "phone": "+61 3 9644 3500",
                        "website": "https://www.1stchoice.com.au/",
                        "wheelchair": "yes",
                        "addr:street": "Bay Street",
                        "addr:suburb": "Port Melbourne",
                        "addr:country": "AU",
                        "addr:postcode": "3207",
                        "addr:housenumber": "120",
                        "toilets:wheelchair": "no"
                    },
                    "distance": 7207.12576641
                }
            ]
        },
        "21": {
            "execution_time": 0.005231380462646484,
            "results": []
        },
        "22": {
            "execution_time": 0.005900382995605469,
            "results": []
        },
        "23": {
            "execution_time": 0.010395526885986328,
            "results": [
                {
                    "id": 5024438582,
                    "tags": {
                        "name": "Paddy Pallin",
                        "shop": "outdoor",
                        "email": "melbourne@paddypallin.com.au",
                        "phone": "+61 3 9670 4845",
                        "website": "https://www.paddypallin.com.au/",
                        "wheelchair": "yes",
                        "addr:street": "Bourke Street",
                        "opening_hours": "Mo-We 09:00-18:00; Th 09:00-19:00; Fr 09:00-21:00; Sa 09:00-17:30; Su 10:00-17:30",
                        "addr:housenumber": "152"
                    },
                    "distance": 9489.02325616
                },
                {
                    "id": 5024438581,
                    "tags": {
                        "name": "Pinnacle Outdoors",
                        "shop": "outdoor",
                        "phone": "+61 3 9642 2955",
                        "addr:street": "Little Bourke Street",
                        "addr:housenumber": "Level 1, 361",
                        "contact:facebook": "https://www.facebook.com/pinnacle.outdoors"
                    },
                    "distance": 9498.43012506
                }
            ]
        },
        "24": {
            "execution_time": 0.01503610610961914,
            "results": [
                {
                    "id": 6403353733,
                    "tags": {
                        "shop": "hairdresser"
                    },
                    "distance": 1931.54394491
                },
                {
                    "id": 12175767216,
                    "tags": {
                        "name": "Just Cuts",
                        "shop": "hairdresser",
                        "brand": "Just Cuts",
                        "level": "-1",
                        "unisex": "yes",
                        "wheelchair": "yes",
                        "brand:wikidata": "Q116784479"
                    },
                    "distance": 5115.0592693
                },
                {
                    "id": 5050859656,
                    "tags": {
                        "name": "The Sharp Kat",
                        "shop": "hairdresser",
                        "addr:state": "VIC",
                        "addr:street": "Mason Street",
                        "addr:suburb": "Newport",
                        "addr:postcode": "3015",
                        "addr:housenumber": "40"
                    },
                    "distance": 5406.88071882
                },
                {
                    "id": 11466742444,
                    "tags": {
                        "name": "Flinders Lane Barbers",
                        "shop": "hairdresser",
                        "level": "0",
                        "addr:unit": "C1",
                        "addr:state": "VIC",
                        "wheelchair": "yes",
                        "addr:street": "Flinders Lane",
                        "addr:suburb": "Melbourne",
                        "addr:postcode": "3000",
                        "opening_hours": "Mo-Fr 09:00-19:00; Sa 09:00-18:00; PH closed; Su 10:00-17:00",
                        "addr:housenumber": "289"
                    },
                    "distance": 5510.22583927
                },
                {
                    "id": 1013066476,
                    "tags": {
                        "name": "One Hope Street",
                        "shop": "hairdresser",
                        "addr:street": "Hope Street",
                        "addr:suburb": "Brunswick",
                        "addr:country": "AU",
                        "addr:postcode": "3056",
                        "addr:housenumber": "1",
                        "contact:facebook": "https://www.facebook.com/people/One-Hope-Street/100083574732687/"
                    },
                    "distance": 6156.49093195
                }
            ]
        },
        "25": {
            "execution_time": 0.008261442184448242,
            "results": []
        },
        "26": {
            "execution_time": 0.006544589996337891,
            "results": []
        },
        "27": {
            "execution_time": 0.005544185638427734,
            "results": []
        },
        "28": {
            "execution_time": 0.009568214416503906,
            "results": []
        },
        "29": {
            "execution_time": 0.01460576057434082,
            "results": [
                {
                    "id": 9140968965,
                    "tags": {
                        "amenity": "bench"
                    },
                    "distance": 2741.87042956
                },
                {
                    "id": 790633699,
                    "tags": {
                        "amenity": "bench"
                    },
                    "distance": 3083.84549298
                },
                {
                    "id": 790633695,
                    "tags": {
                        "amenity": "bench"
                    },
                    "distance": 3091.32215627
                },
                {
                    "id": 2053408219,
                    "tags": {
                        "amenity": "bench",
                        "backrest": "yes",
                        "check_date": "2021-01-13"
                    },
                    "distance": 3432.83696905
                },
                {
                    "id": 12479869559,
                    "tags": {
                        "amenity": "bench",
                        "backrest": "no"
                    },
                    "distance": 3869.73484796
                }
            ]
        },
        "30": {
            "execution_time": 0.00682520866394043,
            "results": []
        },
        "31": {
            "execution_time": 0.010004758834838867,
            "results": [
                {
                    "id": 10078543827,
                    "tags": {
                        "name": "T and A Automotive",
                        "shop": "car_repair",
                        "addr:street": "Park Road",
                        "addr:housenumber": "35"
                    },
                    "distance": 3920.46749229
                },
                {
                    "id": 10078546553,
                    "tags": {
                        "name": "Capital smart repairs",
                        "shop": "car_repair",
                        "addr:street": "Carey Street",
                        "addr:housenumber": "4 - 8"
                    },
                    "distance": 4546.51228041
                },
                {
                    "id": 10536341339,
                    "tags": {
                        "name": "Revamp",
                        "shop": "car_repair",
                        "addr:street": "Bricker Street",
                        "addr:housenumber": "22"
                    },
                    "distance": 4812.92967758
                },
                {
                    "id": 12076418809,
                    "tags": {
                        "name": "The Landy Place",
                        "shop": "car_repair"
                    },
                    "distance": 7366.44093069
                }
            ]
        },
        "32": {
            "execution_time": 0.005588054656982422,
            "results": []
        },
        "33": {
            "execution_time": 0.012456655502319336,
            "results": [
                {
                    "id": 6542308823,
                    "tags": {
                        "name": "Red Chillies",
                        "source": "survey",
                        "amenity": "restaurant",
                        "cuisine": "indian"
                    },
                    "distance": 676.82748868
                },
                {
                    "id": 6629908775,
                    "tags": {
                        "name": "Yang Yang Noodle & Dumpling",
                        "phone": "+61 3 8838 8969",
                        "amenity": "restaurant",
                        "cuisine": "asian",
                        "takeaway": "yes",
                        "addr:state": "VIC",
                        "addr:street": "Canterbury Road",
                        "addr:suburb": "Heathmont",
                        "reservation": "yes",
                        "addr:postcode": "3135",
                        "opening_hours": "Tu-Su 11:30-21:30",
                        "addr:housenumber": "131"
                    },
                    "distance": 2394.65934039
                },
                {
                    "id": 529776532,
                    "tags": {
                        "name": "Nudle",
                        "amenity": "restaurant",
                        "cuisine": "asian"
                    },
                    "distance": 3000.39177825
                },
                {
                    "id": 395212113,
                    "tags": {
                        "name": "Switch",
                        "amenity": "restaurant",
                        "cuisine": "fusion"
                    },
                    "distance": 3049.37282619
                },
                {
                    "id": 10110288001,
                    "tags": {
                        "name": "Carlos Cantina",
                        "phone": "+61 3 9725 0397",
                        "amenity": "restaurant",
                        "cuisine": "mexican",
                        "website": "https://carloscantina.com.au/",
                        "addr:state": "VIC",
                        "addr:street": "Maroondah Highway",
                        "addr:suburb": "Croydon",
                        "addr:postcode": "3136",
                        "addr:housenumber": "72B"
                    },
                    "distance": 6259.70459401
                }
            ]
        },
        "34": {
            "execution_time": 0.005297660827636719,
            "results": []
        },
        "35": {
            "execution_time": 0.005024909973144531,
            "results": []
        },
        "36": {
            "execution_time": 0.0058939456939697266,
            "results": []
        },
        "37": {
            "execution_time": 0.011282205581665039,
            "results": [
                {
                    "id": 4451211159,
                    "tags": {
                        "fee": "no",
                        "access": "yes",
                        "amenity": "toilets",
                        "check_date": "2022-12-4",
                        "wheelchair": "yes"
                    },
                    "distance": 1165.79824278
                },
                {
                    "id": 6016882831,
                    "tags": {
                        "amenity": "toilets"
                    },
                    "distance": 3433.25986327
                },
                {
                    "id": 823926678,
                    "tags": {
                        "fee": "no",
                        "amenity": "toilets",
                        "wheelchair": "no"
                    },
                    "distance": 4359.29989951
                },
                {
                    "id": 2355849934,
                    "tags": {
                        "fee": "no",
                        "access": "yes",
                        "unisex": "yes",
                        "amenity": "toilets",
                        "toilets:disposal": "flush"
                    },
                    "distance": 6374.3488257
                },
                {
                    "id": 1067157379,
                    "tags": {
                        "amenity": "toilets"
                    },
                    "distance": 6826.9661315
                }
            ]
        },
        "38": {
            "execution_time": 0.005486965179443359,
            "results": []
        },
        "39": {
            "execution_time": 0.012632369995117188,
            "results": [
                {
                    "id": 12646909915,
                    "tags": {
                        "amenity": "bench"
                    },
                    "distance": 1731.48929878
                },
                {
                    "id": 12646869340,
                    "tags": {
                        "amenity": "bench"
                    },
                    "distance": 1814.2633708
                },
                {
                    "id": 9731424455,
                    "tags": {
                        "amenity": "bench"
                    },
                    "distance": 3486.84696708
                },
                {
                    "id": 9345112380,
                    "tags": {
                        "amenity": "bench",
                        "backrest": "yes"
                    },
                    "distance": 3879.66940067
                },
                {
                    "id": 10201380110,
                    "tags": {
                        "amenity": "bench",
                        "backrest": "yes"
                    },
                    "distance": 4898.53341836
                }
            ]
        },
        "40": {
            "execution_time": 0.011060237884521484,
            "results": [
                {
                    "id": 3299929984,
                    "tags": {
                        "name": "Barry Street Lunch Bar",
                        "amenity": "fast_food",
                        "opening_hours": "Mo-Fr 06:30-17:00; Sa 06:30-14:00"
                    },
                    "distance": 3315.9462017
                },
                {
                    "id": 269688711,
                    "tags": {
                        "name": "Red Rooster",
                        "brand": "Red Rooster",
                        "amenity": "fast_food",
                        "cuisine": "chicken",
                        "website": "https://www.redrooster.com.au/",
                        "takeaway": "yes",
                        "brand:wikidata": "Q376466",
                        "brand:wikipedia": "en:Red Rooster"
                    },
                    "distance": 5384.06418611
                },
                {
                    "id": 10272516998,
                    "tags": {
                        "name": "Grey Shark Fish & Chips",
                        "phone": "+61 3 9879 2567",
                        "amenity": "fast_food",
                        "cuisine": "fish_and_chips",
                        "addr:unit": "3",
                        "addr:state": "VIC",
                        "addr:street": "Old Lilydale Road",
                        "addr:suburb": "Ringwood East",
                        "addr:postcode": "3135",
                        "drive_through": "no",
                        "opening_hours": "Tu-Th 12:00-20:00; Fr 11:30-20:30; Sa-Su 12:00-20:00",
                        "addr:housenumber": "11"
                    },
                    "distance": 8728.0502068
                },
                {
                    "id": 10026035426,
                    "tags": {
                        "name": "Subway",
                        "brand": "Subway",
                        "phone": "+61 3 9876 9432",
                        "amenity": "fast_food",
                        "cuisine": "sandwich",
                        "website": "https://www.subway.com/en-AU/",
                        "takeaway": "yes",
                        "addr:state": "VIC",
                        "addr:street": "Maroondah Highway",
                        "addr:suburb": "Ringwood",
                        "addr:postcode": "3134",
                        "drive_through": "no",
                        "opening_hours": "Mo-Fr 09:00-20:30; Sa-Su 10:00-19:00",
                        "brand:wikidata": "Q244457",
                        "addr:housenumber": "293-305"
                    },
                    "distance": 8771.10702342
                },
                {
                    "id": 9910662673,
                    "tags": {
                        "name": "2 sisters pizzeria",
                        "phone": "+61 3 8739 9994",
                        "amenity": "fast_food",
                        "cuisine": "pizza",
                        "website": "http://www.2sp.com.au/",
                        "addr:state": "VIC",
                        "addr:street": "Lincoln Road",
                        "addr:suburb": "Croydon",
                        "addr:postcode": "3136",
                        "drive_through": "no",
                        "opening_hours": "We-Th 16:30-20:30; Fr-Sa 16:30-21:30; Su 16:30-20:30",
                        "addr:housenumber": "97"
                    },
                    "distance": 9880.00914699
                }
            ]
        },
        "41": {
            "execution_time": 0.006705045700073242,
            "results": []
        },
        "42": {
            "execution_time": 0.005787849426269531,
            "results": []
        },
        "43": {
            "execution_time": 0.00539708137512207,
            "results": []
        },
        "44": {
            "execution_time": 0.01181340217590332,
            "results": [
                {
                    "id": 6297092472,
                    "tags": {
                        "amenity": "bicycle_parking",
                        "capacity": "6"
                    },
                    "distance": 2603.90533993
                },
                {
                    "id": 610639355,
                    "tags": {
                        "amenity": "bicycle_parking",
                        "covered": "no",
                        "capacity": "6",
                        "check_date": "2023-08-12",
                        "bicycle_parking": "stands"
                    },
                    "distance": 6688.69180529
                },
                {
                    "id": 10915572932,
                    "tags": {
                        "fee": "no",
                        "access": "yes",
                        "amenity": "bicycle_parking",
                        "covered": "no",
                        "capacity": "2",
                        "bicycle_parking": "stands"
                    },
                    "distance": 6808.04381012
                },
                {
                    "id": 10948769403,
                    "tags": {
                        "amenity": "bicycle_parking",
                        "capacity": "6",
                        "bicycle_parking": "stands"
                    },
                    "distance": 7449.18973769
                },
                {
                    "id": 5495327702,
                    "tags": {
                        "access": "private",
                        "source": "survey",
                        "amenity": "bicycle_parking",
                        "covered": "yes",
                        "capacity": "8"
                    },
                    "distance": 7760.63136452
                }
            ]
        },
        "45": {
            "execution_time": 0.011483430862426758,
            "results": [
                {
                    "id": 10815888356,
                    "tags": {
                        "name": "Strudels Cafe",
                        "phone": "+61 3 9379 3452",
                        "amenity": "cafe",
                        "website": "https://strudelscafe.com.au/",
                        "addr:street": "Keilor Road",
                        "opening_hours": "Mo-Sa 06:00-15:00; Su closed",
                        "addr:housenumber": "427"
                    },
                    "distance": 2805.21970707
                },
                {
                    "id": 7848463919,
                    "tags": {
                        "name": "The Coffee Club",
                        "brand": "The Coffee Club",
                        "amenity": "cafe",
                        "cuisine": "coffee_shop",
                        "takeaway": "yes",
                        "brand:wikidata": "Q7726599",
                        "brand:wikipedia": "en:The Coffee Club",
                        "outdoor_seating": "no"
                    },
                    "distance": 5620.08983954
                },
                {
                    "id": 6033562238,
                    "tags": {
                        "name": "Upsize",
                        "amenity": "cafe"
                    },
                    "distance": 6385.67953419
                },
                {
                    "id": 6033561766,
                    "tags": {
                        "name": "Footscray Royal Cafe",
                        "amenity": "cafe",
                        "addr:unit": "6",
                        "addr:street": "Barkly Street",
                        "addr:housenumber": "158"
                    },
                    "distance": 6528.76658339
                },
                {
                    "id": 2807743701,
                    "tags": {
                        "name": "Maples",
                        "amenity": "cafe",
                        "cuisine": "coffee_shop"
                    },
                    "distance": 6656.13383012
                }
            ]
        },
        "46": {
            "execution_time": 0.005362510681152344,
            "results": []
        },
        "47": {
            "execution_time": 0.005349397659301758,
            "results": []
        },
        "48": {
            "execution_time": 0.0146026611328125,
            "results": [
                {
                    "id": 9309874630,
                    "tags": {
                        "amenity": "bench",
                        "backrest": "yes"
                    },
                    "distance": 1268.89784662
                },
                {
                    "id": 9731424455,
                    "tags": {
                        "amenity": "bench"
                    },
                    "distance": 1519.02677514
                },
                {
                    "id": 12381264466,
                    "tags": {
                        "seats": "3",
                        "colour": "brown",
                        "amenity": "bench",
                        "armrest": "no",
                        "backrest": "yes",
                        "material": "wood"
                    },
                    "distance": 2410.77907708
                },
                {
                    "id": 9689089859,
                    "tags": {
                        "colour": "brown",
                        "amenity": "bench",
                        "material": "wood"
                    },
                    "distance": 3223.50738975
                },
                {
                    "id": 12646909915,
                    "tags": {
                        "amenity": "bench"
                    },
                    "distance": 4164.51191479
                }
            ]
        },
        "49": {
            "execution_time": 0.005504608154296875,
            "results": []
        }
    }
}