{
    "insertion_time": 111.73348331451416,
    "index_creation": {
        "func": [
            "CREATE INDEX IF NOT EXISTS idx_pois_geom ON PoIs USING GIST (geom);"
        ],
        "time": 2.4665162563323975
    },
    "query_results": {
        "0": {
            "execution_time": 0.3642921447753906,
            "results": [
                {
                    "id": 12350388147,
                    "tags": {
                        "name": "Cherry Blossom Massage",
                        "shop": "massage",
                        "phone": "+61 478 886 899",
                        "addr:state": "VIC",
                        "check_date": "2024-11-18",
                        "wheelchair": "yes",
                        "addr:street": "Bluff Road",
                        "addr:suburb": "Sandringham",
                        "addr:postcode": "3191",
                        "addr:housenumber": "314"
                    },
                    "distance": 1281.83465961
                },
                {
                    "id": 9574992186,
                    "tags": {
                        "name": "Plus Massage",
                        "shop": "massage",
                        "level": "0",
                        "phone": "+61 3 9583 6271"
                    },
                    "distance": 3459.16313346
                },
                {
                    "id": 4077652517,
                    "tags": {
                        "name": "Red Lotus",
                        "shop": "massage",
                        "addr:unit": "2",
                        "addr:street": "Charman Road",
                        "addr:housenumber": "250"
                    },
                    "distance": 3467.2117851
                },
                {
                    "id": 4077652489,
                    "tags": {
                        "name": "Massage",
                        "shop": "massage",
                        "addr:street": "Charman Road",
                        "addr:housenumber": "293"
                    },
                    "distance": 3471.7763249
                },
                {
                    "id": 9574992158,
                    "tags": {
                        "name": "Sen's Body & Mind",
                        "shop": "massage",
                        "level": "0",
                        "phone": "+61 3 9584 2438"
                    },
                    "distance": 3536.4802538
                },
                {
                    "id": 9574713567,
                    "tags": {
                        "name": "WM Massage",
                        "shop": "massage",
                        "level": "1",
                        "phone": "+61 3 8524 8139",
                        "payment:visa": "yes",
                        "payment:gift_card": "yes",
                        "payment:mastercard": "yes",
                        "payment:american_express": "yes"
                    },
                    "distance": 3568.82192093
                },
                {
                    "id": 5388536571,
                    "tags": {
                        "name": "Qi Energy Massage",
                        "shop": "massage"
                    },
                    "distance": 4548.47349875
                },
                {
                    "id": 5388308541,
                    "tags": {
                        "name": "Florence Massage",
                        "shop": "massage"
                    },
                    "distance": 4720.2994973
                },
                {
                    "id": 5389620674,
                    "tags": {
                        "name": "Paragon Thai Massage",
                        "shop": "massage"
                    },
                    "distance": 5025.90674895
                },
                {
                    "id": 5389620829,
                    "tags": {
                        "name": "Remedial Massage",
                        "shop": "massage"
                    },
                    "distance": 5035.24381562
                }
            ]
        },
        "1": {
            "execution_time": 0.3334031105041504,
            "results": [
                {
                    "id": 12116630927,
                    "tags": {
                        "bus": "yes",
                        "ref": "ID.10757",
                        "name": "Kingsley College/South Street",
                        "bench": "yes",
                        "highway": "bus_stop",
                        "network": "PTV - Metropolitan Buses",
                        "shelter": "yes",
                        "route_ref": "534",
                        "tactile_paving": "yes",
                        "public_transport": "platform"
                    },
                    "distance": 21507.50194817
                },
                {
                    "id": 12116630928,
                    "tags": {
                        "bus": "yes",
                        "ref": "ID.8417",
                        "name": "Kingsley College/South Street",
                        "bench": "no",
                        "highway": "bus_stop",
                        "network": "PTV - Metropolitan Buses",
                        "shelter": "no",
                        "route_ref": "534",
                        "tactile_paving": "yes",
                        "public_transport": "platform"
                    },
                    "distance": 21525.81962698
                }
            ]
        },
        "2": {
            "execution_time": 0.34290623664855957,
            "results": [
                {
                    "id": 4454744665,
                    "tags": {
                        "bus": "yes",
                        "name": "Chaucer Street",
                        "network": "PTV - Metropolitan Buses",
                        "operator": "Sita",
                        "public_transport": "stop_position"
                    },
                    "distance": 7513.60882964
                },
                {
                    "id": 4454744664,
                    "tags": {
                        "bus": "yes",
                        "name": "Chaucer Street",
                        "network": "PTV - Metropolitan Buses",
                        "operator": "Sita",
                        "public_transport": "stop_position"
                    },
                    "distance": 7513.78898892
                }
            ]
        },
        "3": {
            "execution_time": 0.277987003326416,
            "results": [
                {
                    "id": 12538714968,
                    "tags": {
                        "amenity": "bench"
                    },
                    "distance": 5313.31259002
                },
                {
                    "id": 12538714969,
                    "tags": {
                        "amenity": "bench"
                    },
                    "distance": 5348.06240079
                },
                {
                    "id": 12538714970,
                    "tags": {
                        "amenity": "bench"
                    },
                    "distance": 5385.42222147
                },
                {
                    "id": 12538714971,
                    "tags": {
                        "amenity": "bench"
                    },
                    "distance": 5424.98357707
                },
                {
                    "id": 12538714972,
                    "tags": {
                        "amenity": "bench"
                    },
                    "distance": 5512.43431354
                },
                {
                    "id": 10711511273,
                    "tags": {
                        "amenity": "bench"
                    },
                    "distance": 5535.42063706
                },
                {
                    "id": 10711511272,
                    "tags": {
                        "amenity": "bench"
                    },
                    "distance": 5537.02718891
                },
                {
                    "id": 9355460564,
                    "tags": {
                        "amenity": "bench"
                    },
                    "distance": 5870.46654939
                },
                {
                    "id": 9355460563,
                    "tags": {
                        "amenity": "bench"
                    },
                    "distance": 5905.04967334
                },
                {
                    "id": 9355460562,
                    "tags": {
                        "amenity": "bench"
                    },
                    "distance": 5938.05773257
                }
            ]
        },
        "4": {
            "execution_time": 0.32588744163513184,
            "results": [
                {
                    "id": 4160245955,
                    "tags": {
                        "shop": "music"
                    },
                    "distance": 9890.79494867
                },
                {
                    "id": 12073042182,
                    "tags": {
                        "name": "Discrepancy Records",
                        "shop": "music",
                        "addr:state": "VIC",
                        "wheelchair": "no",
                        "addr:street": "Milne Road",
                        "addr:housenumber": "2A-2B"
                    },
                    "distance": 10356.09912812
                },
                {
                    "id": 10160870695,
                    "tags": {
                        "name": "Locality Store",
                        "shop": "music"
                    },
                    "distance": 10772.31481957
                },
                {
                    "id": 4077652545,
                    "tags": {
                        "name": "Australia Piano",
                        "shop": "music"
                    },
                    "distance": 13592.15576962
                },
                {
                    "id": 607060670,
                    "tags": {
                        "name": "Syndal Music",
                        "shop": "music",
                        "website": "http://www.syndalmusic.com.au/"
                    },
                    "distance": 15036.80569783
                },
                {
                    "id": 603998962,
                    "tags": {
                        "name": "Bows For Strings",
                        "shop": "music",
                        "website": "https://bowsforstrings.com/"
                    },
                    "distance": 16041.39475235
                },
                {
                    "id": 10144985271,
                    "tags": {
                        "name": "High On Vinyl",
                        "shop": "music",
                        "website": "https://www.highonvinyl.com.au/",
                        "addr:state": "VIC",
                        "addr:street": "High Street",
                        "addr:suburb": "Thornbury",
                        "addr:postcode": "3071",
                        "addr:housenumber": "594"
                    },
                    "distance": 18596.52547109
                },
                {
                    "id": 5806706885,
                    "tags": {
                        "name": "Thornbury Records",
                        "shop": "music",
                        "website": "https://www.thornburyrecords.com/",
                        "addr:street": "High Street",
                        "addr:postcode": "3070",
                        "addr:housenumber": "374"
                    },
                    "distance": 18749.58513786
                },
                {
                    "id": 12245504697,
                    "tags": {
                        "name": "Rathdowne Records",
                        "shop": "music",
                        "addr:street": "High Street",
                        "addr:housenumber": "230",
                        "contact:facebook": "https://www.facebook.com/rathdownerecords/"
                    },
                    "distance": 18889.72305678
                },
                {
                    "id": 12245773032,
                    "tags": {
                        "name": "Dixons Recycled",
                        "shop": "music",
                        "website": "https://dixons.com.au/",
                        "addr:street": "High Street",
                        "addr:housenumber": "237"
                    },
                    "distance": 18914.35460924
                }
            ]
        },
        "5": {
            "execution_time": 0.31754422187805176,
            "results": [
                {
                    "id": 10166386163,
                    "tags": {
                        "bus": "yes",
                        "ref": "ID.48025",
                        "name": "St Vincent de Paul Primary School/Woodland Street",
                        "note": "both directions of bus route 469 stop here",
                        "bench": "no",
                        "highway": "bus_stop",
                        "network": "PTV - Metropolitan Buses",
                        "shelter": "no",
                        "route_ref": "469",
                        "description": "Bus route 469 serves this stop only Monday to Friday (school days only) at 08:40 to Moonee Ponds and at 15:40 to Keilor East.",
                        "tactile_paving": "no",
                        "public_transport": "platform"
                    },
                    "distance": 29361.95714772
                }
            ]
        },
        "6": {
            "execution_time": 0.3222496509552002,
            "results": [
                {
                    "id": 3702217628,
                    "tags": {
                        "bus": "yes",
                        "name": "Raglan Street",
                        "bench": "yes",
                        "highway": "bus_stop",
                        "network": "Transdev",
                        "shelter": "yes",
                        "operator": "PTV",
                        "tactile_paving": "yes",
                        "source:position": "Bing",
                        "public_transport": "platform"
                    },
                    "distance": 20452.0655456
                },
                {
                    "id": 3665293930,
                    "tags": {
                        "bus": "yes",
                        "name": "Raglan Street",
                        "bench": "yes",
                        "source": "survey",
                        "highway": "bus_stop",
                        "shelter": "yes",
                        "tactile_paving": "yes",
                        "public_transport": "platform"
                    },
                    "distance": 20518.65290122
                }
            ]
        },
        "7": {
            "execution_time": 0.3430497646331787,
            "results": [
                {
                    "id": 6765369467,
                    "tags": {
                        "name": "Top Pies",
                        "shop": "bakery",
                        "addr:street": "Clarendon Street",
                        "addr:postcode": "3205",
                        "addr:housenumber": "285",
                        "contact:facebook": "https://www.facebook.com/toppiessouthmelbourne/"
                    },
                    "distance": 213.49379718
                },
                {
                    "id": 7217535997,
                    "tags": {
                        "name": "Chez Dr\u00e9",
                        "shop": "bakery",
                        "website": "https://www.chezdre.com.au/",
                        "addr:street": "Coventry Street",
                        "description": "location is approximate",
                        "addr:postcode": "3205",
                        "addr:housenumber": "285-287"
                    },
                    "distance": 294.21818027
                },
                {
                    "id": 7025225234,
                    "tags": {
                        "name": "Wood Frog Bakery",
                        "shop": "bakery",
                        "website": "https://woodfrogbakery.com.au/find-us/south-melbourne",
                        "addr:street": "Coventry Street",
                        "addr:housenumber": "301"
                    },
                    "distance": 364.34802429
                },
                {
                    "id": 584413498,
                    "tags": {
                        "name": "South Melbourne Bakery",
                        "shop": "bakery",
                        "phone": "+61 3 9696 3142",
                        "website": "https://thesouthmelbournebakery.com.au/",
                        "addr:street": "Clarendon Street",
                        "addr:housenumber": "356"
                    },
                    "distance": 400.41621279
                },
                {
                    "id": 6642422177,
                    "tags": {
                        "name": "St George's Bakery",
                        "shop": "bakery",
                        "level": "0",
                        "phone": "+61 431 848 770",
                        "description": "Stall number 42"
                    },
                    "distance": 417.99255137
                },
                {
                    "id": 1763781576,
                    "tags": {
                        "name": "Brasserie Bread",
                        "shop": "bakery",
                        "website": "https://www.brasseriebread.com.au/locations/melbourne/introduction.aspx",
                        "wheelchair": "yes",
                        "addr:street": "Thistlethwaite Street",
                        "addr:suburb": "South Melbourne",
                        "addr:country": "AU",
                        "addr:postcode": "3205",
                        "addr:housenumber": "150"
                    },
                    "distance": 1064.97068934
                },
                {
                    "id": 9898494951,
                    "tags": {
                        "name": "Breadtop",
                        "shop": "bakery",
                        "brand": "Breadtop",
                        "level": "0",
                        "cuisine": "chinese",
                        "check_date": "2022-07-20",
                        "brand:wikidata": "Q4959217"
                    },
                    "distance": 1509.78380261
                },
                {
                    "id": 2163364028,
                    "tags": {
                        "name": "Flinders Street Bakehouse",
                        "shop": "bakery",
                        "level": "0",
                        "wheelchair": "yes"
                    },
                    "distance": 1576.37018105
                },
                {
                    "id": 10542233827,
                    "tags": {
                        "name": "N Lee Bakery",
                        "shop": "bakery",
                        "level": "0",
                        "wheelchair": "yes"
                    },
                    "distance": 1579.968134
                },
                {
                    "id": 9748242998,
                    "tags": {
                        "name": "Breadtop",
                        "shop": "bakery",
                        "brand": "Breadtop",
                        "cuisine": "chinese",
                        "wheelchair": "no",
                        "brand:wikidata": "Q4959217",
                        "opening_hours:signed": "no",
                        "check_date:opening_hours": "2024-09-25"
                    },
                    "distance": 1621.69923194
                }
            ]
        },
        "8": {
            "execution_time": 0.33467745780944824,
            "results": [
                {
                    "id": 5222808238,
                    "tags": {
                        "name": "Desi Cuts",
                        "shop": "hairdresser"
                    },
                    "distance": 894.95267588
                },
                {
                    "id": 4007263372,
                    "tags": {
                        "name": "Fabian Unique Cuts",
                        "shop": "hairdresser"
                    },
                    "distance": 3236.63774038
                },
                {
                    "id": 10164115784,
                    "tags": {
                        "name": "Fade Inn Barber",
                        "shop": "hairdresser"
                    },
                    "distance": 3344.97168434
                },
                {
                    "id": 8114490791,
                    "tags": {
                        "name": "The Winning Post Barber Shop",
                        "shop": "hairdresser",
                        "phone": "+61 3 9404 3724",
                        "website": "https://www.thewinningpostmillpark.com.au",
                        "addr:unit": "37",
                        "addr:street": "Childs Road",
                        "addr:housenumber": "314-360"
                    },
                    "distance": 3549.02998587
                },
                {
                    "id": 5398308449,
                    "tags": {
                        "name": "komotis.j",
                        "shop": "hairdresser"
                    },
                    "distance": 3773.66985031
                },
                {
                    "id": 5655269508,
                    "tags": {
                        "name": "Santosh Hair House of Beauty",
                        "shop": "hairdresser",
                        "phone": "+61 3 9460 4668",
                        "addr:state": "VIC",
                        "addr:street": "Hughes Parade",
                        "addr:suburb": "Reservoir",
                        "addr:postcode": "3073",
                        "addr:housenumber": "95"
                    },
                    "distance": 3789.18666598
                },
                {
                    "id": 3336901465,
                    "tags": {
                        "name": "KASHAIR",
                        "shop": "hairdresser"
                    },
                    "distance": 4493.20814591
                },
                {
                    "id": 1455654824,
                    "tags": {
                        "name": "Unique Hair Design",
                        "shop": "hairdresser"
                    },
                    "distance": 4563.50166038
                },
                {
                    "id": 10164703791,
                    "tags": {
                        "name": "Barber",
                        "shop": "hairdresser"
                    },
                    "distance": 4817.84849762
                },
                {
                    "id": 10164703798,
                    "tags": {
                        "name": "Barber Crew",
                        "shop": "hairdresser"
                    },
                    "distance": 4892.81224417
                }
            ]
        },
        "9": {
            "execution_time": 0.31583309173583984,
            "results": [
                {
                    "id": 594008573,
                    "tags": {
                        "name": "BP Shop",
                        "shop": "convenience",
                        "brand": "BP Shop",
                        "brand:wikidata": "Q152057",
                        "brand:wikipedia": "en:BP"
                    },
                    "distance": 1648.72805958
                },
                {
                    "id": 6714584294,
                    "tags": {
                        "name": "United",
                        "shop": "convenience",
                        "brand": "United",
                        "brand:wikidata": "Q28224393",
                        "brand:wikipedia": "en:United Petroleum"
                    },
                    "distance": 1679.76020526
                },
                {
                    "id": 3283792266,
                    "tags": {
                        "ref": "3378",
                        "name": "United",
                        "shop": "convenience",
                        "phone": "+61 3 9702 9436",
                        "branch": "Lynbrook",
                        "website": "https://www.unitedpetroleum.com.au/",
                        "alt_name": "United Lynbrook;Lynbrook United",
                        "addr:street": "Dandenong - Hastings Road",
                        "addr:housenumber": "110A",
                        "operator:ref:abn": "91145020042"
                    },
                    "distance": 2275.79389794
                },
                {
                    "id": 338997316,
                    "tags": {
                        "shop": "convenience",
                        "created_by": "Potlatch 0.10f"
                    },
                    "distance": 3296.25234445
                },
                {
                    "id": 5960549441,
                    "tags": {
                        "name": "Lakhiru",
                        "shop": "convenience"
                    },
                    "distance": 3769.86424984
                },
                {
                    "id": 618463612,
                    "tags": {
                        "shop": "convenience"
                    },
                    "distance": 3843.67331384
                },
                {
                    "id": 5960549386,
                    "tags": {
                        "name": "Grover Groceries",
                        "shop": "convenience"
                    },
                    "distance": 3926.94632712
                },
                {
                    "id": 5960549381,
                    "tags": {
                        "name": "Melly\u2019s Asian Groceries",
                        "shop": "convenience"
                    },
                    "distance": 3947.65918776
                },
                {
                    "id": 12360133702,
                    "tags": {
                        "name": "Shell",
                        "note": "Shell branded, not OTR, Coles or Reddy Express",
                        "shop": "convenience",
                        "brand": "Shell",
                        "brand:wikidata": "Q110716465"
                    },
                    "distance": 5473.82279302
                },
                {
                    "id": 4029075247,
                    "tags": {
                        "name": "United",
                        "shop": "convenience",
                        "brand": "United",
                        "website": "https://www.unitedpetroleum.com.au/",
                        "brand:wikidata": "Q28224393",
                        "brand:wikipedia": "en:United Petroleum"
                    },
                    "distance": 6082.38579607
                }
            ]
        },
        "10": {
            "execution_time": 0.32052159309387207,
            "results": [
                {
                    "id": 5936035346,
                    "tags": {
                        "name": "Fieste",
                        "amenity": "restaurant"
                    },
                    "distance": 1939.10404006
                },
                {
                    "id": 5936035336,
                    "tags": {
                        "amenity": "restaurant",
                        "old_name": "Bonchon",
                        "old_name1": "Thai Spendid"
                    },
                    "distance": 2680.99518263
                },
                {
                    "id": 5936035340,
                    "tags": {
                        "amenity": "restaurant",
                        "cuisine": "mexican",
                        "old_name": "Jamaica Blue"
                    },
                    "distance": 2704.19419906
                },
                {
                    "id": 5936035332,
                    "tags": {
                        "name": "Ribs & Burgers",
                        "amenity": "restaurant"
                    },
                    "distance": 2717.52011154
                },
                {
                    "id": 11240185709,
                    "tags": {
                        "name": "iSpice Thai",
                        "phone": "+61 3 9333 8880",
                        "amenity": "restaurant",
                        "cuisine": "thai",
                        "website": "https://www.ispicethairestaurant.com.au/",
                        "addr:unit": "G05/06",
                        "opening_hours": "Mo-Su 17:00-21:30; Th-Su 11:00-15:30"
                    },
                    "distance": 3071.62800503
                },
                {
                    "id": 4996715716,
                    "tags": {
                        "amenity": "restaurant",
                        "old_name": "Rich Chilli Thai"
                    },
                    "distance": 3230.44499556
                },
                {
                    "id": 5936203486,
                    "tags": {
                        "name": "Dosa Corner",
                        "amenity": "restaurant"
                    },
                    "distance": 3256.55741
                },
                {
                    "id": 5926129885,
                    "tags": {
                        "name": "Al Tanoor Iraqi Restaurant",
                        "amenity": "restaurant"
                    },
                    "distance": 3284.21875026
                },
                {
                    "id": 10816017605,
                    "tags": {
                        "name": "7 Star Buffet",
                        "amenity": "restaurant"
                    },
                    "distance": 3845.71804199
                },
                {
                    "id": 11237575228,
                    "tags": {
                        "name": "Oriental Zest",
                        "amenity": "restaurant",
                        "cuisine": "chinese",
                        "website": "https://orientalzest.com.au/",
                        "addr:unit": "10",
                        "opening_hours": "Su-We 12:00-21:00, Th-Sa 12:00-21:30"
                    },
                    "distance": 4051.86343347
                }
            ]
        },
        "11": {
            "execution_time": 0.3376479148864746,
            "results": [
                {
                    "id": 12474243496,
                    "tags": {
                        "access": "yes",
                        "amenity": "parking_space",
                        "parking_space": "disabled"
                    },
                    "distance": 2218.82248894
                },
                {
                    "id": 10783383277,
                    "tags": {
                        "amenity": "parking_space",
                        "capacity": "1",
                        "parking_space": "disabled"
                    },
                    "distance": 2542.83618674
                },
                {
                    "id": 10783383278,
                    "tags": {
                        "amenity": "parking_space",
                        "capacity": "1",
                        "parking_space": "disabled"
                    },
                    "distance": 2543.3853197
                },
                {
                    "id": 11561537691,
                    "tags": {
                        "amenity": "parking_space",
                        "parking_space": "disabled"
                    },
                    "distance": 2546.70216105
                },
                {
                    "id": 11561537694,
                    "tags": {
                        "amenity": "parking_space",
                        "parking_space": "disabled"
                    },
                    "distance": 2557.15023922
                },
                {
                    "id": 11561537693,
                    "tags": {
                        "amenity": "parking_space",
                        "parking_space": "disabled"
                    },
                    "distance": 2561.57752978
                },
                {
                    "id": 11561537692,
                    "tags": {
                        "amenity": "parking_space",
                        "parking_space": "disabled"
                    },
                    "distance": 2562.86981547
                },
                {
                    "id": 11561522111,
                    "tags": {
                        "amenity": "parking_space",
                        "parking_space": "disabled"
                    },
                    "distance": 2627.27297417
                },
                {
                    "id": 11561522112,
                    "tags": {
                        "amenity": "parking_space",
                        "parking_space": "disabled"
                    },
                    "distance": 2632.61626383
                },
                {
                    "id": 10783374566,
                    "tags": {
                        "amenity": "parking_space",
                        "parking_space": "disabled"
                    },
                    "distance": 2724.80049202
                }
            ]
        },
        "12": {
            "execution_time": 0.3481578826904297,
            "results": [
                {
                    "id": 4813291400,
                    "tags": {
                        "amenity": "bench",
                        "backrest": "yes",
                        "check_date": "2023-07-18"
                    },
                    "distance": 409.2797274
                },
                {
                    "id": 9238169485,
                    "tags": {
                        "amenity": "bench"
                    },
                    "distance": 428.87366146
                },
                {
                    "id": 9238169484,
                    "tags": {
                        "amenity": "bench"
                    },
                    "distance": 432.33980984
                },
                {
                    "id": 9238169483,
                    "tags": {
                        "amenity": "bench"
                    },
                    "distance": 436.01493582
                },
                {
                    "id": 4813291401,
                    "tags": {
                        "amenity": "bench",
                        "backrest": "yes",
                        "check_date": "2023-07-18"
                    },
                    "distance": 478.2765071
                },
                {
                    "id": 7076843286,
                    "tags": {
                        "amenity": "bench",
                        "backrest": "yes"
                    },
                    "distance": 490.58750314
                },
                {
                    "id": 2962233495,
                    "tags": {
                        "amenity": "bench",
                        "survey:date": "2014-02-24"
                    },
                    "distance": 557.67506381
                },
                {
                    "id": 9380786003,
                    "tags": {
                        "amenity": "bench",
                        "backrest": "no"
                    },
                    "distance": 560.04874796
                },
                {
                    "id": 8720475141,
                    "tags": {
                        "amenity": "bench",
                        "backrest": "yes"
                    },
                    "distance": 566.51535402
                },
                {
                    "id": 9162430649,
                    "tags": {
                        "amenity": "bench",
                        "backrest": "yes"
                    },
                    "distance": 569.69162383
                }
            ]
        },
        "13": {
            "execution_time": 0.34185004234313965,
            "results": [
                {
                    "id": 12123137867,
                    "tags": {
                        "name": "Natural 5 Massage And Spa",
                        "shop": "massage",
                        "level": "1",
                        "massage": "thai",
                        "wheelchair": "yes"
                    },
                    "distance": 2576.69677136
                },
                {
                    "id": 5076265998,
                    "tags": {
                        "name": "Palm Thai",
                        "shop": "massage"
                    },
                    "distance": 3705.03595298
                },
                {
                    "id": 5289217074,
                    "tags": {
                        "name": "Body Wellness Massage",
                        "shop": "massage",
                        "phone": "+61 3 9857 0412",
                        "addr:state": "VIC",
                        "addr:street": "Burke Road",
                        "addr:suburb": "Balwyn North",
                        "addr:postcode": "3104",
                        "opening_hours": "10:30-22:00",
                        "addr:housenumber": "1050"
                    },
                    "distance": 5018.60007655
                },
                {
                    "id": 5289217081,
                    "tags": {
                        "name": "Nature Thai Massage",
                        "shop": "massage",
                        "phone": "+61 3 9859 6330",
                        "website": "https://naturethaimassage.com.au/",
                        "addr:state": "VIC",
                        "addr:street": "Burke Road",
                        "addr:suburb": "Balwyn North",
                        "addr:postcode": "3104",
                        "opening_hours": "Mo-Fr 10:00-20:00; Sa,Su 10:30-20:00",
                        "addr:housenumber": "1132"
                    },
                    "distance": 5051.90136155
                },
                {
                    "id": 11507801351,
                    "tags": {
                        "shop": "massage",
                        "level": "0",
                        "massage": "therapeutic",
                        "addr:state": "VIC",
                        "wheelchair": "yes",
                        "addr:street": "Tivey Parade",
                        "addr:suburb": "Balwyn",
                        "addr:postcode": "3103",
                        "opening_hours": "Mo-Su 10:00-20:00; PH closed",
                        "addr:housenumber": "8"
                    },
                    "distance": 5223.21400073
                },
                {
                    "id": 6017010118,
                    "tags": {
                        "name": "Bella",
                        "shop": "massage",
                        "opening_hours": "Mo-Su 09:00-21:00"
                    },
                    "distance": 5574.72676874
                },
                {
                    "id": 1864405241,
                    "tags": {
                        "name": "Montmorency Relaxation Massage",
                        "shop": "massage",
                        "phone": "+61 3 9631 5444",
                        "source": "survey",
                        "wheelchair": "no",
                        "addr:street": "Were Street",
                        "opening_hours": "Mo-Su 09:00-21:00",
                        "addr:housenumber": "23"
                    },
                    "distance": 5601.94809776
                },
                {
                    "id": 1876465762,
                    "tags": {
                        "name": "Back In Motion",
                        "shop": "massage",
                        "source": "survey"
                    },
                    "distance": 5625.24713412
                },
                {
                    "id": 11507888891,
                    "tags": {
                        "name": "Marigold Relaxation",
                        "shop": "massage",
                        "level": "0",
                        "wheelchair": "yes",
                        "opening_hours": "Mo-Su 10:00-22:00; PH closed"
                    },
                    "distance": 5783.95784766
                },
                {
                    "id": 4796207997,
                    "tags": {
                        "name": "Anda",
                        "shop": "massage",
                        "massage": "thai",
                        "wheelchair": "yes",
                        "addr:street": "Whitehorse Road",
                        "addr:suburb": "Balwyn",
                        "addr:postcode": "3103",
                        "addr:housenumber": "245"
                    },
                    "distance": 5857.31136621
                }
            ]
        },
        "14": {
            "execution_time": 0.35132598876953125,
            "results": [
                {
                    "id": 1017308931,
                    "tags": {
                        "amenity": "shelter"
                    },
                    "distance": 482.50150278
                },
                {
                    "id": 1430853929,
                    "tags": {
                        "amenity": "shelter"
                    },
                    "distance": 777.8916453
                },
                {
                    "id": 10541727112,
                    "tags": {
                        "amenity": "shelter"
                    },
                    "distance": 1586.50070522
                },
                {
                    "id": 7016390061,
                    "tags": {
                        "amenity": "shelter"
                    },
                    "distance": 1610.74741603
                },
                {
                    "id": 7016390060,
                    "tags": {
                        "amenity": "shelter"
                    },
                    "distance": 1635.56010544
                },
                {
                    "id": 5316188501,
                    "tags": {
                        "amenity": "shelter",
                        "shelter_type": "weather_shelter"
                    },
                    "distance": 1842.41346723
                },
                {
                    "id": 6894624938,
                    "tags": {
                        "amenity": "shelter",
                        "shelter_type": "public_transport"
                    },
                    "distance": 1975.4442543
                },
                {
                    "id": 6139622355,
                    "tags": {
                        "amenity": "shelter",
                        "shelter_type": "picnic_shelter"
                    },
                    "distance": 2172.10304116
                },
                {
                    "id": 3110517829,
                    "tags": {
                        "amenity": "shelter"
                    },
                    "distance": 2263.03331205
                },
                {
                    "id": 7207444660,
                    "tags": {
                        "amenity": "shelter",
                        "shelter_type": "public_transport"
                    },
                    "distance": 2282.46443759
                }
            ]
        },
        "15": {
            "execution_time": 0.24651050567626953,
            "results": [
                {
                    "id": 9084326510,
                    "tags": {
                        "name": "Manor lakes kebab house",
                        "phone": "+61 450 917 617",
                        "amenity": "restaurant",
                        "website": "mlkebabhouse.com.au",
                        "addr:street": "Ballan Road",
                        "opening_hours": "Mo-Su 11:00-22:00",
                        "addr:housenumber": "455"
                    },
                    "distance": 2928.31673315
                },
                {
                    "id": 9084334551,
                    "tags": {
                        "name": "Kesari Indian",
                        "phone": "+61 3 8714 4278",
                        "amenity": "restaurant",
                        "website": "https://kesari.com.au/",
                        "addr:street": "Ballan Road",
                        "opening_hours": "Mo-Su 11:00-21:30",
                        "addr:housenumber": "455"
                    },
                    "distance": 2930.48654257
                },
                {
                    "id": 9084290286,
                    "tags": {
                        "name": "The Bangkok Manor Lakes",
                        "phone": "+61 3 8087 8945",
                        "amenity": "restaurant",
                        "addr:street": "Ballan Road",
                        "opening_hours": "Mo-Su 11:00-22:00",
                        "addr:housenumber": "455"
                    },
                    "distance": 2933.26965156
                },
                {
                    "id": 9778592832,
                    "tags": {
                        "name": "Mel's Foodstore",
                        "amenity": "restaurant"
                    },
                    "distance": 5268.50420376
                },
                {
                    "id": 9778592831,
                    "tags": {
                        "name": "Wyndham Vale Pizza",
                        "amenity": "restaurant",
                        "cuisine": "pizza"
                    },
                    "distance": 5270.43744654
                },
                {
                    "id": 9778592830,
                    "tags": {
                        "name": "Honour Fish & Chips",
                        "amenity": "restaurant",
                        "cuisine": "fish_and_chips;burger;souvlaki"
                    },
                    "distance": 5272.86133982
                },
                {
                    "id": 2343283472,
                    "tags": {
                        "name": "Fresh Chilli Thai",
                        "amenity": "restaurant"
                    },
                    "distance": 5298.22102617
                },
                {
                    "id": 5009375195,
                    "tags": {
                        "name": "Pizza Kings Tarneit",
                        "phone": "+61 3 9749 3500",
                        "amenity": "restaurant",
                        "cuisine": "pizza",
                        "delivery": "yes",
                        "addr:street": "Tarneit Road",
                        "addr:postcode": "3029",
                        "opening_hours": "Mo-Su 17:00-21:00",
                        "outdoor_seating": "no",
                        "addr:housenumber": "540"
                    },
                    "distance": 6139.34809172
                },
                {
                    "id": 5009331615,
                    "tags": {
                        "name": "Bubba Pizza Tarneit",
                        "amenity": "restaurant",
                        "cuisine": "pizza",
                        "website": "https://www.bubbapizza.com.au/",
                        "takeaway": "only",
                        "addr:unit": "13",
                        "addr:street": "Tarneit Road",
                        "addr:postcode": "3029",
                        "opening_hours": "Mo-Su 12:00-22:00",
                        "addr:housenumber": "747"
                    },
                    "distance": 6860.04501031
                },
                {
                    "id": 7023231436,
                    "tags": {
                        "name": "Pizza Hut",
                        "brand": "Pizza Hut",
                        "amenity": "restaurant",
                        "cuisine": "pizza",
                        "toilets": "no",
                        "delivery": "yes",
                        "takeaway": "yes",
                        "wheelchair": "yes",
                        "brand:wikidata": "Q191615",
                        "brand:wikipedia": "en:Pizza Hut"
                    },
                    "distance": 7755.9041636
                }
            ]
        },
        "16": {
            "execution_time": 0.32003021240234375,
            "results": [
                {
                    "id": 6717502946,
                    "tags": {
                        "amenity": "bbq"
                    },
                    "distance": 1778.56193412
                },
                {
                    "id": 11929981346,
                    "tags": {
                        "amenity": "bbq"
                    },
                    "distance": 2492.86745651
                },
                {
                    "id": 6941075607,
                    "tags": {
                        "amenity": "bbq"
                    },
                    "distance": 3413.76303363
                },
                {
                    "id": 6940653725,
                    "tags": {
                        "amenity": "bbq"
                    },
                    "distance": 3421.44867746
                },
                {
                    "id": 11659015404,
                    "tags": {
                        "access": "yes",
                        "amenity": "bbq"
                    },
                    "distance": 3840.93617589
                },
                {
                    "id": 4946368235,
                    "tags": {
                        "fixme": "Need to confirm where in the park this is located exactly.",
                        "amenity": "bbq",
                        "covered": "yes"
                    },
                    "distance": 4045.93962626
                },
                {
                    "id": 12414139312,
                    "tags": {
                        "fuel": "gas",
                        "access": "yes",
                        "amenity": "bbq",
                        "covered": "no"
                    },
                    "distance": 4116.56769922
                },
                {
                    "id": 2476590110,
                    "tags": {
                        "fuel": "electric",
                        "amenity": "bbq",
                        "covered": "yes"
                    },
                    "distance": 5010.12598531
                },
                {
                    "id": 2500320096,
                    "tags": {
                        "fuel": "electric",
                        "amenity": "bbq",
                        "covered": "no"
                    },
                    "distance": 5630.30284818
                },
                {
                    "id": 4320820518,
                    "tags": {
                        "amenity": "bbq"
                    },
                    "distance": 5737.64812767
                }
            ]
        },
        "17": {
            "execution_time": 0.3390066623687744,
            "results": [
                {
                    "id": 8398860421,
                    "tags": {
                        "bus": "yes",
                        "name": "Hughes Street",
                        "network": "PTV \u2013 Metropolitan Buses",
                        "ref:ptv": "10999",
                        "website": "https://ptv.vic.gov.au/stop/10757",
                        "operator": "Transdev;Dysons",
                        "public_transport": "stop_position"
                    },
                    "distance": 16207.91484939
                },
                {
                    "id": 1618953634,
                    "tags": {
                        "bus": "yes",
                        "name": "Hughes Street",
                        "bench": "yes",
                        "source": "survey",
                        "highway": "bus_stop",
                        "network": "PTV - Metropolitan Buses",
                        "ref:ptv": "10999",
                        "shelter": "yes",
                        "website": "https://ptv.vic.gov.au/stop/10757",
                        "operator": "Transdev;Dysons",
                        "route_ref": "513;902",
                        "tactile_paving": "yes",
                        "network:wikidata": "Q7257648",
                        "public_transport": "platform",
                        "network:wikipedia": "en:Public Transport Victoria"
                    },
                    "distance": 16217.59620047
                },
                {
                    "id": 1618953635,
                    "tags": {
                        "bus": "yes",
                        "name": "Hughes Street",
                        "bench": "yes",
                        "source": "survey",
                        "highway": "bus_stop",
                        "network": "PTV - Metropolitan Buses",
                        "ref:ptv": "10942",
                        "shelter": "yes",
                        "website": "https://ptv.vic.gov.au/stop/10757",
                        "operator": "Transdev;Dysons",
                        "route_ref": "513;902",
                        "tactile_paving": "yes",
                        "network:wikidata": "Q7257648",
                        "public_transport": "platform",
                        "network:wikipedia": "en:Public Transport Victoria"
                    },
                    "distance": 16252.07742213
                },
                {
                    "id": 8398860420,
                    "tags": {
                        "bus": "yes",
                        "name": "Hughes Street",
                        "network": "PTV \u2013 Metropolitan Buses",
                        "ref:ptv": "10942",
                        "website": "https://ptv.vic.gov.au/stop/10757",
                        "operator": "Transdev;Dysons",
                        "public_transport": "stop_position"
                    },
                    "distance": 16263.4507245
                }
            ]
        },
        "18": {
            "execution_time": 0.3200953006744385,
            "results": [
                {
                    "id": 30286995,
                    "tags": {
                        "name": "Kensington 1",
                        "side": "left",
                        "train": "yes",
                        "railway": "stop",
                        "local_ref": "1",
                        "public_transport": "stop_position"
                    },
                    "distance": 41149.91316675
                }
            ]
        },
        "19": {
            "execution_time": 0.3464853763580322,
            "results": [
                {
                    "id": 6071865885,
                    "tags": {
                        "name": "Dr Kirstin Charlesworth",
                        "amenity": "clinic",
                        "healthcare": "clinic"
                    },
                    "distance": 1496.79590571
                },
                {
                    "id": 10272444630,
                    "tags": {
                        "name": "Prahran clinic",
                        "phone": "+61 3 9510 3510",
                        "amenity": "clinic",
                        "healthcare": "clinic",
                        "addr:street": "Malvern Road",
                        "addr:housenumber": "244"
                    },
                    "distance": 1753.05920886
                },
                {
                    "id": 6413459312,
                    "tags": {
                        "name": "Church Street Medical Centre",
                        "amenity": "clinic",
                        "healthcare": "clinic"
                    },
                    "distance": 1824.35512028
                },
                {
                    "id": 10813862468,
                    "tags": {
                        "name": "Prahran Market Clinic",
                        "level": "1",
                        "amenity": "clinic",
                        "healthcare": "clinic"
                    },
                    "distance": 1856.53666407
                },
                {
                    "id": 10813862469,
                    "tags": {
                        "name": "Melbourne Pathology",
                        "level": "1",
                        "amenity": "clinic",
                        "healthcare": "clinic",
                        "healthcare:speciality": "pathology"
                    },
                    "distance": 1862.69819034
                },
                {
                    "id": 4308263750,
                    "tags": {
                        "name": "4Cyte Pathology",
                        "shop": "beauty",
                        "brand": "4Cyte Pathology",
                        "amenity": "clinic",
                        "healthcare": "sample_collection",
                        "addr:street": "Commercial Road",
                        "addr:postcode": "3181",
                        "addr:housenumber": "182",
                        "healthcare:speciality": "pathology"
                    },
                    "distance": 1902.13829743
                },
                {
                    "id": 7061734578,
                    "tags": {
                        "name": "Epworth Medical Center",
                        "amenity": "clinic",
                        "healthcare": "clinic"
                    },
                    "distance": 2313.1908758
                },
                {
                    "id": 5499997872,
                    "tags": {
                        "name": "Fertility Control Clinic",
                        "amenity": "clinic",
                        "website": "https://www.fcc.com.au/",
                        "healthcare": "clinic",
                        "healthcare:speciality": "abortion;pap_smears;sti_testing;vasectomy;contraception"
                    },
                    "distance": 2856.77291878
                },
                {
                    "id": 12088583669,
                    "tags": {
                        "name": "ACE Sports Clinic",
                        "amenity": "clinic",
                        "website": "https://www.acesportsclinic.com.au/",
                        "addr:unit": "6",
                        "healthcare": "clinic",
                        "addr:street": "Milton Parade",
                        "addr:postcode": "3144",
                        "addr:housenumber": "1"
                    },
                    "distance": 2896.97094317
                },
                {
                    "id": 9135519889,
                    "tags": {
                        "name": "Jean Hailes at Epworth",
                        "email": "clinic@jeanhailes.org.au",
                        "phone": "+61 3 9562 7555",
                        "amenity": "clinic",
                        "website": "https://www.jeanhailes.org.au",
                        "healthcare": "clinic",
                        "addr:street": "Victoria Parade",
                        "description": "Women's health clinic",
                        "addr:housenumber": "412"
                    },
                    "distance": 3452.98869359
                }
            ]
        },
        "20": {
            "execution_time": 0.3100728988647461,
            "results": [
                {
                    "id": 1245507173,
                    "tags": {
                        "name": "Gate C",
                        "access": "no",
                        "barrier": "gate",
                        "description": "No entry, exit only"
                    },
                    "distance": 17264.30958071
                },
                {
                    "id": 9985459227,
                    "tags": {
                        "name": "Gate C",
                        "locked": "yes",
                        "barrier": "gate"
                    },
                    "distance": 22502.83517655
                },
                {
                    "id": 580735055,
                    "tags": {
                        "foot": "yes",
                        "name": "Gate C",
                        "barrier": "gate",
                        "bicycle": "private",
                        "addr:street": "Royal Parade",
                        "addr:suburb": "Parkville",
                        "description": "Chapel Entry",
                        "addr:postcode": "3052",
                        "motor_vehicle": "private"
                    },
                    "distance": 23790.76942803
                }
            ]
        },
        "21": {
            "execution_time": 0.2925992012023926,
            "results": [
                {
                    "id": 12236451907,
                    "tags": {
                        "source": "mapillary",
                        "amenity": "bench"
                    },
                    "distance": 1927.66403593
                },
                {
                    "id": 12236446200,
                    "tags": {
                        "source": "mapillary",
                        "amenity": "bench"
                    },
                    "distance": 1928.8316588
                },
                {
                    "id": 12236451901,
                    "tags": {
                        "source": "mapillary",
                        "amenity": "bench"
                    },
                    "distance": 1930.13065807
                },
                {
                    "id": 12236451909,
                    "tags": {
                        "source": "mapillary",
                        "amenity": "bench"
                    },
                    "distance": 1931.56662129
                },
                {
                    "id": 12433020146,
                    "tags": {
                        "amenity": "bench"
                    },
                    "distance": 2191.97249781
                },
                {
                    "id": 9495459346,
                    "tags": {
                        "amenity": "bench"
                    },
                    "distance": 2531.72517012
                },
                {
                    "id": 9495459345,
                    "tags": {
                        "amenity": "bench"
                    },
                    "distance": 2562.73937052
                },
                {
                    "id": 9495459347,
                    "tags": {
                        "amenity": "bench"
                    },
                    "distance": 2593.54339002
                },
                {
                    "id": 5591683709,
                    "tags": {
                        "seats": "4",
                        "amenity": "bench",
                        "backrest": "yes",
                        "material": "wood"
                    },
                    "distance": 2755.77058152
                },
                {
                    "id": 9495419967,
                    "tags": {
                        "amenity": "bench"
                    },
                    "distance": 3417.26248622
                }
            ]
        },
        "22": {
            "execution_time": 0.33460140228271484,
            "results": [
                {
                    "id": 9526357737,
                    "tags": {
                        "name": "Yalla! Yalla! Bakery and Cafe",
                        "amenity": "cafe"
                    },
                    "distance": 1658.52669138
                },
                {
                    "id": 4343827827,
                    "tags": {
                        "name": "The Smokestack Cafe",
                        "amenity": "cafe"
                    },
                    "distance": 1859.18604499
                },
                {
                    "id": 2292034252,
                    "tags": {
                        "amenity": "cafe"
                    },
                    "distance": 2260.72846539
                },
                {
                    "id": 1754402231,
                    "tags": {
                        "name": "Wild Bean Cafe",
                        "brand": "Wild Bean Cafe",
                        "source": "observation",
                        "amenity": "cafe",
                        "cuisine": "coffee_shop",
                        "takeaway": "yes",
                        "brand:wikidata": "Q61804826"
                    },
                    "distance": 2309.91521474
                },
                {
                    "id": 9216169928,
                    "tags": {
                        "amenity": "cafe",
                        "cuisine": "sandwich"
                    },
                    "distance": 2341.51621265
                },
                {
                    "id": 4296243851,
                    "tags": {
                        "name": "Sue's Sandwich Deli",
                        "amenity": "cafe",
                        "addr:street": "Aylward Avenue",
                        "addr:housenumber": "20"
                    },
                    "distance": 2571.76487882
                },
                {
                    "id": 9216173373,
                    "tags": {
                        "amenity": "cafe",
                        "addr:state": "VIC",
                        "addr:street": "Metrolink Circuit",
                        "addr:suburb": "Campbellfield",
                        "addr:postcode": "3061"
                    },
                    "distance": 2767.67414536
                },
                {
                    "id": 5222791678,
                    "tags": {
                        "name": "Candoo Confectionary",
                        "amenity": "cafe"
                    },
                    "distance": 2821.23442124
                },
                {
                    "id": 5222791716,
                    "tags": {
                        "name": "Ferguson Plarre",
                        "amenity": "cafe"
                    },
                    "distance": 2899.34913092
                },
                {
                    "id": 5222808243,
                    "tags": {
                        "name": "Station Street Coffee Club",
                        "amenity": "cafe"
                    },
                    "distance": 2922.23043661
                }
            ]
        },
        "23": {
            "execution_time": 0.30887746810913086,
            "results": [
                {
                    "id": 3524525264,
                    "tags": {
                        "amenity": "telephone",
                        "check_date": "2024-04-16"
                    },
                    "distance": 1420.76697448
                },
                {
                    "id": 3270352092,
                    "tags": {
                        "wifi": "yes",
                        "brand": "Telstra",
                        "amenity": "telephone",
                        "operator": "Telstra",
                        "internet_access": "wlan"
                    },
                    "distance": 1571.53794041
                },
                {
                    "id": 3373081422,
                    "tags": {
                        "wifi": "yes",
                        "amenity": "telephone",
                        "operator": "Telstra",
                        "internet_access": "wlan"
                    },
                    "distance": 1651.4498568
                },
                {
                    "id": 5892410926,
                    "tags": {
                        "amenity": "telephone"
                    },
                    "distance": 1752.6630946
                },
                {
                    "id": 3270298061,
                    "tags": {
                        "wifi": "yes",
                        "brand": "Telstra",
                        "amenity": "telephone",
                        "operator": "Telstra",
                        "internet_access": "wlan"
                    },
                    "distance": 1871.5230065
                },
                {
                    "id": 3351041378,
                    "tags": {
                        "wifi": "yes",
                        "amenity": "telephone",
                        "operator": "Telstra",
                        "internet_access": "wlan"
                    },
                    "distance": 2091.42049364
                },
                {
                    "id": 3270296081,
                    "tags": {
                        "wifi": "yes",
                        "amenity": "telephone",
                        "operator": "Telstra",
                        "internet_access": "wlan"
                    },
                    "distance": 2621.91005122
                },
                {
                    "id": 3977178735,
                    "tags": {
                        "wifi": "yes",
                        "brand": "Telstra",
                        "amenity": "telephone",
                        "operator": "Telstra",
                        "check_date": "2023-03-18",
                        "internet_access": "wlan"
                    },
                    "distance": 3069.04704196
                },
                {
                    "id": 3270306846,
                    "tags": {
                        "fee": "no",
                        "name": "Telstra Air",
                        "wifi": "yes",
                        "amenity": "telephone",
                        "operator": "Telstra",
                        "check_date": "2024-06-07",
                        "internet_access": "wlan"
                    },
                    "distance": 3317.71042586
                },
                {
                    "id": 3270305058,
                    "tags": {
                        "wifi": "yes",
                        "amenity": "telephone",
                        "operator": "Telstra",
                        "internet_access": "wlan"
                    },
                    "distance": 3639.33957302
                }
            ]
        },
        "24": {
            "execution_time": 0.3191545009613037,
            "results": [
                {
                    "id": 12491805629,
                    "tags": {
                        "amenity": "bench"
                    },
                    "distance": 1328.62048667
                },
                {
                    "id": 8803234798,
                    "tags": {
                        "amenity": "bench"
                    },
                    "distance": 1578.65343657
                },
                {
                    "id": 12517314245,
                    "tags": {
                        "amenity": "bench"
                    },
                    "distance": 1772.82565859
                },
                {
                    "id": 6172428634,
                    "tags": {
                        "amenity": "bench",
                        "backrest": "yes"
                    },
                    "distance": 2199.1411826
                },
                {
                    "id": 12291600963,
                    "tags": {
                        "amenity": "bench"
                    },
                    "distance": 2227.05714156
                },
                {
                    "id": 12291600964,
                    "tags": {
                        "amenity": "bench"
                    },
                    "distance": 2236.26952581
                },
                {
                    "id": 12517392678,
                    "tags": {
                        "amenity": "bench"
                    },
                    "distance": 2319.23159447
                },
                {
                    "id": 6172428640,
                    "tags": {
                        "amenity": "bench",
                        "backrest": "yes"
                    },
                    "distance": 2338.45503313
                },
                {
                    "id": 6172428649,
                    "tags": {
                        "amenity": "bench",
                        "backrest": "yes"
                    },
                    "distance": 2339.31249667
                },
                {
                    "id": 1715967017,
                    "tags": {
                        "source": "survey",
                        "amenity": "bench",
                        "backrest": "yes"
                    },
                    "distance": 2343.90831973
                }
            ]
        },
        "25": {
            "execution_time": 0.31871986389160156,
            "results": [
                {
                    "id": 9426796709,
                    "tags": {
                        "bus": "yes",
                        "name": "Boronia Rd/Floriston Rd",
                        "highway": "bus_stop",
                        "network": "PTV - Metropolitan Buses",
                        "shelter": "no",
                        "network:wikidata": "Q7257648",
                        "public_transport": "platform",
                        "network:wikipedia": "en:Public Transport Victoria"
                    },
                    "distance": 38223.4935695
                },
                {
                    "id": 9426796710,
                    "tags": {
                        "bus": "yes",
                        "name": "Boronia Rd/Floriston Rd",
                        "highway": "bus_stop",
                        "network": "PTV - Metropolitan Buses",
                        "shelter": "no",
                        "network:wikidata": "Q7257648",
                        "public_transport": "platform",
                        "network:wikipedia": "en:Public Transport Victoria"
                    },
                    "distance": 38237.50615817
                }
            ]
        },
        "26": {
            "execution_time": 0.29558753967285156,
            "results": [
                {
                    "id": 9588794975,
                    "tags": {
                        "fee": "no",
                        "access": "yes",
                        "amenity": "bicycle_parking",
                        "covered": "no",
                        "capacity": "6",
                        "bicycle_parking": "hoop"
                    },
                    "distance": 1359.50278327
                },
                {
                    "id": 9588794976,
                    "tags": {
                        "fee": "no",
                        "access": "yes",
                        "amenity": "bicycle_parking",
                        "covered": "no",
                        "capacity": "6",
                        "bicycle_parking": "front_wheel"
                    },
                    "distance": 1381.01301386
                },
                {
                    "id": 9588794973,
                    "tags": {
                        "fee": "no",
                        "access": "yes",
                        "amenity": "bicycle_parking",
                        "covered": "no",
                        "capacity": "5",
                        "bicycle_parking": "front_wheel"
                    },
                    "distance": 1416.58724657
                },
                {
                    "id": 9588794974,
                    "tags": {
                        "fee": "no",
                        "access": "yes",
                        "amenity": "bicycle_parking",
                        "covered": "yes",
                        "capacity": "3",
                        "bicycle_parking": "front_wheel"
                    },
                    "distance": 1419.93066887
                },
                {
                    "id": 9588794972,
                    "tags": {
                        "fee": "no",
                        "access": "yes",
                        "amenity": "bicycle_parking",
                        "covered": "no",
                        "capacity": "6",
                        "bicycle_parking": "hoop"
                    },
                    "distance": 1593.17238101
                },
                {
                    "id": 11502666765,
                    "tags": {
                        "fee": "no",
                        "lit": "yes",
                        "access": "yes",
                        "indoor": "no",
                        "amenity": "bicycle_parking",
                        "covered": "no",
                        "capacity": "6",
                        "bicycle_parking": "stands"
                    },
                    "distance": 3205.75023692
                },
                {
                    "id": 11618007659,
                    "tags": {
                        "fee": "no",
                        "amenity": "bicycle_parking",
                        "covered": "no",
                        "capacity": "6",
                        "bicycle_parking": "stands"
                    },
                    "distance": 3577.36450914
                },
                {
                    "id": 11572236412,
                    "tags": {
                        "fee": "no",
                        "amenity": "bicycle_parking",
                        "covered": "no",
                        "capacity": "2",
                        "bicycle_parking": "rack"
                    },
                    "distance": 3897.76519599
                },
                {
                    "id": 11572236405,
                    "tags": {
                        "fee": "no",
                        "amenity": "bicycle_parking",
                        "covered": "no",
                        "capacity": "10",
                        "bicycle_parking": "stands"
                    },
                    "distance": 3915.51015384
                },
                {
                    "id": 6177546048,
                    "tags": {
                        "name": "Parkiteer",
                        "access": "permit",
                        "amenity": "bicycle_parking",
                        "covered": "yes",
                        "capacity": "26",
                        "operator": "Bicycle Network",
                        "bicycle_parking": "shed"
                    },
                    "distance": 3959.2602363
                }
            ]
        },
        "27": {
            "execution_time": 0.3047518730163574,
            "results": [
                {
                    "id": 7911258747,
                    "tags": {
                        "name": "BP Shop",
                        "shop": "convenience",
                        "brand": "BP Shop",
                        "brand:wikidata": "Q152057",
                        "brand:wikipedia": "en:BP"
                    },
                    "distance": 1449.67247219
                },
                {
                    "id": 2187869950,
                    "tags": {
                        "name": "7-Eleven",
                        "shop": "convenience",
                        "brand": "7-Eleven",
                        "brand:wikidata": "Q259340",
                        "brand:wikipedia": "en:7-Eleven"
                    },
                    "distance": 1464.57420331
                },
                {
                    "id": 3274000598,
                    "tags": {
                        "name": "Reddy Express",
                        "shop": "convenience",
                        "website": "https://www.reddyexpress.com.au/"
                    },
                    "distance": 2591.04972025
                },
                {
                    "id": 4060933068,
                    "tags": {
                        "name": "Easy Shop",
                        "shop": "convenience"
                    },
                    "distance": 2646.06972477
                },
                {
                    "id": 9047000944,
                    "tags": {
                        "shop": "convenience"
                    },
                    "distance": 3131.67805037
                },
                {
                    "id": 4194557586,
                    "tags": {
                        "name": "The Strand Corner Store",
                        "shop": "convenience"
                    },
                    "distance": 3221.50012771
                },
                {
                    "id": 290311973,
                    "tags": {
                        "name": "Quix",
                        "shop": "convenience"
                    },
                    "distance": 4392.27970223
                },
                {
                    "id": 6136859942,
                    "tags": {
                        "name": "7-Eleven",
                        "shop": "convenience",
                        "brand": "7-Eleven",
                        "brand:wikidata": "Q259340",
                        "brand:wikipedia": "en:7-Eleven"
                    },
                    "distance": 4555.51768606
                },
                {
                    "id": 9681762813,
                    "tags": {
                        "name": "Riverdene Village Foodstore",
                        "shop": "convenience",
                        "phone": "+61 3 9742 2196",
                        "addr:street": "Honour Avenue",
                        "addr:housenumber": "60"
                    },
                    "distance": 4919.34492731
                },
                {
                    "id": 3950864164,
                    "tags": {
                        "name": "Reddy Express",
                        "shop": "convenience",
                        "website": "www.reddyexpress.com.au",
                        "opening_hours": "24/7"
                    },
                    "distance": 5206.05556864
                }
            ]
        },
        "28": {
            "execution_time": 0.35590696334838867,
            "results": [
                {
                    "id": 10292459755,
                    "tags": {
                        "amenity": "parking_space",
                        "capacity": "6"
                    },
                    "distance": 1145.74085775
                },
                {
                    "id": 10292459752,
                    "tags": {
                        "amenity": "parking_space"
                    },
                    "distance": 1157.78609626
                },
                {
                    "id": 9768624369,
                    "tags": {
                        "amenity": "parking_space",
                        "parking_space": "disabled"
                    },
                    "distance": 3387.35476654
                },
                {
                    "id": 11782089247,
                    "tags": {
                        "amenity": "parking_space",
                        "parking_space": "disabled"
                    },
                    "distance": 3433.2508028
                },
                {
                    "id": 11782089248,
                    "tags": {
                        "amenity": "parking_space",
                        "parking_space": "disabled"
                    },
                    "distance": 3435.04457602
                },
                {
                    "id": 11047883857,
                    "tags": {
                        "amenity": "parking_space",
                        "capacity": "1",
                        "parking_space": "disabled"
                    },
                    "distance": 3666.45796585
                },
                {
                    "id": 9131023174,
                    "tags": {
                        "amenity": "parking_space",
                        "capacity": "1",
                        "parking_space": "disabled"
                    },
                    "distance": 3699.68281032
                },
                {
                    "id": 9131023175,
                    "tags": {
                        "amenity": "parking_space",
                        "capacity": "1",
                        "parking_space": "disabled"
                    },
                    "distance": 3705.26058217
                },
                {
                    "id": 9150636820,
                    "tags": {
                        "amenity": "parking_space",
                        "capacity": "1",
                        "parking_space": "disabled"
                    },
                    "distance": 4681.29853686
                },
                {
                    "id": 9150636821,
                    "tags": {
                        "amenity": "parking_space",
                        "capacity": "1",
                        "parking_space": "disabled"
                    },
                    "distance": 4688.32339912
                }
            ]
        },
        "29": {
            "execution_time": 0.29890894889831543,
            "results": [
                {
                    "id": 12538714968,
                    "tags": {
                        "amenity": "bench"
                    },
                    "distance": 942.69801805
                },
                {
                    "id": 12538714969,
                    "tags": {
                        "amenity": "bench"
                    },
                    "distance": 1022.57383108
                },
                {
                    "id": 12538714970,
                    "tags": {
                        "amenity": "bench"
                    },
                    "distance": 1103.10712136
                },
                {
                    "id": 12538714971,
                    "tags": {
                        "amenity": "bench"
                    },
                    "distance": 1190.62216634
                },
                {
                    "id": 10711511272,
                    "tags": {
                        "amenity": "bench"
                    },
                    "distance": 1300.24533365
                },
                {
                    "id": 12538714972,
                    "tags": {
                        "amenity": "bench"
                    },
                    "distance": 1321.35652332
                },
                {
                    "id": 10711511273,
                    "tags": {
                        "amenity": "bench"
                    },
                    "distance": 1329.06973045
                },
                {
                    "id": 12541742062,
                    "tags": {
                        "amenity": "bench"
                    },
                    "distance": 1442.86896567
                },
                {
                    "id": 12541742061,
                    "tags": {
                        "amenity": "bench"
                    },
                    "distance": 1445.0579893
                },
                {
                    "id": 10571708255,
                    "tags": {
                        "seats": "4",
                        "amenity": "bench",
                        "backrest": "yes",
                        "material": "wood"
                    },
                    "distance": 1575.97117129
                }
            ]
        },
        "30": {
            "execution_time": 0.3418107032775879,
            "results": [
                {
                    "id": 12074620074,
                    "tags": {
                        "amenity": "bicycle_parking"
                    },
                    "distance": 1097.45273645
                },
                {
                    "id": 8061586182,
                    "tags": {
                        "amenity": "bicycle_parking",
                        "covered": "no",
                        "capacity": "4",
                        "bicycle_parking": "stands"
                    },
                    "distance": 1154.51397811
                },
                {
                    "id": 8061586178,
                    "tags": {
                        "amenity": "bicycle_parking",
                        "covered": "yes",
                        "capacity": "10",
                        "bicycle_parking": "stands"
                    },
                    "distance": 1185.82375001
                },
                {
                    "id": 5248333545,
                    "tags": {
                        "amenity": "bicycle_parking",
                        "covered": "no",
                        "capacity": "2",
                        "bicycle_parking": "stands"
                    },
                    "distance": 1207.4198519
                },
                {
                    "id": 8061586177,
                    "tags": {
                        "amenity": "bicycle_parking",
                        "covered": "no",
                        "capacity": "6",
                        "bicycle_parking": "stands"
                    },
                    "distance": 1210.10471264
                },
                {
                    "id": 8061586180,
                    "tags": {
                        "amenity": "bicycle_parking",
                        "covered": "no",
                        "capacity": "6",
                        "bicycle_parking": "stands"
                    },
                    "distance": 1221.12125357
                },
                {
                    "id": 1851043133,
                    "tags": {
                        "source": "survey",
                        "amenity": "bicycle_parking",
                        "bicycle_parking": "stands"
                    },
                    "distance": 1231.57318064
                },
                {
                    "id": 10636572544,
                    "tags": {
                        "amenity": "bicycle_parking",
                        "capacity": "2",
                        "bicycle_parking": "stands"
                    },
                    "distance": 1275.24168774
                },
                {
                    "id": 5248299872,
                    "tags": {
                        "amenity": "bicycle_parking",
                        "capacity": "6",
                        "bicycle_parking": "stands"
                    },
                    "distance": 1286.20799915
                },
                {
                    "id": 12074620075,
                    "tags": {
                        "amenity": "bicycle_parking"
                    },
                    "distance": 1287.89629563
                }
            ]
        },
        "31": {
            "execution_time": 0.3273599147796631,
            "results": [
                {
                    "id": 10713211988,
                    "tags": {
                        "name": "Melbourne Indoor Plants",
                        "shop": "garden_centre"
                    },
                    "distance": 9899.1413811
                },
                {
                    "id": 11162131790,
                    "tags": {
                        "name": "Quality Plants And Seedlings",
                        "shop": "garden_centre",
                        "level": "0",
                        "wheelchair": "no"
                    },
                    "distance": 10414.24601952
                },
                {
                    "id": 4852881779,
                    "tags": {
                        "name": "All Green Nursery",
                        "shop": "garden_centre",
                        "addr:street": "Old Geelong Road",
                        "addr:housenumber": "130"
                    },
                    "distance": 12555.70809631
                },
                {
                    "id": 3949687624,
                    "tags": {
                        "name": "Fitzroy Nursery",
                        "shop": "garden_centre"
                    },
                    "distance": 12766.6339674
                },
                {
                    "id": 7187451702,
                    "tags": {
                        "name": "Glasshaus Outside",
                        "shop": "garden_centre"
                    },
                    "distance": 13360.64731752
                },
                {
                    "id": 2057008295,
                    "tags": {
                        "name": "Northroy Nursery",
                        "shop": "garden_centre",
                        "building": "yes",
                        "addr:state": "VIC",
                        "addr:street": "St Georges Road",
                        "addr:suburb": "Fitzroy North",
                        "addr:country": "AU",
                        "addr:postcode": "3068",
                        "addr:housenumber": "257"
                    },
                    "distance": 13739.95727373
                },
                {
                    "id": 2291035222,
                    "tags": {
                        "name": "Water Features Direct",
                        "shop": "garden_centre",
                        "phone": "+61 3 9486 8323",
                        "website": "https://www.waterfeaturesdirect.com.au/",
                        "addr:street": "Queens Parade",
                        "opening_hours": "Mo-Sa 9:00-17:00; Su 11:00-16:00",
                        "addr:housenumber": "195-197"
                    },
                    "distance": 14146.31897277
                },
                {
                    "id": 7880286526,
                    "tags": {
                        "name": "Inner City Garden Supplies",
                        "shop": "garden_centre",
                        "addr:street": "Kirkdale Street"
                    },
                    "distance": 14148.14477183
                },
                {
                    "id": 6734033020,
                    "tags": {
                        "name": "CERES Nursery",
                        "shop": "garden_centre",
                        "phone": "+61 3 9389 0111",
                        "website": "https://ceres.org.au/social-enterprises/nursery/",
                        "opening_hours": "Mo-Su 09:00-17:00"
                    },
                    "distance": 14551.45327084
                },
                {
                    "id": 5550402744,
                    "tags": {
                        "name": "Pepper Tree Place Plant Nursery",
                        "shop": "garden_centre"
                    },
                    "distance": 15238.11584476
                }
            ]
        },
        "32": {
            "execution_time": 0.34259629249572754,
            "results": [
                {
                    "id": 2493199746,
                    "tags": {
                        "name": "Essendon Renault",
                        "shop": "car",
                        "phone": "+61 3 8325 9339",
                        "website": "https://www.essendonrenault.com.au/renlt/",
                        "check_date": "2023-10-13"
                    },
                    "distance": 2299.3132799
                },
                {
                    "id": 2243050045,
                    "tags": {
                        "name": "Melbourne City Toyota",
                        "shop": "car",
                        "brand": "Lexus;Toyota"
                    },
                    "distance": 3534.36831688
                },
                {
                    "id": 5982185652,
                    "tags": {
                        "name": "Audi Centre Melbourne",
                        "shop": "car",
                        "brand": "Audi",
                        "phone": "+61 3 9519 8000",
                        "opening_hours": "Mo-Fr 08:30-18:00; Sa 09:00-17:00; Su closed",
                        "brand:wikidata": "Q23317",
                        "brand:wikipedia": "en:Audi"
                    },
                    "distance": 3789.73569023
                },
                {
                    "id": 5180969322,
                    "tags": {
                        "name": "CEV \u00e9lectronic",
                        "shop": "car",
                        "name:en": "CEV \u00e9lectronic",
                        "addr:street": "Sussex Street",
                        "addr:housenumber": "2"
                    },
                    "distance": 3839.15904867
                },
                {
                    "id": 5110148964,
                    "tags": {
                        "name": "Millee Cars",
                        "shop": "car",
                        "phone": "+61 419 356 678",
                        "addr:state": "VIC",
                        "addr:street": "High Street",
                        "addr:suburb": "Northcote",
                        "addr:postcode": "3070",
                        "addr:housenumber": "484"
                    },
                    "distance": 4204.5915533
                },
                {
                    "id": 11263758063,
                    "tags": {
                        "name": "Genesis",
                        "shop": "car",
                        "brand": "Genesis",
                        "website": "https://www.genesis.com/au/en/main.html#",
                        "phone:AU": "1800 908 070",
                        "addr:unit": "G-030",
                        "opening_hours": "Mo-We 10:00-19:00; Th-Fr 10:00-21:00; Sa-Su 10:00-19:00",
                        "brand:wikidata": "Q21451523"
                    },
                    "distance": 4414.48875181
                },
                {
                    "id": 8907390829,
                    "tags": {
                        "name": "Trevor McGuinness Automobiles",
                        "shop": "car",
                        "website": "https://www.mcguinnessauto.com",
                        "addr:state": "VIC",
                        "addr:street": "Northumberland Street",
                        "addr:suburb": "Collingwood",
                        "second_hand": "only",
                        "addr:postcode": "3066",
                        "addr:housenumber": "18"
                    },
                    "distance": 4822.15006098
                },
                {
                    "id": 4061250654,
                    "tags": {
                        "name": "Rossi Motors",
                        "shop": "car"
                    },
                    "distance": 5066.17038553
                },
                {
                    "id": 3176128922,
                    "tags": {
                        "name": "All Star Car Sales",
                        "shop": "car",
                        "phone": "+61 3 9689 4554",
                        "addr:street": "Moreland Street",
                        "addr:suburb": "Footscray",
                        "addr:postcode": "3011",
                        "opening_hours": "Mo-Sa 09:00-17:00; Su 10:00-14:00",
                        "addr:housenumber": "130"
                    },
                    "distance": 5568.91502191
                },
                {
                    "id": 4977125589,
                    "tags": {
                        "name": "Backpackers Auto Sales",
                        "shop": "car",
                        "phone": "+61 3 9689 7997",
                        "website": "https://www.backpackersautosales.com.au/",
                        "operator": "500 Autos",
                        "addr:street": "Napier Street",
                        "addr:suburb": "Footscray",
                        "second_hand": "yes",
                        "addr:postcode": "3011",
                        "opening_hours": "Mo-Fr 09:00-17:30; Sa 09:00-16:00; PH off",
                        "addr:housenumber": "19",
                        "service:vehicle:insurance": "yes",
                        "service:vehicle:used_car_sales": "yes"
                    },
                    "distance": 5611.56105598
                }
            ]
        },
        "33": {
            "execution_time": 0.33707427978515625,
            "results": [
                {
                    "id": 1685582811,
                    "tags": {
                        "amenity": "parking"
                    },
                    "distance": 1262.01815689
                },
                {
                    "id": 1685582795,
                    "tags": {
                        "amenity": "parking"
                    },
                    "distance": 1288.48176601
                },
                {
                    "id": 4319641183,
                    "tags": {
                        "amenity": "parking"
                    },
                    "distance": 6673.44914957
                },
                {
                    "id": 5600088465,
                    "tags": {
                        "amenity": "parking"
                    },
                    "distance": 6791.91734156
                },
                {
                    "id": 1077864367,
                    "tags": {
                        "amenity": "parking"
                    },
                    "distance": 7735.1068083
                },
                {
                    "id": 567772572,
                    "tags": {
                        "source": "nearmap",
                        "amenity": "parking"
                    },
                    "distance": 7931.18988758
                },
                {
                    "id": 41429190,
                    "tags": {
                        "amenity": "parking",
                        "created_by": "Potlatch 0.4a"
                    },
                    "distance": 8563.09236619
                },
                {
                    "id": 3864684472,
                    "tags": {
                        "amenity": "parking"
                    },
                    "distance": 8680.52309583
                },
                {
                    "id": 4320820512,
                    "tags": {
                        "amenity": "parking"
                    },
                    "distance": 8704.38732617
                },
                {
                    "id": 4320820509,
                    "tags": {
                        "amenity": "parking"
                    },
                    "distance": 8731.99131436
                }
            ]
        },
        "34": {
            "execution_time": 0.3447258472442627,
            "results": [
                {
                    "id": 8271807750,
                    "tags": {
                        "bus": "yes",
                        "name": "Lorna Street",
                        "highway": "bus_stop",
                        "network": "PTV \u2013 Metropolitan Buses",
                        "ref:ptv": "12534",
                        "shelter": "yes",
                        "website": "https://ptv.vic.gov.au/stop/13585",
                        "operator": "Transdev;Ventura",
                        "route_ref": "832;901",
                        "public_transport": "platform"
                    },
                    "distance": 32448.00387263
                },
                {
                    "id": 8271807749,
                    "tags": {
                        "bus": "yes",
                        "name": "Lorna Street",
                        "network": "PTV \u2013 Metropolitan Buses",
                        "ref:ptv": "12534",
                        "website": "https://ptv.vic.gov.au/stop/13585",
                        "operator": "Transdev;Ventura",
                        "public_transport": "stop_position"
                    },
                    "distance": 32451.83812721
                },
                {
                    "id": 8271807748,
                    "tags": {
                        "bus": "yes",
                        "name": "Lorna Street",
                        "highway": "bus_stop",
                        "network": "PTV \u2013 Metropolitan Buses",
                        "ref:ptv": "12534",
                        "shelter": "yes",
                        "website": "https://ptv.vic.gov.au/stop/13585",
                        "operator": "Transdev;Ventura",
                        "route_ref": "832;901",
                        "public_transport": "platform"
                    },
                    "distance": 32459.21633364
                }
            ]
        },
        "35": {
            "execution_time": 0.29106998443603516,
            "results": [
                {
                    "id": 5201682239,
                    "tags": {
                        "name": "Ho\u00e0ng Video",
                        "shop": "video",
                        "addr:street": "Windsor Avenue",
                        "addr:housenumber": "3A"
                    },
                    "distance": 24756.37753617
                },
                {
                    "id": 5850315714,
                    "tags": {
                        "name": "Video Ezy",
                        "shop": "video"
                    },
                    "distance": 28391.23608165
                },
                {
                    "id": 5388536572,
                    "tags": {
                        "name": "Blockbuster",
                        "shop": "video"
                    },
                    "distance": 30780.479584
                },
                {
                    "id": 8345433128,
                    "tags": {
                        "name": "Shoo In",
                        "shop": "video",
                        "office": "company"
                    },
                    "distance": 38796.24034624
                }
            ]
        },
        "36": {
            "execution_time": 0.34018921852111816,
            "results": [
                {
                    "id": 4463132082,
                    "tags": {
                        "name": "SIXT",
                        "brand": "SIXT",
                        "branch": "Car & Truck Rental",
                        "amenity": "car_rental",
                        "addr:state": "VIC",
                        "addr:street": "Dandenong Road",
                        "brand:wikidata": "Q705664"
                    },
                    "distance": 2581.2553674
                },
                {
                    "id": 5130544306,
                    "tags": {
                        "name": "Budget",
                        "brand": "Budget",
                        "amenity": "car_rental",
                        "official_name": "Budget Rent a Car",
                        "opening_hours": "Mo-Th 07:30-17:00; Fr 07:30-17:30; Sa 07:00-15:30; Su 07:30-15:30",
                        "brand:wikidata": "Q1001437",
                        "brand:wikipedia": "en:Budget Rent a Car"
                    },
                    "distance": 2701.874135
                },
                {
                    "id": 4491995070,
                    "tags": {
                        "name": "Europcar",
                        "brand": "Europcar",
                        "source": "survey",
                        "amenity": "car_rental",
                        "website": "https://www.europcar.com.au/places/australia/clayton",
                        "opening_hours": "Mo-Fr 08:00-17:00; Sa,PH 08:00-12:00; Su 09:00-13:00",
                        "brand:wikidata": "Q1376256",
                        "brand:wikipedia": "en:Europcar"
                    },
                    "distance": 2773.92752357
                },
                {
                    "id": 5127953775,
                    "tags": {
                        "name": "Hertz",
                        "brand": "Hertz",
                        "amenity": "car_rental",
                        "brand:wikidata": "Q1543874",
                        "brand:wikipedia": "en:The Hertz Corporation"
                    },
                    "distance": 5921.55674339
                },
                {
                    "id": 12591934202,
                    "tags": {
                        "name": "Uhaul",
                        "brand": "Uhaul",
                        "amenity": "car_rental",
                        "operator": "Uhaul",
                        "addr:state": "VIC",
                        "addr:street": "Princes Highway",
                        "addr:suburb": "Dandenong",
                        "addr:postcode": "3175",
                        "opening_hours": "Mo-Fr 08:00-16:00; Sa 8:00-12:30",
                        "addr:housenumber": "195"
                    },
                    "distance": 7494.59068605
                },
                {
                    "id": 7098081885,
                    "tags": {
                        "name": "Budget",
                        "brand": "Budget",
                        "branch": "Car & Truck Rental",
                        "amenity": "car_rental",
                        "name:en": "Budget Car & Truck Rental Bentleight East",
                        "official_name": "Budget Rent a Car",
                        "brand:wikidata": "Q1001437"
                    },
                    "distance": 9093.75332459
                },
                {
                    "id": 4300385678,
                    "tags": {
                        "name": "Hertz",
                        "brand": "Hertz",
                        "source": "local knowledge",
                        "amenity": "car_rental",
                        "website": "https://www.hertz.com.au/",
                        "operator": "Hertz",
                        "brand:wikidata": "Q1543874",
                        "brand:wikipedia": "en:The Hertz Corporation"
                    },
                    "distance": 9726.70402053
                },
                {
                    "id": 369680099,
                    "tags": {
                        "name": "Avis",
                        "brand": "Avis",
                        "amenity": "car_rental",
                        "website": "https://www.avis.com.au/",
                        "building": "yes",
                        "addr:street": "Cheltenham Road",
                        "official_name": "Avis Car Rental",
                        "brand:wikidata": "Q791136",
                        "brand:wikipedia": "en:Avis Car Rental",
                        "addr:housenumber": "1"
                    },
                    "distance": 9773.22867667
                },
                {
                    "id": 6139762527,
                    "tags": {
                        "name": "Thrifty",
                        "brand": "Thrifty",
                        "branch": "Moorabbin",
                        "amenity": "car_rental",
                        "operator": "Thrifty",
                        "addr:street": "Elna Court",
                        "brand:wikidata": "Q2429546",
                        "addr:housenumber": "2"
                    },
                    "distance": 10543.82380864
                },
                {
                    "id": 3860447969,
                    "tags": {
                        "name": "Thrifty",
                        "brand": "Thrifty",
                        "source": "survey",
                        "amenity": "car_rental",
                        "building": "yes",
                        "addr:street": "Plunkett Road",
                        "brand:wikidata": "Q2429546",
                        "addr:housenumber": "19"
                    },
                    "distance": 10888.49093728
                }
            ]
        },
        "37": {
            "execution_time": 0.34786057472229004,
            "results": [
                {
                    "id": 3791018321,
                    "tags": {
                        "amenity": "drinking_water",
                        "check_date": "2023-07-09"
                    },
                    "distance": 334.9139644
                },
                {
                    "id": 5136662650,
                    "tags": {
                        "amenity": "drinking_water"
                    },
                    "distance": 625.73367271
                },
                {
                    "id": 4505314421,
                    "tags": {
                        "amenity": "drinking_water"
                    },
                    "distance": 709.34783477
                },
                {
                    "id": 5136662853,
                    "tags": {
                        "amenity": "drinking_water"
                    },
                    "distance": 716.73143373
                },
                {
                    "id": 3676221317,
                    "tags": {
                        "amenity": "drinking_water",
                        "fountain": "bubbler",
                        "check_date": "2023-06-05"
                    },
                    "distance": 720.39930544
                },
                {
                    "id": 4034648329,
                    "tags": {
                        "amenity": "drinking_water"
                    },
                    "distance": 724.93509307
                },
                {
                    "id": 10957441997,
                    "tags": {
                        "fee": "no",
                        "lit": "no",
                        "access": "yes",
                        "bottle": "yes",
                        "indoor": "no",
                        "amenity": "drinking_water",
                        "covered": "no",
                        "fountain": "bubbler"
                    },
                    "distance": 801.57302128
                },
                {
                    "id": 3823638044,
                    "tags": {
                        "amenity": "drinking_water",
                        "fountain": "bubbler",
                        "check_date": "2023-05-20"
                    },
                    "distance": 825.06372138
                },
                {
                    "id": 7373705936,
                    "tags": {
                        "amenity": "drinking_water"
                    },
                    "distance": 1013.47654238
                },
                {
                    "id": 9322934660,
                    "tags": {
                        "access": "yes",
                        "amenity": "drinking_water",
                        "fountain": "bubbler",
                        "wheelchair": "yes"
                    },
                    "distance": 1154.27637388
                }
            ]
        },
        "38": {
            "execution_time": 0.3458256721496582,
            "results": [
                {
                    "id": 10973297488,
                    "tags": {
                        "bin": "no",
                        "bus": "yes",
                        "name": "Lansdown Street/Balwyn Road",
                        "bench": "no",
                        "highway": "bus_stop",
                        "network": "PTV - Metropolitan Buses",
                        "shelter": "no",
                        "operator": "Kinetic",
                        "tactile_paving": "no",
                        "departures_board": "timetable",
                        "public_transport": "platform"
                    },
                    "distance": 4298.22001042
                },
                {
                    "id": 10973297489,
                    "tags": {
                        "bin": "no",
                        "bus": "yes",
                        "ref": "5812",
                        "name": "Lansdown Street/Balwyn Road",
                        "bench": "no",
                        "highway": "bus_stop",
                        "network": "PTV - Metropolitan Buses",
                        "shelter": "no",
                        "operator": "Kinetic",
                        "tactile_paving": "yes",
                        "departures_board": "timetable",
                        "public_transport": "platform"
                    },
                    "distance": 4301.35838365
                }
            ]
        },
        "39": {
            "execution_time": 0.3243107795715332,
            "results": [
                {
                    "id": 613340091,
                    "tags": {
                        "name": "Bakers Delight",
                        "shop": "bakery",
                        "brand": "Bakers Delight",
                        "brand:wikidata": "Q4849261",
                        "brand:wikipedia": "en:Bakers Delight"
                    },
                    "distance": 1166.85184056
                },
                {
                    "id": 1954089140,
                    "tags": {
                        "shop": "bakery"
                    },
                    "distance": 2170.13365764
                },
                {
                    "id": 1458460694,
                    "tags": {
                        "name": "Sunflower Bakery",
                        "shop": "bakery"
                    },
                    "distance": 2919.14952298
                },
                {
                    "id": 995593320,
                    "tags": {
                        "name": "Kerrie Road Bakery Cafe",
                        "shop": "bakery",
                        "phone": "+61 3 9803 9979",
                        "source": "survey",
                        "amenity": "cafe"
                    },
                    "distance": 3290.0431759
                },
                {
                    "id": 610604480,
                    "tags": {
                        "name": "Pinewood Bakery",
                        "shop": "bakery"
                    },
                    "distance": 3317.22322007
                },
                {
                    "id": 6919672487,
                    "tags": {
                        "name": "Anne's Pantry",
                        "shop": "bakery"
                    },
                    "distance": 3446.63876328
                },
                {
                    "id": 614088982,
                    "tags": {
                        "name": "Bakers Delight",
                        "shop": "bakery",
                        "brand": "Bakers Delight",
                        "level": "2",
                        "brand:wikidata": "Q4849261",
                        "brand:wikipedia": "en:Bakers Delight"
                    },
                    "distance": 3552.36893923
                },
                {
                    "id": 2020887353,
                    "tags": {
                        "name": "Daniel's Donuts",
                        "shop": "bakery",
                        "brand": "Daniel's Donuts",
                        "amenity": "fast_food",
                        "cuisine": "donut;pie;milkshake",
                        "website": "http://www.danieldonuts.com.au",
                        "takeaway": "yes",
                        "opening_hours": "24/7",
                        "brand:wikidata": "Q116147181"
                    },
                    "distance": 3651.33431722
                },
                {
                    "id": 700524751,
                    "tags": {
                        "name": "Syndal Bakery",
                        "shop": "bakery",
                        "source": "survey"
                    },
                    "distance": 4337.62538954
                },
                {
                    "id": 5963317160,
                    "tags": {
                        "name": "Bok Rice Bakery",
                        "shop": "bakery"
                    },
                    "distance": 4933.6696155
                }
            ]
        },
        "40": {
            "execution_time": 0.322432279586792,
            "results": [
                {
                    "id": 2223074615,
                    "tags": {
                        "ref": "37",
                        "name": "Stop 37: Gaffney Street",
                        "tram": "yes",
                        "network": "PTV - Metropolitan Trams",
                        "railway": "tram_stop",
                        "operator": "Keolis Downer",
                        "network:wikidata": "Q7257648",
                        "public_transport": "stop_position",
                        "operator:wikidata": "Q6328065"
                    },
                    "distance": 12494.67455704
                },
                {
                    "id": 4318136836,
                    "tags": {
                        "ref": "37",
                        "name": "Stop 37: Gaffney Street",
                        "tram": "yes",
                        "network": "PTV - Metropolitan Trams",
                        "operator": "Yarra Trams",
                        "route_ref": "19",
                        "wheelchair": "no",
                        "public_transport": "platform"
                    },
                    "distance": 12501.2120774
                },
                {
                    "id": 4318136837,
                    "tags": {
                        "ref": "37",
                        "name": "Stop 37: Gaffney Street",
                        "tram": "yes",
                        "network": "PTV - Metropolitan Trams",
                        "operator": "Yarra Trams",
                        "route_ref": "19",
                        "wheelchair": "no",
                        "public_transport": "platform"
                    },
                    "distance": 12503.60859747
                },
                {
                    "id": 2223074609,
                    "tags": {
                        "ref": "37",
                        "name": "Stop 37: Gaffney Street",
                        "tram": "yes",
                        "network": "PTV - Metropolitan Trams",
                        "railway": "tram_stop",
                        "operator": "Keolis Downer",
                        "network:wikidata": "Q7257648",
                        "public_transport": "stop_position",
                        "operator:wikidata": "Q6328065"
                    },
                    "distance": 12508.94162872
                }
            ]
        },
        "41": {
            "execution_time": 0.32445192337036133,
            "results": [
                {
                    "id": 6493422164,
                    "tags": {
                        "amenity": "toilets"
                    },
                    "distance": 2664.01915467
                },
                {
                    "id": 1432590899,
                    "tags": {
                        "amenity": "toilets"
                    },
                    "distance": 3071.15973107
                },
                {
                    "id": 11336914171,
                    "tags": {
                        "amenity": "toilets"
                    },
                    "distance": 3386.04594407
                },
                {
                    "id": 4330537883,
                    "tags": {
                        "amenity": "toilets"
                    },
                    "distance": 3483.82511623
                },
                {
                    "id": 11520937838,
                    "tags": {
                        "layer": "-1",
                        "amenity": "toilets"
                    },
                    "distance": 3771.78491863
                },
                {
                    "id": 11367541189,
                    "tags": {
                        "access": "yes",
                        "amenity": "toilets"
                    },
                    "distance": 3889.98569138
                },
                {
                    "id": 5872679543,
                    "tags": {
                        "amenity": "toilets"
                    },
                    "distance": 4029.16883917
                },
                {
                    "id": 10160929869,
                    "tags": {
                        "access": "yes",
                        "amenity": "toilets"
                    },
                    "distance": 4642.65969864
                },
                {
                    "id": 11386600439,
                    "tags": {
                        "amenity": "toilets"
                    },
                    "distance": 4804.30296021
                },
                {
                    "id": 5872919674,
                    "tags": {
                        "amenity": "toilets"
                    },
                    "distance": 5117.18984062
                }
            ]
        },
        "42": {
            "execution_time": 0.35677003860473633,
            "results": [
                {
                    "id": 5430190676,
                    "tags": {
                        "name": "Vac Shack",
                        "shop": "clothes"
                    },
                    "distance": 1313.76064176
                },
                {
                    "id": 5430190673,
                    "tags": {
                        "name": "Work Rest & Play Plus Sized Clothing",
                        "shop": "clothes"
                    },
                    "distance": 1318.87599342
                },
                {
                    "id": 11773146690,
                    "tags": {
                        "name": "Lindy on the Concourse",
                        "shop": "clothes",
                        "phone": "+61 400 095 380",
                        "clothes": "women",
                        "website": "https://lindyontheconcourse.com.au/",
                        "addr:state": "VIC",
                        "addr:street": "North Concourse",
                        "addr:suburb": "Beaumaris",
                        "addr:postcode": "3193",
                        "addr:housenumber": "6"
                    },
                    "distance": 1390.71801219
                },
                {
                    "id": 4077652509,
                    "tags": {
                        "name": "Wick & Wire Co",
                        "shop": "clothes",
                        "addr:street": "Charman Road",
                        "addr:suburb": "Cheltenham"
                    },
                    "distance": 1397.86630753
                },
                {
                    "id": 8552299673,
                    "tags": {
                        "name": "Cotton On",
                        "shop": "clothes",
                        "brand": "Cotton On",
                        "brand:wikidata": "Q5175717",
                        "brand:wikipedia": "en:Cotton On Group"
                    },
                    "distance": 2016.13938928
                },
                {
                    "id": 6332556586,
                    "tags": {
                        "name": "Men's Ware",
                        "shop": "clothes"
                    },
                    "distance": 2037.98885607
                },
                {
                    "id": 9561802315,
                    "tags": {
                        "name": "Fratelli Knitwear",
                        "shop": "clothes",
                        "phone": "+61 3 9553 2115",
                        "website": "https://www.fratelli.it/"
                    },
                    "distance": 2039.3059722
                },
                {
                    "id": 8552299662,
                    "tags": {
                        "name": "Witchery",
                        "shop": "clothes",
                        "brand": "Witchery",
                        "brand:wikidata": "Q8027909",
                        "brand:wikipedia": "en:Witchery (company)"
                    },
                    "distance": 2108.52985942
                },
                {
                    "id": 8552299664,
                    "tags": {
                        "name": "Seed Heritage",
                        "shop": "clothes",
                        "brand": "Seed Heritage",
                        "clothes": "women",
                        "brand:wikidata": "Q106014671"
                    },
                    "distance": 2117.51451827
                },
                {
                    "id": 8552299668,
                    "tags": {
                        "name": "Country Road",
                        "shop": "clothes",
                        "brand": "Country Road",
                        "brand:wikidata": "Q2998907",
                        "brand:wikipedia": "en:Country Road (retailer)"
                    },
                    "distance": 2134.95449109
                }
            ]
        },
        "43": {
            "execution_time": 0.31766724586486816,
            "results": [
                {
                    "id": 9273659488,
                    "tags": {
                        "name": "Feather and Fleur",
                        "shop": "florist",
                        "addr:state": "VIC",
                        "addr:street": "Goulburn Street",
                        "addr:postcode": "3754",
                        "addr:housenumber": "70"
                    },
                    "distance": 3096.60336508
                },
                {
                    "id": 10164703810,
                    "tags": {
                        "shop": "florist"
                    },
                    "distance": 5291.79320711
                },
                {
                    "id": 5222791658,
                    "tags": {
                        "shop": "florist"
                    },
                    "distance": 8663.60476855
                },
                {
                    "id": 2466461558,
                    "tags": {
                        "name": "Anthos",
                        "shop": "florist"
                    },
                    "distance": 9370.19848175
                },
                {
                    "id": 3302190134,
                    "tags": {
                        "name": "Beautiful Flowers",
                        "shop": "florist",
                        "phone": "+61 3 9466 9119"
                    },
                    "distance": 10668.8160597
                },
                {
                    "id": 9109763603,
                    "tags": {
                        "name": "RainFlorist",
                        "shop": "florist"
                    },
                    "distance": 10820.6605699
                },
                {
                    "id": 3704488972,
                    "tags": {
                        "name": "Watsonia Florist",
                        "shop": "florist",
                        "phone": "+61 3 9435 0862",
                        "addr:street": "Watsonia Road",
                        "addr:housenumber": "79"
                    },
                    "distance": 11753.47581594
                },
                {
                    "id": 1618953677,
                    "tags": {
                        "name": "Sweet Pea Florist",
                        "shop": "florist",
                        "phone": "+61 3 9432 9277",
                        "source": "survey",
                        "smoking": "no",
                        "delivery": "yes",
                        "addr:unit": "2",
                        "addr:street": "Mountain View Road",
                        "opening_hours": "Mo-We 09:00-17:00; Th,Fr 09:00-17:30; Sa 10:00-13:00",
                        "addr:housenumber": "111"
                    },
                    "distance": 12607.53777736
                },
                {
                    "id": 3387681616,
                    "tags": {
                        "name": "Florist",
                        "shop": "florist"
                    },
                    "distance": 12924.86383524
                },
                {
                    "id": 2476135852,
                    "tags": {
                        "name": "Alitalia",
                        "shop": "florist",
                        "phone": "+61 3 9359 2962",
                        "addr:street": "Anderson Road",
                        "opening_hours": "Mo-Fr 08:00-16:30; Sa 08:00-17:00; Su 08:00-16:00",
                        "addr:housenumber": "85"
                    },
                    "distance": 13160.23295058
                }
            ]
        },
        "44": {
            "execution_time": 0.3130528926849365,
            "results": [
                {
                    "id": 10933486892,
                    "tags": {
                        "ele": "252.59",
                        "ref": "310003660",
                        "name": "MICKLEHAM PM 366",
                        "man_made": "survey_point",
                        "material": "brass"
                    },
                    "distance": 3062.5561452
                }
            ]
        },
        "45": {
            "execution_time": 0.3337860107421875,
            "results": [
                {
                    "id": 5353946770,
                    "tags": {
                        "fee": "no",
                        "note": "Free hot indoor shower and cold outdoor showers.",
                        "amenity": "shower"
                    },
                    "distance": 1262.02096166
                },
                {
                    "id": 9690995011,
                    "tags": {
                        "access": "yes",
                        "amenity": "shower"
                    },
                    "distance": 1636.57606323
                },
                {
                    "id": 11187397715,
                    "tags": {
                        "fee": "no",
                        "access": "yes",
                        "amenity": "shower",
                        "hot_water": "no",
                        "wheelchair": "yes"
                    },
                    "distance": 2977.59181848
                },
                {
                    "id": 4889691173,
                    "tags": {
                        "amenity": "shower",
                        "location": "outdoor"
                    },
                    "distance": 3122.50757772
                },
                {
                    "id": 5372465849,
                    "tags": {
                        "fee": "no",
                        "amenity": "shower",
                        "location": "outdoor",
                        "supervised": "no",
                        "opening_hours": "24/7"
                    },
                    "distance": 3625.80856543
                },
                {
                    "id": 5372471555,
                    "tags": {
                        "amenity": "shower",
                        "location": "outdoor"
                    },
                    "distance": 3896.78505804
                },
                {
                    "id": 9382955926,
                    "tags": {
                        "fee": "no",
                        "access": "yes",
                        "amenity": "shower",
                        "hot_water": "no",
                        "supervised": "no",
                        "wheelchair": "yes",
                        "description": "Outdoor"
                    },
                    "distance": 5275.81999681
                },
                {
                    "id": 8268305523,
                    "tags": {
                        "amenity": "shower"
                    },
                    "distance": 6763.35624513
                },
                {
                    "id": 6415698349,
                    "tags": {
                        "amenity": "shower"
                    },
                    "distance": 7718.27452573
                },
                {
                    "id": 4914753540,
                    "tags": {
                        "fee": "no",
                        "shower": "outdoor",
                        "amenity": "shower",
                        "water_source": "water taps"
                    },
                    "distance": 7982.76537221
                }
            ]
        },
        "46": {
            "execution_time": 0.2600569725036621,
            "results": [
                {
                    "id": 5247106669,
                    "tags": {
                        "name": "Dandenong Family Lawyer",
                        "office": "lawyer"
                    },
                    "distance": 32877.53746392
                }
            ]
        },
        "47": {
            "execution_time": 0.29136013984680176,
            "results": []
        },
        "48": {
            "execution_time": 0.3418996334075928,
            "results": [
                {
                    "id": 5665150159,
                    "tags": {
                        "name": "Bella Nina Pizza and Pasta",
                        "phone": "+61 3 9462 6337",
                        "amenity": "restaurant",
                        "cuisine": "italian;pizza",
                        "website": "https://bellaninapizzapasta.com.au/",
                        "addr:state": "VIC",
                        "addr:street": "Boldrewood Parade",
                        "addr:suburb": "Reservoir",
                        "addr:postcode": "3073",
                        "opening_hours": "Tu-Su 17:00-22:00",
                        "addr:housenumber": "168"
                    },
                    "distance": 412.6345842
                },
                {
                    "id": 2735692789,
                    "tags": {
                        "name": "Pizza Hut",
                        "brand": "Pizza Hut",
                        "amenity": "restaurant",
                        "cuisine": "pizza",
                        "website": "https://www.pizzahut.com.au/",
                        "addr:street": "Spring Street",
                        "brand:wikidata": "Q191615",
                        "brand:wikipedia": "en:Pizza Hut",
                        "addr:housenumber": "317"
                    },
                    "distance": 1060.13527415
                },
                {
                    "id": 5665163265,
                    "tags": {
                        "name": "Tre Bambinis Italian Restaurant",
                        "phone": "+61 3 9469 3330",
                        "amenity": "restaurant",
                        "cuisine": "italian",
                        "website": "https://trebambinis.com.au/",
                        "takeaway": "yes",
                        "opening_hours": "Tu-Th 17:00-22:00; Fr-Sa 17:00-22:30; Su 17:00-22:00"
                    },
                    "distance": 1185.21206938
                },
                {
                    "id": 6648580139,
                    "tags": {
                        "name": "La Porchetta",
                        "amenity": "restaurant",
                        "cuisine": "pizza;italian"
                    },
                    "distance": 1214.26406912
                },
                {
                    "id": 4063309074,
                    "tags": {
                        "name": "Phon Pi Sai",
                        "amenity": "restaurant",
                        "cuisine": "thai",
                        "description": "Thai"
                    },
                    "distance": 1223.21875336
                },
                {
                    "id": 7089882833,
                    "tags": {
                        "name": "Kaneo Charcoal Grill",
                        "amenity": "restaurant"
                    },
                    "distance": 1367.55952138
                },
                {
                    "id": 7089882844,
                    "tags": {
                        "name": "Reservoir Noodle House",
                        "phone": "+61 3 9460 2285",
                        "amenity": "restaurant",
                        "cuisine": "noodle",
                        "website": "https://reservoir-noodle-house.business.site/",
                        "addr:street": "Edwardes Street",
                        "opening_hours": "Mo-Sa 11:30-20:00; Su off",
                        "addr:housenumber": "62"
                    },
                    "distance": 1420.28565512
                },
                {
                    "id": 6014936015,
                    "tags": {
                        "name": "Mr Lee",
                        "amenity": "restaurant"
                    },
                    "distance": 1566.40503126
                },
                {
                    "id": 6014936022,
                    "tags": {
                        "name": "Bubba Pizza",
                        "amenity": "restaurant"
                    },
                    "distance": 1583.59956183
                },
                {
                    "id": 6014936024,
                    "tags": {
                        "name": "Simply Noodles",
                        "amenity": "restaurant"
                    },
                    "distance": 1588.63430282
                }
            ]
        },
        "49": {
            "execution_time": 0.3236205577850342,
            "results": [
                {
                    "id": 12381377221,
                    "tags": {
                        "amenity": "recycling",
                        "recycling_type": "container",
                        "recycling:clothes": "yes"
                    },
                    "distance": 5129.94534687
                },
                {
                    "id": 12381377222,
                    "tags": {
                        "amenity": "recycling",
                        "recycling_type": "container",
                        "recycling:clothes": "yes"
                    },
                    "distance": 5130.17005314
                },
                {
                    "id": 12381377223,
                    "tags": {
                        "amenity": "recycling",
                        "recycling_type": "container",
                        "recycling:clothes": "yes"
                    },
                    "distance": 5130.39653208
                },
                {
                    "id": 12381377224,
                    "tags": {
                        "amenity": "recycling",
                        "recycling_type": "container",
                        "recycling:clothes": "yes"
                    },
                    "distance": 5130.65828078
                },
                {
                    "id": 4080490068,
                    "tags": {
                        "name": "Visy wastepaper & waste management",
                        "amenity": "recycling",
                        "recycling_type": "centre"
                    },
                    "distance": 5912.4056374
                },
                {
                    "id": 11266417636,
                    "tags": {
                        "amenity": "recycling",
                        "recycling_type": "container",
                        "recycling:clothes": "yes"
                    },
                    "distance": 10051.04604126
                },
                {
                    "id": 10838397631,
                    "tags": {
                        "amenity": "recycling",
                        "recycling_type": "container",
                        "recycling:clothes": "yes"
                    },
                    "distance": 10137.12235653
                },
                {
                    "id": 2707944747,
                    "tags": {
                        "amenity": "recycling",
                        "check_date": "2022-11-29",
                        "recycling:cans": "yes",
                        "recycling:wood": "no",
                        "recycling_type": "container",
                        "recycling:books": "no",
                        "recycling:glass": "yes",
                        "recycling:paper": "yes",
                        "recycling:waste": "no",
                        "recycling:cartons": "yes",
                        "recycling:clothes": "no",
                        "recycling:plastic": "yes",
                        "recycling:batteries": "no",
                        "recycling:cardboard": "yes",
                        "recycling:magazines": "yes",
                        "recycling:newspaper": "yes",
                        "recycling:green_waste": "no",
                        "recycling:scrap_metal": "no",
                        "recycling:glass_bottles": "yes",
                        "recycling:paper_packaging": "yes",
                        "recycling:plastic_bottles": "yes",
                        "recycling:small_appliances": "no",
                        "recycling:plastic_packaging": "yes",
                        "recycling:electrical_appliances": "no"
                    },
                    "distance": 10215.33899897
                },
                {
                    "id": 2707924928,
                    "tags": {
                        "amenity": "recycling",
                        "recycling:cans": "yes",
                        "recycling:wood": "no",
                        "recycling_type": "container",
                        "recycling:books": "no",
                        "recycling:glass": "no",
                        "recycling:paper": "no",
                        "recycling:waste": "no",
                        "recycling:cartons": "no",
                        "recycling:clothes": "no",
                        "recycling:plastic": "no",
                        "recycling:batteries": "no",
                        "recycling:cardboard": "no",
                        "recycling:magazines": "no",
                        "recycling:newspaper": "no",
                        "recycling:green_waste": "no",
                        "recycling:scrap_metal": "no",
                        "recycling:glass_bottles": "yes",
                        "recycling:paper_packaging": "no",
                        "recycling:small_appliances": "no",
                        "recycling:plastic_packaging": "no",
                        "recycling:electrical_appliances": "no"
                    },
                    "distance": 10477.49586356
                },
                {
                    "id": 2707924884,
                    "tags": {
                        "amenity": "recycling",
                        "recycling:cans": "yes",
                        "recycling:wood": "no",
                        "recycling_type": "container",
                        "recycling:books": "no",
                        "recycling:glass": "no",
                        "recycling:paper": "no",
                        "recycling:waste": "no",
                        "recycling:cartons": "no",
                        "recycling:clothes": "no",
                        "recycling:plastic": "no",
                        "recycling:batteries": "no",
                        "recycling:cardboard": "no",
                        "recycling:magazines": "no",
                        "recycling:newspaper": "no",
                        "recycling:green_waste": "no",
                        "recycling:scrap_metal": "no",
                        "recycling:glass_bottles": "yes",
                        "recycling:paper_packaging": "no",
                        "recycling:small_appliances": "no",
                        "recycling:plastic_packaging": "no",
                        "recycling:electrical_appliances": "no"
                    },
                    "distance": 10503.86185125
                }
            ]
        }
    }
}