{
    "insertion_time": 5.834514856338501,
    "index_creation": {
        "func": [
            "CREATE INDEX IF NOT EXISTS idx_pois_geom ON PoIs USING GIST (geom);",
            "CREATE INDEX IF NOT EXISTS idx_pois_tags ON PoIs USING GIN (tags);"
        ],
        "time": 0.42923736572265625
    },
    "query_results": {
        "0": {
            "execution_time": 0.008332490921020508,
            "results": []
        },
        "1": {
            "execution_time": 0.006890058517456055,
            "results": []
        },
        "2": {
            "execution_time": 0.007413625717163086,
            "results": []
        },
        "3": {
            "execution_time": 0.005734682083129883,
            "results": []
        },
        "4": {
            "execution_time": 0.010105609893798828,
            "results": [
                {
                    "id": 7800138291,
                    "tags": {
                        "name": "1st Choice Liquor",
                        "shop": "alcohol",
                        "operator": "1st Choice Liquor"
                    },
                    "distance": 2343.9362778
                },
                {
                    "id": 324208200,
                    "tags": {
                        "name": "BWS",
                        "note": "Trial tag for bottle shops",
                        "shop": "alcohol",
                        "brand": "BWS",
                        "brand:wikidata": "Q4836848"
                    },
                    "distance": 4522.80868703
                }
            ]
        },
        "5": {
            "execution_time": 0.009414434432983398,
            "results": []
        },
        "6": {
            "execution_time": 0.007268428802490234,
            "results": []
        },
        "7": {
            "execution_time": 0.006559133529663086,
            "results": []
        },
        "8": {
            "execution_time": 0.016994953155517578,
            "results": [
                {
                    "id": 7264799511,
                    "tags": {
                        "amenity": "drinking_water"
                    },
                    "distance": 554.32932456
                },
                {
                    "id": 2056960270,
                    "tags": {
                        "amenity": "drinking_water"
                    },
                    "distance": 1048.01512782
                },
                {
                    "id": 4914753864,
                    "tags": {
                        "amenity": "drinking_water"
                    },
                    "distance": 1223.98808706
                },
                {
                    "id": 247805855,
                    "tags": {
                        "note": "drinking_fountain",
                        "amenity": "drinking_water",
                        "check_date": "2022-10-19"
                    },
                    "distance": 1562.46248661
                },
                {
                    "id": 10299989977,
                    "tags": {
                        "amenity": "drinking_water"
                    },
                    "distance": 1604.73414638
                },
                {
                    "id": 5915232913,
                    "tags": {
                        "amenity": "drinking_water",
                        "operator": "Darebin City Council",
                        "operator:wikidata": "Q56477803"
                    },
                    "distance": 1785.57115623
                },
                {
                    "id": 9789737809,
                    "tags": {
                        "amenity": "drinking_water",
                        "fountain": "bubbler"
                    },
                    "distance": 1800.3248932
                },
                {
                    "id": 3797996647,
                    "tags": {
                        "amenity": "drinking_water",
                        "fountain": "bubbler",
                        "check_date": "2022-12-02"
                    },
                    "distance": 2167.09301753
                },
                {
                    "id": 5425877105,
                    "tags": {
                        "amenity": "drinking_water"
                    },
                    "distance": 2289.74872865
                },
                {
                    "id": 2355607928,
                    "tags": {
                        "amenity": "drinking_water"
                    },
                    "distance": 2327.43652664
                }
            ]
        },
        "9": {
            "execution_time": 0.015534400939941406,
            "results": [
                {
                    "id": 10600623537,
                    "tags": {
                        "name": "The Alleyway Cartel",
                        "amenity": "cafe",
                        "addr:state": "VIC",
                        "addr:street": "Neerim Road",
                        "addr:suburb": "Murrumbeena",
                        "addr:postcode": "3163",
                        "addr:housenumber": "474"
                    },
                    "distance": 1731.48867765
                }
            ]
        },
        "10": {
            "execution_time": 0.011042356491088867,
            "results": []
        },
        "11": {
            "execution_time": 0.006865501403808594,
            "results": []
        },
        "12": {
            "execution_time": 0.007796764373779297,
            "results": []
        },
        "13": {
            "execution_time": 0.011475563049316406,
            "results": []
        },
        "14": {
            "execution_time": 0.010763883590698242,
            "results": [
                {
                    "id": 6371453481,
                    "tags": {
                        "name": "Spice Junction",
                        "phone": "+61 3 9931 0826",
                        "amenity": "restaurant",
                        "cuisine": "indian",
                        "delivery": "yes",
                        "takeaway": "yes",
                        "addr:unit": "2",
                        "addr:street": "Neville Avenue",
                        "addr:suburb": "Laverton",
                        "addr:postcode": "3028",
                        "addr:housenumber": "6"
                    },
                    "distance": 3836.39683334
                }
            ]
        },
        "15": {
            "execution_time": 0.012938737869262695,
            "results": [
                {
                    "id": 10235141800,
                    "tags": {
                        "name": "Phuoc Thanh",
                        "level": "0",
                        "amenity": "restaurant",
                        "cuisine": "vietnamese",
                        "takeaway": "yes",
                        "check_date": "2023-02-04"
                    },
                    "distance": 1640.79460383
                },
                {
                    "id": 10840959872,
                    "tags": {
                        "name": "OMI",
                        "amenity": "restaurant",
                        "cuisine": "japanese;noodle;ramen;udon",
                        "website": "https://www.omiwagyu.com.au"
                    },
                    "distance": 1786.41540562
                },
                {
                    "id": 5714724539,
                    "tags": {
                        "name": "D'Elephant",
                        "amenity": "restaurant"
                    },
                    "distance": 1810.83994989
                },
                {
                    "id": 3077576033,
                    "tags": {
                        "name": "Saigon Vietnamese Restaurant",
                        "amenity": "restaurant",
                        "cuisine": "vietnamese",
                        "website": "http://www.saigonvietnameserestaurant.com.au"
                    },
                    "distance": 2470.85458276
                },
                {
                    "id": 3840017767,
                    "tags": {
                        "amenity": "restaurant"
                    },
                    "distance": 2710.79041182
                }
            ]
        },
        "16": {
            "execution_time": 0.010380029678344727,
            "results": [
                {
                    "id": 365211439,
                    "tags": {
                        "amenity": "fast_food",
                        "cuisine": "kebab",
                        "takeaway": "yes",
                        "wheelchair": "yes",
                        "toilets:wheelchair": "no"
                    },
                    "distance": 3399.04184212
                }
            ]
        },
        "17": {
            "execution_time": 0.00768589973449707,
            "results": []
        },
        "18": {
            "execution_time": 0.010920286178588867,
            "results": [
                {
                    "id": 2672755753,
                    "tags": {
                        "access": "private",
                        "amenity": "parking_space",
                        "parking": "surface",
                        "capacity": "1",
                        "survey:date": "2014-02-15"
                    },
                    "distance": 3978.47846489
                }
            ]
        },
        "19": {
            "execution_time": 0.011083126068115234,
            "results": [
                {
                    "id": 3984925963,
                    "tags": {
                        "name": "Subway",
                        "brand": "Subway",
                        "amenity": "fast_food",
                        "cuisine": "sandwich",
                        "website": "https://www.subway.com/en-AU",
                        "takeaway": "yes",
                        "brand:wikidata": "Q244457"
                    },
                    "distance": 1872.37303441
                },
                {
                    "id": 1540329947,
                    "tags": {
                        "name": "Jackson Court Charcoal Chicken",
                        "phone": "+61 3 9855 9963",
                        "amenity": "fast_food",
                        "cuisine": "chicken",
                        "check_date": "2023-09-13",
                        "opening_hours": "Sa-Th 10:30-20:00; Fr 10:30-20:30"
                    },
                    "distance": 4126.31046361
                }
            ]
        },
        "20": {
            "execution_time": 0.008137941360473633,
            "results": []
        },
        "21": {
            "execution_time": 0.00936579704284668,
            "results": []
        },
        "22": {
            "execution_time": 0.005858421325683594,
            "results": []
        },
        "23": {
            "execution_time": 0.007355928421020508,
            "results": []
        },
        "24": {
            "execution_time": 0.01607227325439453,
            "results": [
                {
                    "id": 12000307242,
                    "tags": {
                        "amenity": "bench"
                    },
                    "distance": 1864.45006219
                },
                {
                    "id": 6270511785,
                    "tags": {
                        "source": "survey",
                        "amenity": "bench"
                    },
                    "distance": 2698.09785028
                },
                {
                    "id": 11875858817,
                    "tags": {
                        "lit": "no",
                        "amenity": "bench",
                        "backrest": "yes",
                        "material": "wood",
                        "operator": "Bayside City Council"
                    },
                    "distance": 2716.08295953
                },
                {
                    "id": 6239120353,
                    "tags": {
                        "source": "survey",
                        "amenity": "bench"
                    },
                    "distance": 2795.06017472
                },
                {
                    "id": 6199963956,
                    "tags": {
                        "source": "survey",
                        "amenity": "bench"
                    },
                    "distance": 2824.73964284
                },
                {
                    "id": 11919022728,
                    "tags": {
                        "amenity": "bench",
                        "backrest": "yes",
                        "material": "wood"
                    },
                    "distance": 2868.48711818
                },
                {
                    "id": 8778202759,
                    "tags": {
                        "lit": "no",
                        "seats": "3",
                        "access": "yes",
                        "amenity": "bench",
                        "backrest": "yes",
                        "material": "wood",
                        "operator": "Bayside City Council"
                    },
                    "distance": 3411.69536142
                },
                {
                    "id": 10598527699,
                    "tags": {
                        "amenity": "bench",
                        "backrest": "yes"
                    },
                    "distance": 3460.15457672
                },
                {
                    "id": 11925038880,
                    "tags": {
                        "amenity": "bench",
                        "backrest": "yes",
                        "material": "stone"
                    },
                    "distance": 3559.49439836
                },
                {
                    "id": 6222367551,
                    "tags": {
                        "amenity": "bench"
                    },
                    "distance": 3593.76376283
                }
            ]
        },
        "25": {
            "execution_time": 0.010935783386230469,
            "results": [
                {
                    "id": 3376061062,
                    "tags": {
                        "name": "Casa Nata",
                        "shop": "pastry",
                        "phone": "+61 431 180 838",
                        "amenity": "cafe",
                        "cuisine": "portuguese",
                        "website": "https://casanata.com.au/",
                        "addr:state": "VIC",
                        "addr:street": "High Street",
                        "addr:suburb": "Thornbury",
                        "addr:postcode": "3071",
                        "opening_hours": "We-Su 09:00-15:00",
                        "outdoor_seating": "no",
                        "addr:housenumber": "846"
                    },
                    "distance": 1554.83627272
                },
                {
                    "id": 6017200045,
                    "tags": {
                        "name": "HA Espresso",
                        "amenity": "cafe"
                    },
                    "distance": 1792.52677783
                },
                {
                    "id": 6017394207,
                    "tags": {
                        "name": "Red Bean",
                        "amenity": "cafe"
                    },
                    "distance": 1792.64132998
                },
                {
                    "id": 2458040386,
                    "tags": {
                        "name": "Half Moon Cafe",
                        "phone": "+61 3 9350 2949",
                        "amenity": "cafe",
                        "cuisine": "egyptian",
                        "addr:state": "VIC",
                        "check_date": "2025-01-06",
                        "wheelchair": "yes",
                        "addr:street": "Victoria Street",
                        "addr:suburb": "Coburg",
                        "payment:cash": "yes",
                        "addr:postcode": "3058",
                        "opening_hours": "10:00-16:00",
                        "outdoor_seating": "yes",
                        "addr:housenumber": "13",
                        "payment:debit_cards": "yes",
                        "payment:credit_cards": "yes"
                    },
                    "distance": 1808.23383986
                },
                {
                    "id": 4232008023,
                    "tags": {
                        "name": "Twins Cafe",
                        "amenity": "cafe",
                        "cuisine": "cafe",
                        "takeaway": "yes",
                        "addr:unit": "7",
                        "addr:state": "VIC",
                        "check_date": "2024-11-14",
                        "wheelchair": "yes",
                        "addr:street": "Sydney Road",
                        "addr:suburb": "Coburg",
                        "addr:postcode": "3058",
                        "addr:housenumber": "441-449"
                    },
                    "distance": 1831.54425421
                },
                {
                    "id": 11834499015,
                    "tags": {
                        "name": "Clove Cafe & Restaurant",
                        "amenity": "cafe",
                        "addr:street": "Lygon Street",
                        "outdoor_seating": "no",
                        "addr:housenumber": "449"
                    },
                    "distance": 1856.89586403
                },
                {
                    "id": 3822572657,
                    "tags": {
                        "name": "The Herbert Caf\u00e9",
                        "amenity": "cafe",
                        "website": "https://www.theherbert.com.au/",
                        "addr:street": "Arthurton Road",
                        "addr:housenumber": "41"
                    },
                    "distance": 2374.13057278
                },
                {
                    "id": 5409203217,
                    "tags": {
                        "name": "Espresso Alley",
                        "amenity": "cafe",
                        "cuisine": "breakfast;lunch",
                        "smoking": "no",
                        "addr:street": "Separation Street",
                        "addr:suburb": "Northcote",
                        "description": "Great coffee",
                        "addr:postcode": "3070",
                        "outdoor_seating": "yes",
                        "addr:housenumber": "4"
                    },
                    "distance": 2552.39028121
                },
                {
                    "id": 8872097276,
                    "tags": {
                        "name": "Mile End Bagels",
                        "phone": "+61 3 7014 8698",
                        "amenity": "cafe",
                        "cuisine": "bagel;coffee",
                        "website": "https://mile-end.com.au/",
                        "addr:state": "VIC",
                        "diet:vegan": "yes",
                        "addr:street": "Wilkinson Street",
                        "addr:suburb": "Brunswick",
                        "payment:cash": "no",
                        "payment:visa": "yes",
                        "addr:postcode": "3056",
                        "drive_through": "no",
                        "opening_hours": "Mo-Su 09:00-14:30",
                        "diet:vegetarian": "yes",
                        "addr:housenumber": "1",
                        "payment:apple_pay": "yes",
                        "payment:google_pay": "yes",
                        "payment:mastercard": "yes",
                        "payment:visa_contactless": "yes",
                        "payment:mastercard_contactless": "yes"
                    },
                    "distance": 2879.13043537
                },
                {
                    "id": 945554121,
                    "tags": {
                        "name": "Launder It",
                        "amenity": "cafe"
                    },
                    "distance": 3110.16039231
                }
            ]
        },
        "26": {
            "execution_time": 0.010767459869384766,
            "results": [
                {
                    "id": 1708039454,
                    "tags": {
                        "amenity": "bench"
                    },
                    "distance": 395.99256069
                },
                {
                    "id": 2926008961,
                    "tags": {
                        "colour": "green",
                        "source": "survey",
                        "amenity": "bench",
                        "backrest": "yes",
                        "material": "metal"
                    },
                    "distance": 2729.4768271
                },
                {
                    "id": 11571503201,
                    "tags": {
                        "amenity": "bench",
                        "backrest": "yes",
                        "material": "wood",
                        "operator": "yes"
                    },
                    "distance": 2946.09633969
                },
                {
                    "id": 8223619580,
                    "tags": {
                        "amenity": "bench",
                        "backrest": "yes",
                        "material": "metal"
                    },
                    "distance": 3229.66220934
                },
                {
                    "id": 12024615367,
                    "tags": {
                        "amenity": "bench",
                        "backrest": "yes"
                    },
                    "distance": 3359.79651202
                },
                {
                    "id": 12160514658,
                    "tags": {
                        "amenity": "bench"
                    },
                    "distance": 3566.83299861
                },
                {
                    "id": 6017238586,
                    "tags": {
                        "amenity": "bench"
                    },
                    "distance": 3799.65696203
                },
                {
                    "id": 8041556830,
                    "tags": {
                        "amenity": "bench",
                        "backrest": "yes"
                    },
                    "distance": 4077.81149479
                },
                {
                    "id": 9280302067,
                    "tags": {
                        "amenity": "bench",
                        "backrest": "no"
                    },
                    "distance": 4249.00030114
                },
                {
                    "id": 9280302070,
                    "tags": {
                        "amenity": "bench",
                        "backrest": "yes",
                        "material": "wood"
                    },
                    "distance": 4273.15817171
                }
            ]
        },
        "27": {
            "execution_time": 0.011137247085571289,
            "results": [
                {
                    "id": 4643411556,
                    "tags": {
                        "name": "Alour Cafe",
                        "amenity": "cafe"
                    },
                    "distance": 849.62385199
                },
                {
                    "id": 5398328261,
                    "tags": {
                        "url": "https://www.facebook.com/Gellibrandcafe/",
                        "name": "Gellibrand",
                        "amenity": "cafe"
                    },
                    "distance": 1163.81931483
                },
                {
                    "id": 6017200045,
                    "tags": {
                        "name": "HA Espresso",
                        "amenity": "cafe"
                    },
                    "distance": 3321.94012086
                },
                {
                    "id": 6017394207,
                    "tags": {
                        "name": "Red Bean",
                        "amenity": "cafe"
                    },
                    "distance": 3816.19922518
                },
                {
                    "id": 8246982605,
                    "tags": {
                        "name": "Pie Face",
                        "brand": "Pie Face",
                        "amenity": "cafe",
                        "cuisine": "coffee_shop",
                        "takeaway": "yes",
                        "addr:state": "VIC",
                        "addr:street": "Bell Street",
                        "addr:suburb": "Preston",
                        "addr:postcode": "3072",
                        "brand:wikidata": "Q18166370",
                        "brand:wikipedia": "en:Pie Face",
                        "addr:housenumber": "103"
                    },
                    "distance": 4208.84728495
                },
                {
                    "id": 3376061062,
                    "tags": {
                        "name": "Casa Nata",
                        "shop": "pastry",
                        "phone": "+61 431 180 838",
                        "amenity": "cafe",
                        "cuisine": "portuguese",
                        "website": "https://casanata.com.au/",
                        "addr:state": "VIC",
                        "addr:street": "High Street",
                        "addr:suburb": "Thornbury",
                        "addr:postcode": "3071",
                        "opening_hours": "We-Su 09:00-15:00",
                        "outdoor_seating": "no",
                        "addr:housenumber": "846"
                    },
                    "distance": 4335.29583269
                },
                {
                    "id": 4744268698,
                    "tags": {
                        "name": "Kia Cafe",
                        "amenity": "cafe",
                        "addr:street": "Kia Court",
                        "addr:housenumber": "7"
                    },
                    "distance": 4352.39865682
                }
            ]
        },
        "28": {
            "execution_time": 0.006769657135009766,
            "results": []
        },
        "29": {
            "execution_time": 0.007217884063720703,
            "results": []
        },
        "30": {
            "execution_time": 0.009749650955200195,
            "results": []
        },
        "31": {
            "execution_time": 0.008545398712158203,
            "results": []
        },
        "32": {
            "execution_time": 0.008228063583374023,
            "results": []
        },
        "33": {
            "execution_time": 0.012988567352294922,
            "results": []
        },
        "34": {
            "execution_time": 0.008046388626098633,
            "results": []
        },
        "35": {
            "execution_time": 0.013365983963012695,
            "results": [
                {
                    "id": 6004368497,
                    "tags": {
                        "amenity": "waste_basket"
                    },
                    "distance": 2381.00904184
                },
                {
                    "id": 6069578293,
                    "tags": {
                        "amenity": "waste_basket",
                        "check_date": "2024-11-18"
                    },
                    "distance": 2598.7326815
                },
                {
                    "id": 6069578294,
                    "tags": {
                        "amenity": "waste_basket",
                        "check_date": "2024-11-18"
                    },
                    "distance": 2613.91958326
                },
                {
                    "id": 5241950720,
                    "tags": {
                        "amenity": "waste_basket"
                    },
                    "distance": 2666.95398553
                },
                {
                    "id": 4792495527,
                    "tags": {
                        "amenity": "waste_basket"
                    },
                    "distance": 2951.50266741
                }
            ]
        },
        "36": {
            "execution_time": 0.006922006607055664,
            "results": []
        },
        "37": {
            "execution_time": 0.010775566101074219,
            "results": [
                {
                    "id": 6359672659,
                    "tags": {
                        "name": "Heatherhill Pizza Factory",
                        "amenity": "fast_food",
                        "cuisine": "pizza",
                        "opening_hours": "Tu-Th,Su 17:00-20:30; Fr,Sa 17:00-21:00"
                    },
                    "distance": 2298.14319263
                },
                {
                    "id": 6359672940,
                    "tags": {
                        "name": "Sawadekaa",
                        "amenity": "fast_food",
                        "cuisine": "thai",
                        "opening_hours": "We-Su 16:30-21:00"
                    },
                    "distance": 2299.19096525
                },
                {
                    "id": 8320158359,
                    "tags": {
                        "name": "Monster Kebab",
                        "phone": "+61 422 684 051",
                        "amenity": "fast_food",
                        "cuisine": "kebab",
                        "website": "https://monsterkebab.com/",
                        "addr:state": "VIC",
                        "addr:street": "Frankston-Flinders Road",
                        "addr:suburb": "Frankston",
                        "addr:postcode": "3199",
                        "addr:housenumber": "38"
                    },
                    "distance": 2476.3750567
                },
                {
                    "id": 1908135662,
                    "tags": {
                        "name": "Domino's",
                        "brand": "Domino's",
                        "amenity": "fast_food",
                        "cuisine": "pizza",
                        "website": "https://www.bubbapizza.com.au/",
                        "takeaway": "yes",
                        "opening_hours": "Mo-Su 11:00-23:00, Fr 11:00-24:00",
                        "brand:wikidata": "Q839466",
                        "brand:wikipedia": "en:Domino's Pizza"
                    },
                    "distance": 3886.27577447
                }
            ]
        },
        "38": {
            "execution_time": 0.008370161056518555,
            "results": []
        },
        "39": {
            "execution_time": 0.01060342788696289,
            "results": []
        },
        "40": {
            "execution_time": 0.017474889755249023,
            "results": [
                {
                    "id": 6160937448,
                    "tags": {
                        "amenity": "waste_basket"
                    },
                    "distance": 1780.35984628
                }
            ]
        },
        "41": {
            "execution_time": 0.005885601043701172,
            "results": []
        },
        "42": {
            "execution_time": 0.009576797485351562,
            "results": []
        },
        "43": {
            "execution_time": 0.017706871032714844,
            "results": [
                {
                    "id": 6089175308,
                    "tags": {
                        "name": "Hannah Travel",
                        "shop": "travel_agency",
                        "addr:street": "Barkly Street",
                        "addr:housenumber": "581"
                    },
                    "distance": 2670.31547647
                }
            ]
        },
        "44": {
            "execution_time": 0.008637189865112305,
            "results": []
        },
        "45": {
            "execution_time": 0.010642290115356445,
            "results": []
        },
        "46": {
            "execution_time": 0.007491111755371094,
            "results": []
        },
        "47": {
            "execution_time": 0.009067535400390625,
            "results": []
        },
        "48": {
            "execution_time": 0.010732650756835938,
            "results": []
        },
        "49": {
            "execution_time": 0.013566017150878906,
            "results": [
                {
                    "id": 9175656670,
                    "tags": {
                        "amenity": "post_box",
                        "collection_times": "Mo-Fr 12:00",
                        "check_date:collection_times": "2024-11-11"
                    },
                    "distance": 3696.40205642
                }
            ]
        }
    }
}